%
(Header)
(Generated by gcodetools from Inkscape.)
(Using default header. To add your own header create file "header" in the output dir.)
M3
(Header end.)
G21 (All units in mm)

(Start cutting path id: path51)
(Change tool to Default tool)

G00 Z5.000000
G00 X119.966660 Y35.862591

G01 Z-0.125000 F100.0(Penetrate)
G02 X114.739090 Y31.946261 Z-0.125000 I-8.237790 J5.548833 F400.000000
G02 X99.227253 Y29.266804 Z-0.125000 I-17.483192 J54.973130
G03 X93.162928 Y28.744619 Z-0.125000 I2.011958 J-58.840353
G03 X91.995309 Y28.265277 Z-0.125000 I0.347282 J-2.507694
G02 X86.775151 Y25.521450 Z-0.125000 I-11.245359 J15.056789
G02 X81.104473 Y24.578917 Z-0.125000 I-5.724853 J16.913282
G02 X73.558407 Y25.300557 Z-0.125000 I-0.117130 J38.589981
G02 X60.393927 Y28.641862 Z-0.125000 I23.848301 J121.564599
G03 X60.309376 Y28.524258 Z-0.125000 I-0.022794 J-0.072807
G03 X61.576611 Y27.011404 Z-0.125000 I11.464382 J8.315906
G02 X63.154833 Y25.096601 Z-0.125000 I-11.513364 J-11.097369
G02 X64.206509 Y23.261951 Z-0.125000 I-9.508114 J-6.669084
G02 X64.816234 Y21.266571 Z-0.125000 I-7.165049 J-3.280259
G02 X64.924902 Y18.914964 Z-0.125000 I-9.897435 J-1.635675
G02 X62.007930 Y12.598213 Z-0.125000 I-9.819448 J0.702579
G02 X54.557988 Y8.720633 Z-0.125000 I-10.057448 J10.227714
G02 X47.427787 Y8.343434 Z-0.125000 I-5.008314 J27.092483
G02 X41.195309 Y9.752830 Z-0.125000 I1.699362 J21.999725
G03 X40.111794 Y10.041145 Z-0.125000 I-1.875876 J-4.869587
G03 X37.814255 Y10.272231 Z-0.125000 I-3.360803 J-21.877261
G02 X35.536998 Y10.553032 Z-0.125000 I0.739157 J15.368986
G02 X34.379783 Y10.958848 Z-0.125000 I0.861610 J4.309799
G02 X33.087665 Y12.296820 Z-0.125000 I1.335567 J2.582699
G02 X33.030237 Y13.807810 Z-0.125000 I1.736522 J0.822586
G03 X32.998340 Y14.245541 Z-0.125000 I-0.481876 J0.184913
G03 X32.522229 Y14.711993 Z-0.125000 I-1.037805 J-0.583083
G02 X31.290292 Y16.635921 Z-0.125000 I1.104373 J2.063539
G02 X32.288710 Y18.619811 Z-0.125000 I2.208054 J0.131947
G03 X32.425636 Y18.890546 Z-0.125000 I-0.165808 J0.253851
G03 X32.235900 Y19.566758 Z-0.125000 I-1.622325 J-0.090478
G02 X32.043258 Y20.960008 Z-0.125000 I1.788645 J0.957255
G02 X32.877896 Y22.484173 Z-0.125000 I3.024325 J-0.665522
G02 X34.036482 Y23.207823 Z-0.125000 I2.145139 J-2.145141
G02 X35.876507 Y23.515369 Z-0.125000 I1.840025 J-5.350600
G03 X37.566995 Y23.792298 Z-0.125000 I0.000000 J5.298187
G03 X37.843922 Y24.177729 Z-0.125000 I-0.129762 J0.385431
G02 X37.979657 Y24.776347 Z-0.125000 I1.387884 J0.000000
G02 X38.368854 Y25.275744 Z-0.125000 I1.332247 J-0.636911
G03 X38.563263 Y25.754493 Z-0.125000 I-0.349061 J0.420593
G03 X38.221150 Y26.656032 Z-0.125000 I-1.892637 J-0.202530
G02 X36.744937 Y29.705077 Z-0.125000 I8.257238 J5.879671
G02 X35.813803 Y34.933988 Z-0.125000 I23.925484 J6.957872
G03 X35.341624 Y37.617590 Z-0.125000 I-13.002254 J-0.904403
G03 X34.527471 Y39.426133 Z-0.125000 I-6.638572 J-1.900964
G03 X33.341773 Y40.837790 Z-0.125000 I-5.928678 J-3.775911
G03 X32.905033 Y40.909524 Z-0.125000 I-0.273371 J-0.298995
G02 X30.684559 Y40.365111 Z-0.125000 I-2.653078 J6.020514
G02 X28.135825 Y40.595252 Z-0.125000 I-0.542029 J8.225483
G02 X26.114171 Y41.694703 Z-0.125000 I1.122531 J4.472513
G02 X23.976610 Y44.472246 Z-0.125000 I7.293009 J7.823895
G02 X23.471032 Y45.983800 Z-0.125000 I4.188451 J2.241263
G02 X23.203644 Y49.444535 Z-0.125000 I22.262006 J3.460735
G02 X23.468256 Y52.914341 Z-0.125000 I22.881750 J-0.000000
G02 X24.015465 Y54.736202 Z-0.125000 I6.758502 J-1.036855
G02 X25.919156 Y57.680304 Z-0.125000 I11.201141 J-5.155263
G02 X28.036819 Y59.352412 Z-0.125000 I5.506927 J-4.797295
G02 X30.829708 Y60.053837 Z-0.125000 I2.851500 J-5.442929
G02 X33.581275 Y59.405312 Z-0.125000 I0.056488 J-5.921777
G03 X34.361418 Y59.427946 Z-0.125000 I0.369429 J0.722825
G03 X36.689589 Y61.228573 Z-0.125000 I-5.840830 J9.957514
G03 X38.796689 Y63.595225 Z-0.125000 I-19.607946 J19.578860
G03 X39.769592 Y65.114325 Z-0.125000 I-7.037774 J5.578419
G02 X43.951401 Y70.886593 Z-0.125000 I20.213048 J-10.242733
G02 X52.757108 Y78.115008 Z-0.125000 I40.953339 J-40.911858
G02 X64.957222 Y84.929684 Z-0.125000 I48.935426 J-73.279560
G02 X72.499396 Y87.169829 Z-0.125000 I11.644709 J-25.389034
G02 X82.957171 Y87.566589 Z-0.125000 I7.033536 J-47.368463
G02 X88.525695 Y86.020923 Z-0.125000 I-1.044183 J-14.565461
G02 X93.650296 Y82.891656 Z-0.125000 I-17.390187 J-34.239542
G02 X95.184767 Y81.201693 Z-0.125000 I-3.253886 J-4.496124
G02 X95.761991 Y77.934181 Z-0.125000 I-4.115301 J-2.411731
G02 X94.282408 Y76.253759 Z-0.125000 I-2.136599 J0.389654
G03 X93.691790 Y75.890811 Z-0.125000 I0.434571 J-1.369194
G03 X93.032805 Y74.980634 Z-0.125000 I2.693731 J-2.643958
G02 X91.611386 Y73.812066 Z-0.125000 I-2.071876 J1.071406
G02 X88.744844 Y73.735469 Z-0.125000 I-1.579652 J5.439833
G03 X85.833686 Y73.936256 Z-0.125000 I-2.076400 J-8.900734
G03 X83.227506 Y73.229438 Z-0.125000 I0.714825 J-7.793870
G03 X83.211391 Y72.892896 Z-0.125000 I0.080847 J-0.172528
G03 X84.744856 Y72.332412 Z-0.125000 I2.276826 J3.851320
G02 X90.150302 Y70.776645 Z-0.125000 I-4.132769 J-24.527508
G02 X93.307781 Y68.776955 Z-0.125000 I-4.211027 J-10.141794
G03 X93.995155 Y68.465608 Z-0.125000 I0.829237 J0.916297
G03 X96.023052 Y68.463188 Z-0.125000 I1.024530 J8.866013
G02 X98.130419 Y68.558995 Z-0.125000 I1.765206 J-15.602690
G02 X102.646580 Y68.318820 Z-0.125000 I-1.572569 J-72.150145
G02 X115.641903 Y65.353078 Z-0.125000 I-4.032325 J-47.623297
G02 X119.917540 Y61.733507 Z-0.125000 I-3.007569 J-7.887800
G02 X120.472938 Y60.128943 Z-0.125000 I-3.744860 J-2.194636
G02 X120.688990 Y56.111387 Z-0.125000 I-24.143851 J-3.312970
G01 X120.570310 Y52.008147 Z-0.125000
G01 X119.025630 Y50.638149 Z-0.125000
G02 X117.430606 Y49.400812 Z-0.125000 I-10.191603 J11.491046
G02 X116.997160 Y49.268151 Z-0.125000 I-0.433446 J0.641774
G03 X116.782402 Y48.916922 Z-0.125000 I0.000000 J-0.241271
G03 X117.530250 Y48.226983 Z-0.125000 I1.311847 J0.671677
G02 X118.473636 Y47.698214 Z-0.125000 I-1.755179 J-4.237385
G02 X119.558730 Y46.750958 Z-0.125000 I-4.786804 J-6.578470
G02 X120.197848 Y45.540645 Z-0.125000 I-1.795818 J-1.722202
G02 X120.684330 Y41.396730 Z-0.125000 I-22.627488 J-4.756907
G02 X120.468814 Y37.193189 Z-0.125000 I-27.089370 J-0.718418
G02 X119.966660 Y35.862595 Z-0.125000 I-3.068359 J0.397919
G01 X119.966660 Y35.862591 Z-0.125000
G00 Z5.000000

(End cutting path id: path51)


(Start cutting path id: path51)
(Change tool to Default tool)

G00 Z5.000000
G00 X115.408160 Y36.088875

G01 Z-0.125000 F100.0(Penetrate)
G02 X114.962071 Y37.012244 Z-0.125000 I1.247836 J1.172281 F400.000000
G02 X114.627240 Y41.403278 Z-0.125000 I31.238654 J4.590338
G02 X114.718406 Y45.899147 Z-0.125000 I84.536681 J0.534651
G02 X114.882000 Y46.836502 Z-0.125000 I3.784341 J-0.177518
G03 X114.765176 Y47.517884 Z-0.125000 I-0.731535 J0.225282
G03 X114.031310 Y47.983030 Z-0.125000 I-0.970985 J-0.720446
G03 X112.888367 Y48.118602 Z-0.125000 I-1.424119 J-7.120479
G03 X108.178990 Y48.209813 Z-0.125000 I-4.709377 J-121.530839
G01 X103.460590 Y48.209813 Z-0.125000
G01 X103.460590 Y47.207910 Z-0.125000
G02 X102.554125 Y42.148070 Z-0.125000 I-14.575108 J-0.000000
G02 X99.162850 Y35.598008 Z-0.125000 I-28.142515 J10.417759
G01 X98.135025 Y34.098702 Z-0.125000
G01 X99.187241 Y34.098702 Z-0.125000
G02 X103.055790 Y33.649296 Z-0.125000 I0.000000 J-16.875188
G02 X106.934770 Y32.274029 Z-0.125000 I-4.320053 J-18.342862
G03 X108.500171 Y31.883876 Z-0.125000 I1.716834 J3.552924
G03 X110.624920 Y32.132310 Z-0.125000 I0.266262 J6.933030
G03 X115.704419 Y34.018009 Z-0.125000 I-8.619306 J31.001947
G03 X116.160590 Y34.736769 Z-0.125000 I-0.338167 J0.718760
G03 X116.030884 Y35.236583 Z-0.125000 I-1.027852 J-0.000000
G03 X115.408160 Y36.088875 Z-0.125000 I-3.753309 J-2.088699
G01 X115.408160 Y36.088875 Z-0.125000
G00 Z5.000000

(End cutting path id: path51)


(Start cutting path id: path51)
(Change tool to Default tool)

G00 Z5.000000
G00 X115.211850 Y38.949397

G01 Z-0.125000 F100.0(Penetrate)
G03 X115.132544 Y38.332035 Z-0.125000 I2.363299 J-0.617362 F400.000000
G03 X115.211850 Y37.714675 Z-0.125000 I2.442591 J0.000000
G01 X115.293840 Y37.714669 Z-0.125000
G03 X115.373190 Y38.332036 Z-0.125000 I-2.361985 J0.617367
G03 X115.293853 Y38.949397 Z-0.125000 I-2.441668 J0.000000
G01 X115.211850 Y38.949397 Z-0.125000
G01 X115.211850 Y38.949397 Z-0.125000
G00 Z5.000000

(End cutting path id: path51)


(Start cutting path id: path51)
(Change tool to Default tool)

G00 Z5.000000
G00 X114.850210 Y44.247382

G01 Z-0.125000 F100.0(Penetrate)
G03 X114.776534 Y43.282539 Z-0.125000 I6.427214 J-0.976021 F400.000000
G03 X114.846210 Y42.130715 Z-0.125000 I9.291204 J-0.015977
G01 X114.918898 Y42.129715 Z-0.125000
G03 X114.992560 Y43.094536 Z-0.125000 I-6.426563 J0.975877
G03 X114.922490 Y44.246387 Z-0.125000 I-9.241434 J0.015876
G01 X114.849810 Y44.247382 Z-0.125000
G01 X114.850210 Y44.247382 Z-0.125000
G00 Z5.000000

(End cutting path id: path51)


(Start cutting path id: path51)
(Change tool to Default tool)

G00 Z5.000000
G00 X115.574170 Y47.239674

G01 Z-0.125000 F100.0(Penetrate)
G03 X115.488527 Y46.798703 Z-0.125000 I1.092446 J-0.440971 F400.000000
G03 X115.574170 Y46.357730 Z-0.125000 I1.178098 J0.000000
G01 X115.666504 Y46.357737 Z-0.125000
G03 X115.752110 Y46.798702 Z-0.125000 I-1.092927 J0.440965
G03 X115.666485 Y47.239680 Z-0.125000 I-1.178353 J-0.000000
G01 X115.574170 Y47.239674 Z-0.125000
G01 X115.574170 Y47.239674 Z-0.125000
G00 Z5.000000

(End cutting path id: path51)


(Start cutting path id: path51)
(Change tool to Default tool)

G00 Z5.000000
G00 X115.594670 Y51.289270

G01 Z-0.125000 F100.0(Penetrate)
G03 X115.491325 Y51.053606 Z-0.125000 I0.250212 J-0.250216 F400.000000
G03 X115.566870 Y50.613112 Z-0.125000 I1.066137 J-0.043882
G03 X115.676661 Y50.590585 Z-0.125000 I0.062324 J0.024941
G03 X115.780010 Y50.826250 Z-0.125000 I-0.250229 J0.250230
G03 X115.704491 Y51.266758 Z-0.125000 I-1.066557 J0.043880
G03 X115.594720 Y51.289270 Z-0.125000 I-0.062308 J-0.024937
G01 X115.594670 Y51.289270 Z-0.125000
G00 Z5.000000

(End cutting path id: path51)


(Start cutting path id: path51)
(Change tool to Default tool)

G00 Z5.000000
G00 X114.850210 Y55.536270

G01 Z-0.125000 F100.0(Penetrate)
G03 X114.776534 Y54.571429 Z-0.125000 I6.427193 J-0.976020 F400.000000
G03 X114.846210 Y53.419604 Z-0.125000 I9.291207 J-0.015977
G01 X114.918898 Y53.418604 Z-0.125000
G03 X114.992560 Y54.383424 Z-0.125000 I-6.426551 J0.975876
G03 X114.922490 Y55.535275 Z-0.125000 I-9.241434 J0.015876
G01 X114.849810 Y55.536270 Z-0.125000
G01 X114.850210 Y55.536270 Z-0.125000
G00 Z5.000000

(End cutting path id: path51)


(Start cutting path id: path51)
(Change tool to Default tool)

G00 Z5.000000
G00 X115.223650 Y59.946387

G01 Z-0.125000 F100.0(Penetrate)
G03 X115.135221 Y59.506474 Z-0.125000 I1.124878 J-0.454960 F400.000000
G03 X115.210550 Y58.888054 Z-0.125000 I2.338101 J-0.028998
G01 X115.297788 Y58.882389 Z-0.125000
G03 X115.386240 Y59.322313 Z-0.125000 I-1.124276 J0.454904
G03 X115.310832 Y59.940723 Z-0.125000 I-2.342442 J0.028170
G01 X115.223620 Y59.946387 Z-0.125000
G01 X115.223650 Y59.946387 Z-0.125000
G00 Z5.000000

(End cutting path id: path51)


(Start cutting path id: path51)
(Change tool to Default tool)

G00 Z5.000000
G00 X116.380170 Y61.968146

G01 Z-0.125000 F100.0(Penetrate)
G03 X116.269264 Y61.922203 Z-0.125000 I0.000000 J-0.156836 F400.000000
G03 X115.762810 Y61.350785 Z-0.125000 I4.491846 J-4.491316
G03 X115.770377 Y61.225158 Z-0.125000 I0.074651 J-0.058545
G03 X115.896000 Y61.217590 Z-0.125000 I0.067081 J0.067079
G03 X116.455066 Y61.830705 Z-0.125000 I-1.545617 J1.970811
G03 X116.380170 Y61.968146 Z-0.125000 I-0.074896 J0.048314
G01 X116.380170 Y61.968146 Z-0.125000
G00 Z5.000000

(End cutting path id: path51)


(Start cutting path id: path51)
(Change tool to Default tool)

G00 Z5.000000
G00 X114.396700 Y64.325623

G01 Z-0.125000 F100.0(Penetrate)
G03 X112.772667 Y64.994725 Z-0.125000 I-6.309244 J-13.008229 F400.000000
G03 X110.413450 Y65.690093 Z-0.125000 I-9.186448 J-26.817594
G03 X108.093363 Y65.983463 Z-0.125000 I-2.403193 J-9.684647
G03 X107.388630 Y65.715283 Z-0.125000 I-0.008640 J-1.037347
G02 X104.944149 Y64.388689 Z-0.125000 I-3.952256 J4.367232
G02 X99.899238 Y63.732037 Z-0.125000 I-5.044911 J19.051145
G01 X98.567417 Y63.732037 Z-0.125000
G01 X99.964019 Y61.350787 Z-0.125000
G02 X102.258167 Y56.328473 Z-0.125000 I-23.399565 J-13.723839
G02 X103.340180 Y51.381746 Z-0.125000 I-21.610032 J-7.318531
G01 X103.550700 Y49.367621 Z-0.125000
G01 X108.532730 Y49.513502 Z-0.125000
G03 X114.489294 Y50.271092 Z-0.125000 I-0.905162 J30.912439
G03 X114.890040 Y50.960106 Z-0.125000 I-0.120914 J0.531375
G02 X114.720781 Y51.931353 Z-0.125000 I3.912043 J1.182121
G02 X114.616780 Y56.248933 Z-0.125000 I78.317685 J4.046551
G02 X114.928331 Y60.480948 Z-0.125000 I30.324704 J-0.104956
G02 X115.381470 Y61.540599 Z-0.125000 I2.213533 J-0.319861
G03 X115.614597 Y62.963450 Z-0.125000 I-1.178683 J0.923645
G03 X114.396700 Y64.325625 Z-0.125000 I-2.267457 J-0.801757
G01 X114.396700 Y64.325623 Z-0.125000
G00 Z5.000000

(End cutting path id: path51)


(Start cutting path id: path51)
(Change tool to Default tool)

G00 Z5.000000
G00 X119.334300 Y59.877677

G01 Z-0.125000 F100.0(Penetrate)
G03 X117.884066 Y62.612476 Z-0.125000 I-6.941681 J-1.929177 F400.000000
G03 X117.218920 Y62.368133 Z-0.125000 I-0.287693 J-0.244343
G02 X117.124330 Y61.970440 Z-0.125000 I-0.883325 J0.000000
G02 X116.520880 Y60.983723 Z-0.125000 I-6.314322 J3.183788
G03 X116.082501 Y59.940183 Z-0.125000 I1.978989 J-1.445199
G03 X115.746590 Y56.323702 Z-0.125000 I24.891375 J-4.135837
G03 X115.806257 Y52.637157 Z-0.125000 I50.167972 J-1.031780
G03 X116.004880 Y51.449555 Z-0.125000 I5.341991 J0.283022
G01 X116.339420 Y50.279571 Z-0.125000
G01 X117.572920 Y51.108990 Z-0.125000
G03 X118.627476 Y52.075935 Z-0.125000 I-2.669263 J3.969641
G03 X119.227480 Y53.160919 Z-0.125000 I-2.796209 J2.254719
G03 X119.786879 Y56.347277 Z-0.125000 I-9.725387 J3.349677
G03 X119.334150 Y59.877677 Z-0.125000 I-12.449813 J0.197699
G01 X119.334300 Y59.877677 Z-0.125000
G00 Z5.000000

(End cutting path id: path51)


(Start cutting path id: path51)
(Change tool to Default tool)

G00 Z5.000000
G00 X120.137640 Y58.008720

G01 Z-0.125000 F100.0(Penetrate)
G03 X120.068342 Y56.694632 Z-0.125000 I12.626258 J-1.324712 F400.000000
G03 X120.135640 Y55.186498 Z-0.125000 I16.620436 J-0.013910
G01 X120.204163 Y55.185984 Z-0.125000
G03 X120.273460 Y56.500091 Z-0.125000 I-12.623748 J1.324574
G03 X120.206450 Y58.008204 Z-0.125000 I-16.761181 J0.010798
G01 X120.137970 Y58.008720 Z-0.125000
G01 X120.137640 Y58.008720 Z-0.125000
G00 Z5.000000

(End cutting path id: path51)


(Start cutting path id: path51)
(Change tool to Default tool)

G00 Z5.000000
G00 X119.149270 Y45.140498

G01 Z-0.125000 F100.0(Penetrate)
G03 X118.784389 Y45.687048 Z-0.125000 I-1.487523 J-0.598007 F400.000000
G03 X117.615590 Y46.644817 Z-0.125000 I-5.936049 J-6.051925
G01 X116.337120 Y47.514287 Z-0.125000
G01 X116.003800 Y46.362743 Z-0.125000
G03 X115.806157 Y45.193340 Z-0.125000 I4.983793 J-1.443723
G03 X115.746590 Y41.507036 Z-0.125000 I50.120606 J-2.653533
G03 X116.082503 Y37.890553 Z-0.125000 I25.228331 J0.519460
G03 X116.520880 Y36.847015 Z-0.125000 I2.417340 J0.401648
G02 X117.124330 Y35.860299 Z-0.125000 I-5.710867 J-4.170501
G02 X117.218920 Y35.462604 Z-0.125000 I-0.788738 J-0.397695
G03 X117.860872 Y35.213946 Z-0.125000 I0.369134 J0.000000
G03 X119.334220 Y37.783431 Z-0.125000 I-5.050090 J4.602886
G03 X119.871984 Y41.641115 Z-0.125000 I-11.411189 J3.557052
G03 X119.149130 Y45.140498 Z-0.125000 I-10.056698 J-0.253023
G01 X119.149270 Y45.140498 Z-0.125000
G00 Z5.000000

(End cutting path id: path51)


(Start cutting path id: path51)
(Change tool to Default tool)

G00 Z5.000000
G00 X120.136930 Y42.124397

G01 Z-0.125000 F100.0(Penetrate)
G03 X120.067936 Y40.801481 Z-0.125000 I12.648608 J-1.322916 F400.000000
G03 X120.136930 Y39.478563 Z-0.125000 I12.717636 J-0.000000
G01 X120.206306 Y39.478562 Z-0.125000
G03 X120.275310 Y40.801480 Z-0.125000 I-12.646634 J1.322918
G03 X120.206299 Y42.124399 Z-0.125000 I-12.714545 J-0.000000
G01 X120.136930 Y42.124397 Z-0.125000
G01 X120.136930 Y42.124397 Z-0.125000
G00 Z5.000000

(End cutting path id: path51)


(Start cutting path id: path51)
(Change tool to Default tool)

G00 Z5.000000
G00 X103.901560 Y48.805771

G01 Z-0.125000 F100.0(Penetrate)
G01 X103.901560 Y48.723769 Z-0.125000 F400.000000
G03 X104.518920 Y48.644435 Z-0.125000 I0.617360 J2.362406
G03 X105.136280 Y48.723771 Z-0.125000 I-0.000000 J2.441699
G01 X105.136280 Y48.805771 Z-0.125000
G03 X104.518920 Y48.885102 Z-0.125000 I-0.617360 J-2.362500
G03 X103.901560 Y48.805771 Z-0.125000 I-0.000000 J-2.441831
G01 X103.901560 Y48.805771 Z-0.125000
G00 Z5.000000

(End cutting path id: path51)


(Start cutting path id: path51)
(Change tool to Default tool)

G00 Z5.000000
G00 X100.689730 Y56.294111

G01 Z-0.125000 F100.0(Penetrate)
G03 X94.550754 Y65.666047 Z-0.125000 I-23.623427 J-8.777648 F400.000000
G03 X85.805703 Y70.632675 Z-0.125000 I-14.088831 J-14.624790
G03 X80.159777 Y71.482713 Z-0.125000 I-6.443756 J-23.624180
G03 X73.692312 Y71.027554 Z-0.125000 I-1.028768 J-31.558464
G03 X70.736530 Y70.139602 Z-0.125000 I2.244054 J-12.833449
G03 X69.138720 Y69.045387 Z-0.125000 I2.047305 J-4.703240
G02 X65.980696 Y66.745313 Z-0.125000 I-8.665390 J8.579628
G02 X62.369158 Y65.618599 Z-0.125000 I-5.164297 J10.201975
G01 X60.767494 Y65.399065 Z-0.125000
G01 X60.859174 Y49.179899 Z-0.125000
G01 X60.950864 Y32.960734 Z-0.125000
G01 X62.987486 Y32.330651 Z-0.125000
G02 X65.887953 Y30.969617 Z-0.125000 I-3.424430 J-11.068796
G02 X68.513372 Y28.730370 Z-0.125000 I-7.336561 J-11.260514
G03 X69.573265 Y28.009951 Z-0.125000 I2.015166 J1.824870
G03 X72.945309 Y27.067019 Z-0.125000 I7.130809 J18.999786
G03 X82.520371 Y26.498433 Z-0.125000 I7.014361 J37.215840
G03 X88.579954 Y28.126600 Z-0.125000 I-1.095737 J16.168151
G03 X95.331881 Y33.101690 Z-0.125000 I-10.474400 J21.284519
G03 X100.163590 Y40.361457 Z-0.125000 I-18.624594 J17.633272
G03 X101.550435 Y44.814838 Z-0.125000 I-18.669817 J8.256675
G03 X101.919440 Y49.620924 Z-0.125000 I-21.419879 J4.061797
G03 X101.522908 Y53.271779 Z-0.125000 I-24.806596 J-0.847369
G03 X100.689730 Y56.294111 Z-0.125000 I-17.790733 J-3.278431
G01 X100.689730 Y56.294111 Z-0.125000
G00 Z5.000000

(End cutting path id: path51)


(Start cutting path id: path51)
(Change tool to Default tool)

G00 Z5.000000
G00 X99.322161 Y64.329284

G01 Z-0.125000 F100.0(Penetrate)
G01 X99.316501 Y64.242033 Z-0.125000 F400.000000
G03 X99.756420 Y64.153587 Z-0.125000 I0.454899 J1.124335
G03 X100.374831 Y64.228958 Z-0.125000 I0.028913 J2.337468
G01 X100.380490 Y64.316214 Z-0.125000
G03 X99.940576 Y64.404658 Z-0.125000 I-0.454902 J-1.124381
G03 X99.322161 Y64.329304 Z-0.125000 I-0.028895 J-2.338147
G01 X99.322161 Y64.329284 Z-0.125000
G00 Z5.000000

(End cutting path id: path51)


(Start cutting path id: path51)
(Change tool to Default tool)

G00 Z5.000000
G00 X101.983330 Y64.678577

G01 Z-0.125000 F100.0(Penetrate)
G03 X101.960804 Y64.568790 Z-0.125000 I0.024939 J-0.062321 F400.000000
G03 X102.196470 Y64.465443 Z-0.125000 I0.250228 J0.250232
G03 X102.636961 Y64.540940 Z-0.125000 I0.043910 J1.066581
G03 X102.659490 Y64.650728 Z-0.125000 I-0.024938 J0.062323
G03 X102.423822 Y64.754073 Z-0.125000 I-0.250227 J-0.250237
G03 X101.983330 Y64.678558 Z-0.125000 I-0.043909 J-1.066370
G01 X101.983330 Y64.678577 Z-0.125000
G00 Z5.000000

(End cutting path id: path51)


(Start cutting path id: path51)
(Change tool to Default tool)

G00 Z5.000000
G00 X101.108820 Y67.042205

G01 Z-0.125000 F100.0(Penetrate)
G03 X97.532924 Y67.169039 Z-0.125000 I-3.709714 J-54.117873 F400.000000
G03 X96.587237 Y67.053355 Z-0.125000 I-0.009487 J-3.845662
G01 X95.652140 Y66.818659 Z-0.125000
G01 X96.623757 Y65.804511 Z-0.125000
G03 X98.461127 Y65.034927 Z-0.125000 I1.803617 J1.727970
G03 X104.857590 Y65.915784 Z-0.125000 I-0.354620 J26.239951
G03 X105.620172 Y66.334570 Z-0.125000 I-0.466941 J1.753965
G03 X105.563140 Y66.565502 Z-0.125000 I-0.091911 J0.099809
G03 X104.684057 Y66.728465 Z-0.125000 I-1.500035 J-5.639205
G03 X101.108820 Y67.042200 Z-0.125000 I-10.005221 J-93.488735
G01 X101.108820 Y67.042205 Z-0.125000
G00 Z5.000000

(End cutting path id: path51)


(Start cutting path id: path51)
(Change tool to Default tool)

G00 Z5.000000
G00 X99.495950 Y67.862096

G01 Z-0.125000 F100.0(Penetrate)
G01 X99.493316 Y67.782415 Z-0.125000 F400.000000
G03 X100.109200 Y67.701554 Z-0.125000 I0.628403 J2.400398
G03 X100.904427 Y67.775299 Z-0.125000 I0.020614 J4.102245
G01 X100.907060 Y67.854977 Z-0.125000
G03 X100.291176 Y67.935836 Z-0.125000 I-0.628384 J-2.400311
G03 X99.495950 Y67.862077 Z-0.125000 I-0.020660 J-4.100989
G01 X99.495950 Y67.862096 Z-0.125000
G00 Z5.000000

(End cutting path id: path51)


(Start cutting path id: path51)
(Change tool to Default tool)

G00 Z5.000000
G00 X96.140447 Y67.855771

G01 Z-0.125000 F100.0(Penetrate)
G01 X96.140446 Y67.773773 Z-0.125000 F400.000000
G03 X96.757809 Y67.694435 Z-0.125000 I0.617363 J2.362321
G03 X97.375170 Y67.773770 Z-0.125000 I0.000000 J2.441710
G01 X97.375170 Y67.855771 Z-0.125000
G03 X96.757808 Y67.935103 Z-0.125000 I-0.617362 J-2.362498
G03 X96.140447 Y67.855771 Z-0.125000 I0.000000 J-2.441830
G01 X96.140447 Y67.855771 Z-0.125000
G00 Z5.000000

(End cutting path id: path51)


(Start cutting path id: path51)
(Change tool to Default tool)

G00 Z5.000000
G00 X90.738344 Y76.816887

G01 Z-0.125000 F100.0(Penetrate)
G03 X88.559307 Y77.610675 Z-0.125000 I-2.562262 J-3.645952 F400.000000
G03 X87.216133 Y77.120915 Z-0.125000 I-0.145642 J-1.687292
G03 X86.645161 Y76.349693 Z-0.125000 I2.299104 J-2.299104
G03 X86.615144 Y75.991973 Z-0.125000 I0.401661 J-0.213824
G03 X88.495229 Y74.341096 Z-0.125000 I2.353789 J0.784593
G03 X91.350103 Y75.071011 Z-0.125000 I0.657052 J3.378120
G03 X91.540278 Y75.756774 Z-0.125000 I-0.398066 J0.479643
G03 X90.738344 Y76.816887 Z-0.125000 I-2.052338 J-0.719142
G01 X90.738344 Y76.816887 Z-0.125000
G00 Z5.000000

(End cutting path id: path51)


(Start cutting path id: path51)
(Change tool to Default tool)

G00 Z5.000000
G00 X86.813885 Y79.848021

G01 Z-0.125000 F100.0(Penetrate)
G03 X86.791359 Y79.738234 Z-0.125000 I0.024939 J-0.062322 F400.000000
G03 X87.027023 Y79.634887 Z-0.125000 I0.250227 J0.250229
G03 X87.467516 Y79.710385 Z-0.125000 I0.043910 J1.066586
G03 X87.490044 Y79.820173 Z-0.125000 I-0.024938 J0.062323
G03 X87.254378 Y79.923517 Z-0.125000 I-0.250225 J-0.250236
G03 X86.813885 Y79.848003 Z-0.125000 I-0.043909 J-1.066380
G01 X86.813885 Y79.848021 Z-0.125000
G00 Z5.000000

(End cutting path id: path51)


(Start cutting path id: path51)
(Change tool to Default tool)

G00 Z5.000000
G00 X85.930342 Y78.930735

G01 Z-0.125000 F100.0(Penetrate)
G03 X83.358696 Y76.864398 Z-0.125000 I1.066525 J-3.960769 F400.000000
G03 X84.113516 Y75.441597 Z-0.125000 I0.867199 J-0.451559
G03 X84.824274 Y75.651124 Z-0.125000 I0.108870 J0.940972
G03 X85.287102 Y76.407316 Z-0.125000 I-0.861626 J1.047092
G02 X85.693377 Y77.376398 Z-0.125000 I2.854236 J-0.626898
G02 X86.507822 Y78.279694 Z-0.125000 I3.279536 J-2.138135
G03 X87.394622 Y79.087069 Z-0.125000 I-6.577604 J8.115380
G03 X87.398318 Y79.189247 Z-0.125000 I-0.054255 J0.053118
G03 X87.282345 Y79.231186 Z-0.125000 I-0.094499 J-0.079999
G03 X85.930342 Y78.930735 Z-0.125000 I2.708303 J-15.379297
G01 X85.930342 Y78.930735 Z-0.125000
G00 Z5.000000

(End cutting path id: path51)


(Start cutting path id: path51)
(Change tool to Default tool)

G00 Z5.000000
G00 X87.321003 Y85.037505

G01 Z-0.125000 F100.0(Penetrate)
G03 X82.659177 Y86.037627 Z-0.125000 I-7.081039 J-21.641499 F400.000000
G03 X76.649475 Y86.177736 Z-0.125000 I-3.845569 J-35.990994
G03 X69.933666 Y85.027001 Z-0.125000 I1.857623 J-31.013738
G03 X66.327526 Y83.214385 Z-0.125000 I3.008199 J-10.478167
G02 X61.376477 Y80.107021 Z-0.125000 I-19.413278 J25.433706
G02 X57.070309 Y78.523601 Z-0.125000 I-8.909769 J17.583344
G03 X50.861973 Y75.557485 Z-0.125000 I3.854575 J-16.048305
G03 X43.218729 Y67.868870 Z-0.125000 I24.983159 J-32.479111
G03 X40.898651 Y64.479650 Z-0.125000 I33.058140 J-25.118530
G03 X41.052818 Y64.342478 Z-0.125000 I0.089304 J-0.054851
G02 X43.974354 Y65.811724 Z-0.125000 I5.059593 J-6.421492
G02 X55.833713 Y68.347476 Z-0.125000 I29.404451 J-108.520383
G03 X60.560521 Y69.253040 Z-0.125000 I-11.521653 J72.929172
G03 X66.064269 Y70.655479 Z-0.125000 I-22.628913 J100.305862
G02 X73.993626 Y72.535788 Z-0.125000 I25.175557 J-88.507179
G02 X77.836167 Y72.901594 Z-0.125000 I3.869154 J-20.278269
G03 X79.847580 Y73.122263 Z-0.125000 I-0.011648 J9.383583
G03 X81.235152 Y73.651959 Z-0.125000 I-1.090381 J4.938589
G03 X82.056585 Y74.539889 Z-0.125000 I-0.964609 J1.716293
G03 X82.021533 Y75.347480 Z-0.125000 I-0.797624 J0.369937
G02 X82.347807 Y78.223113 Z-0.125000 I2.118651 J1.215940
G02 X86.557892 Y80.246501 Z-0.125000 I4.669180 J-4.323534
G03 X88.228029 Y80.692168 Z-0.125000 I-0.332652 J4.598861
G03 X88.445489 Y81.156756 Z-0.125000 I-0.176371 J0.365742
G02 X88.389227 Y81.907662 Z-0.125000 I2.144567 J0.538244
G02 X88.603368 Y82.790329 Z-0.125000 I3.201208 J-0.309326
G03 X88.514785 Y84.063767 Z-0.125000 I-1.365388 J0.544821
G03 X87.321003 Y85.037505 Z-0.125000 I-1.859612 J-1.061199
G01 X87.321003 Y85.037505 Z-0.125000
G00 Z5.000000

(End cutting path id: path51)


(Start cutting path id: path51)
(Change tool to Default tool)

G00 Z5.000000
G00 X81.874996 Y86.903576

G01 Z-0.125000 F100.0(Penetrate)
G03 X81.852469 Y86.793789 Z-0.125000 I0.024939 J-0.062322 F400.000000
G03 X82.088134 Y86.690442 Z-0.125000 I0.250227 J0.250229
G03 X82.528626 Y86.765939 Z-0.125000 I0.043912 J1.066586
G03 X82.551155 Y86.875728 Z-0.125000 I-0.024938 J0.062323
G03 X82.315489 Y86.979073 Z-0.125000 I-0.250225 J-0.250232
G03 X81.874996 Y86.903562 Z-0.125000 I-0.043912 J-1.066410
G01 X81.874996 Y86.903576 Z-0.125000
G00 Z5.000000

(End cutting path id: path51)


(Start cutting path id: path51)
(Change tool to Default tool)

G00 Z5.000000
G00 X75.172218 Y86.903576

G01 Z-0.125000 F100.0(Penetrate)
G03 X75.149692 Y86.793789 Z-0.125000 I0.024939 J-0.062322 F400.000000
G03 X75.385356 Y86.690442 Z-0.125000 I0.250227 J0.250229
G03 X75.825848 Y86.765939 Z-0.125000 I0.043912 J1.066586
G03 X75.848377 Y86.875728 Z-0.125000 I-0.024938 J0.062323
G03 X75.612711 Y86.979073 Z-0.125000 I-0.250225 J-0.250232
G03 X75.172218 Y86.903562 Z-0.125000 I-0.043912 J-1.066410
G01 X75.172218 Y86.903576 Z-0.125000
G00 Z5.000000

(End cutting path id: path51)


(Start cutting path id: path51)
(Change tool to Default tool)

G00 Z5.000000
G00 X66.404929 Y84.291705

G01 Z-0.125000 F100.0(Penetrate)
G03 X65.872824 Y84.052707 Z-0.125000 I0.445553 J-1.703813 F400.000000
G03 X65.860547 Y83.928372 Z-0.125000 I0.044853 J-0.067202
G03 X66.684655 Y83.726254 Z-0.125000 I0.578788 J0.578776
G03 X67.124475 Y84.325438 Z-0.125000 I-0.188236 J0.599184
G03 X67.055817 Y84.390953 Z-0.125000 I-0.065587 J0.000000
G03 X66.404929 Y84.291708 Z-0.125000 I0.147840 J-3.153605
G01 X66.404929 Y84.291705 Z-0.125000
G00 Z5.000000

(End cutting path id: path51)


(Start cutting path id: path51)
(Change tool to Default tool)

G00 Z5.000000
G00 X65.419384 Y83.627640

G01 Z-0.125000 F100.0(Penetrate)
G03 X65.240197 Y83.603429 Z-0.125000 I-0.074863 J-0.121132 F400.000000
G03 X65.125400 Y83.311201 Z-0.125000 I0.314552 J-0.292228
G03 X65.240197 Y83.018973 Z-0.125000 I0.429347 J0.000000
G03 X65.419384 Y82.994763 Z-0.125000 I0.104324 J0.096921
G03 X65.669941 Y83.200663 Z-0.125000 I-0.636706 J1.030198
G03 X65.713364 Y83.311201 Z-0.125000 I-0.118981 J0.110538
G03 X65.669942 Y83.421739 Z-0.125000 I-0.162406 J-0.000000
G03 X65.419384 Y83.627640 Z-0.125000 I-0.887210 J-0.824231
G01 X65.419384 Y83.627640 Z-0.125000
G00 Z5.000000

(End cutting path id: path51)


(Start cutting path id: path51)
(Change tool to Default tool)

G00 Z5.000000
G00 X57.271074 Y79.415579

G01 Z-0.125000 F100.0(Penetrate)
G03 X56.981005 Y79.456147 Z-0.125000 I-0.191120 J-0.309232 F400.000000
G03 X56.721087 Y79.260011 Z-0.125000 I0.122305 J-0.432365
G03 X56.742130 Y79.036762 Z-0.125000 I0.158104 J-0.097714
G03 X57.049488 Y78.901479 Z-0.125000 I0.307358 J0.281512
G03 X57.367169 Y79.110487 Z-0.125000 I-0.000000 J0.345934
G03 X57.271074 Y79.415579 Z-0.125000 I-0.224775 J0.096882
G01 X57.271074 Y79.415579 Z-0.125000
G00 Z5.000000

(End cutting path id: path51)


(Start cutting path id: path51)
(Change tool to Default tool)

G00 Z5.000000
G00 X56.805725 Y66.082339

G01 Z-0.125000 F100.0(Penetrate)
G01 X56.805724 Y65.990019 Z-0.125000 F400.000000
G03 X57.246697 Y65.904402 Z-0.125000 I0.440973 J1.092815
G03 X57.687670 Y65.990016 Z-0.125000 I-0.000000 J1.178461
G01 X57.687670 Y66.082339 Z-0.125000
G03 X57.246697 Y66.167950 Z-0.125000 I-0.440973 J-1.092901
G03 X56.805725 Y66.082339 Z-0.125000 I-0.000000 J-1.178511
G01 X56.805725 Y66.082339 Z-0.125000
G00 Z5.000000

(End cutting path id: path51)


(Start cutting path id: path51)
(Change tool to Default tool)

G00 Z5.000000
G00 X57.864059 Y65.325571

G01 Z-0.125000 F100.0(Penetrate)
G02 X56.037694 Y65.670063 Z-0.125000 I2.334613 J17.390835 F400.000000
G02 X54.800430 Y66.073397 Z-0.125000 I2.039960 J8.357135
G03 X53.562048 Y66.312431 Z-0.125000 I-1.208321 J-2.932630
G03 X50.718415 Y66.034707 Z-0.125000 I0.154269 J-16.276465
G03 X42.289632 Y63.373476 Z-0.125000 I6.766229 J-36.108977
G03 X37.487217 Y60.023889 Z-0.125000 I6.667748 J-14.677261
G01 X35.629571 Y58.142878 Z-0.125000
G01 X36.031189 Y56.547906 Z-0.125000
G02 X36.518426 Y51.044448 Z-0.125000 I-16.985961 J-4.277114
G02 X35.132331 Y43.740789 Z-0.125000 I-31.634313 J2.220232
G01 X34.558286 Y41.917598 Z-0.125000
G01 X35.686439 Y40.159524 Z-0.125000
G03 X40.682194 Y35.503721 Z-0.125000 I11.611294 J7.450948
G03 X50.885142 Y31.854437 Z-0.125000 I16.656911 J30.482934
G03 X53.354105 Y31.684116 Z-0.125000 I1.952801 J10.327528
G03 X54.738311 Y32.043891 Z-0.125000 I-0.172380 J3.505917
G02 X56.120912 Y32.572911 Z-0.125000 I3.496746 J-7.067561
G02 X57.898454 Y32.923365 Z-0.125000 I3.166670 J-11.378526
G01 X59.716142 Y33.138643 Z-0.125000
G01 X59.716142 Y49.107791 Z-0.125000
G01 X59.716142 Y65.076937 Z-0.125000
G01 X57.864059 Y65.325571 Z-0.125000
G00 Z5.000000

(End cutting path id: path51)


(Start cutting path id: path51)
(Change tool to Default tool)

G00 Z5.000000
G00 X61.039059 Y66.082339

G01 Z-0.125000 F100.0(Penetrate)
G01 X61.039058 Y65.990019 Z-0.125000 F400.000000
G03 X61.480031 Y65.904402 Z-0.125000 I0.440973 J1.092816
G03 X61.921003 Y65.990016 Z-0.125000 I-0.000000 J1.178459
G01 X61.921003 Y66.082339 Z-0.125000
G03 X61.480030 Y66.167950 Z-0.125000 I-0.440973 J-1.092902
G03 X61.039059 Y66.082339 Z-0.125000 I0.000000 J-1.178503
G01 X61.039059 Y66.082339 Z-0.125000
G00 Z5.000000

(End cutting path id: path51)


(Start cutting path id: path51)
(Change tool to Default tool)

G00 Z5.000000
G00 X65.625170 Y68.988604

G01 Z-0.125000 F100.0(Penetrate)
G02 X63.404401 Y68.374755 Z-0.125000 I-12.145431 J39.615394 F400.000000
G02 X60.118608 Y67.630124 Z-0.125000 I-21.219760 J86.013496
G03 X56.852083 Y66.882402 Z-0.125000 I16.011009 J-77.455295
G03 X56.620231 Y66.750938 Z-0.125000 I0.121950 J-0.485254
G03 X56.965982 Y65.989120 Z-0.125000 I0.315966 J-0.315967
G03 X63.532908 Y67.212749 Z-0.125000 I-1.898922 J28.424444
G03 X67.418528 Y68.853065 Z-0.125000 I-6.423185 J20.637723
G03 X67.830031 Y69.544550 Z-0.125000 I-0.375229 J0.691485
G01 X67.773720 Y69.588424 Z-0.125000
G03 X65.625170 Y68.988604 Z-0.125000 I10.804475 J-42.849465
G01 X65.625170 Y68.988604 Z-0.125000
G00 Z5.000000

(End cutting path id: path51)


(Start cutting path id: path51)
(Change tool to Default tool)

G00 Z5.000000
G00 X60.157513 Y57.318034

G01 Z-0.125000 F100.0(Penetrate)
G03 X60.106628 Y49.316520 Z-0.125000 I629.890711 J-8.006695 F400.000000
G03 X60.157379 Y41.090255 Z-0.125000 I665.832398 J-0.005476
G03 X60.201045 Y40.046535 Z-0.125000 I17.728070 J0.218914
G01 X60.229160 Y40.047358 Z-0.125000
G03 X60.247137 Y42.265765 Z-0.125000 I-240.697893 J3.059774
G03 X60.259095 Y49.091758 Z-0.125000 I-1957.565030 J6.842230
G03 X60.247336 Y55.920534 Z-0.125000 I-1973.298942 J0.016361
G03 X60.229310 Y58.202184 Z-0.125000 I-256.495731 J-0.885505
G01 X60.200375 Y58.203222 Z-0.125000
G03 X60.157513 Y57.318034 Z-0.125000 I12.380295 J-1.043108
G01 X60.157513 Y57.318034 Z-0.125000
G00 Z5.000000

(End cutting path id: path51)


(Start cutting path id: path51)
(Change tool to Default tool)

G00 Z5.000000
G00 X47.478519 Y58.704952

G01 Z-0.125000 F100.0(Penetrate)
G03 X47.399187 Y58.087590 Z-0.125000 I2.362500 J-0.617362 F400.000000
G03 X47.478519 Y57.470230 Z-0.125000 I2.441818 J-0.000000
G01 X47.560516 Y57.470229 Z-0.125000
G03 X47.639852 Y58.087591 Z-0.125000 I-2.362375 J0.617362
G03 X47.560518 Y58.704952 Z-0.125000 I-2.441744 J-0.000000
G01 X47.478519 Y58.704952 Z-0.125000
G01 X47.478519 Y58.704952 Z-0.125000
G00 Z5.000000

(End cutting path id: path51)


(Start cutting path id: path51)
(Change tool to Default tool)

G00 Z5.000000
G00 X46.802200 Y58.889497

G01 Z-0.125000 F100.0(Penetrate)
G03 X46.015511 Y58.896046 Z-0.125000 I-0.396674 J-0.396675 F400.000000
G03 X45.243685 Y57.382035 Z-0.125000 I1.819838 J-1.881472
G03 X45.201512 Y56.851785 Z-0.125000 I4.284789 J-0.607589
G03 X45.221605 Y56.147313 Z-0.125000 I7.598170 J-0.135808
G03 X45.457124 Y55.986641 Z-0.125000 I0.181877 J0.013649
G03 X46.145347 Y56.431567 Z-0.125000 I-0.443217 J1.440323
G03 X47.022073 Y58.070015 Z-0.125000 I-3.057431 J2.689806
G03 X46.802202 Y58.889497 Z-0.125000 I-0.820171 J0.219181
G01 X46.802200 Y58.889497 Z-0.125000
G00 Z5.000000

(End cutting path id: path51)


(Start cutting path id: path51)
(Change tool to Default tool)

G00 Z5.000000
G00 X45.311049 Y59.285973

G01 Z-0.125000 F100.0(Penetrate)
G03 X45.131864 Y59.261763 Z-0.125000 I-0.074862 J-0.121129 F400.000000
G03 X45.017068 Y58.969535 Z-0.125000 I0.314554 J-0.292228
G03 X45.131864 Y58.677307 Z-0.125000 I0.429350 J-0.000000
G03 X45.311049 Y58.653097 Z-0.125000 I0.104323 J0.096918
G03 X45.561608 Y58.858998 Z-0.125000 I-0.636693 J1.030189
G03 X45.605031 Y58.969535 Z-0.125000 I-0.118981 J0.110537
G03 X45.561609 Y59.080073 Z-0.125000 I-0.162406 J0.000000
G03 X45.311049 Y59.285973 Z-0.125000 I-0.887183 J-0.824208
G01 X45.311049 Y59.285973 Z-0.125000
G00 Z5.000000

(End cutting path id: path51)


(Start cutting path id: path51)
(Change tool to Default tool)

G00 Z5.000000
G00 X44.055274 Y58.087591

G01 Z-0.125000 F100.0(Penetrate)
G03 X43.954602 Y58.032357 Z-0.125000 I0.000000 J-0.119361 F400.000000
G03 X43.706537 Y57.540101 Z-0.125000 I2.319568 J-1.477544
G03 X43.710758 Y57.251322 Z-0.125000 I0.362544 J-0.139122
G03 X43.845183 Y57.208144 Z-0.125000 I0.085635 J0.035766
G03 X44.277408 Y57.806140 Z-0.125000 I-0.508471 J0.822719
G03 X44.055274 Y58.087591 Z-0.125000 I-0.222134 J0.053066
G01 X44.055274 Y58.087591 Z-0.125000
G00 Z5.000000

(End cutting path id: path51)


(Start cutting path id: path51)
(Change tool to Default tool)

G00 Z5.000000
G00 X47.043279 Y55.591011

G01 Z-0.125000 F100.0(Penetrate)
G02 X43.701933 Y55.392045 Z-0.125000 I-1.782754 J1.782752 F400.000000
G02 X42.962849 Y58.800209 Z-0.125000 I1.691809 J2.151100
G02 X44.164013 Y60.076195 Z-0.125000 I2.836499 J-1.466813
G02 X45.909418 Y60.557035 Z-0.125000 I1.745405 J-2.927410
G02 X47.392897 Y59.875456 Z-0.125000 I-0.000000 J-1.955210
G02 X48.074475 Y58.035256 Z-0.125000 I-2.143399 J-1.840200
G02 X47.810705 Y56.731463 Z-0.125000 I-3.354158 J0.000000
G02 X47.043279 Y55.591011 Z-0.125000 I-3.300163 J1.392294
G01 X47.043279 Y55.591011 Z-0.125000
G00 Z5.000000

(End cutting path id: path51)


(Start cutting path id: path51)
(Change tool to Default tool)

G00 Z5.000000
G00 X34.630676 Y56.281778

G01 Z-0.125000 F100.0(Penetrate)
G03 X33.390572 Y57.753991 Z-0.125000 I-2.548726 J-0.888493 F400.000000
G03 X30.736654 Y58.440369 Z-0.125000 I-2.653918 J-4.787569
G03 X28.041595 Y57.518019 Z-0.125000 I-0.000000 J-4.398584
G03 X25.449761 Y54.341542 Z-0.125000 I5.582593 J-7.200733
G03 X24.687226 Y52.036318 Z-0.125000 I7.917157 J-3.897610
G03 X24.502683 Y49.179261 Z-0.125000 I12.067821 J-2.213975
G03 X26.557696 Y43.620651 Z-0.125000 I9.959170 J0.522723
G03 X30.134151 Y41.859813 Z-0.125000 I3.576455 J2.751668
G03 X32.527399 Y42.935652 Z-0.125000 I-0.000000 J3.199859
G03 X34.517437 Y46.798702 Z-0.125000 I-6.563859 J5.825456
G03 X35.218741 Y52.677759 Z-0.125000 I-27.071687 J6.210700
G03 X34.630676 Y56.281778 Z-0.125000 I-10.564677 J0.126155
G01 X34.630676 Y56.281778 Z-0.125000
G00 Z5.000000

(End cutting path id: path51)


(Start cutting path id: path51)
(Change tool to Default tool)

G00 Z5.000000
G00 X30.603124 Y53.467426

G01 Z-0.125000 F100.0(Penetrate)
G03 X29.513700 Y51.353850 Z-0.125000 I2.760358 J-2.760358 F400.000000
G03 X29.552337 Y47.212934 Z-0.125000 I11.676395 J-1.961690
G02 X29.278583 Y45.600642 Z-0.125000 I-2.322905 J-0.434977
G02 X28.300925 Y45.034813 Z-0.125000 I-0.977658 J0.561702
G02 X26.485069 Y46.272603 Z-0.125000 I-0.000000 J1.950839
G02 X27.235420 Y47.748235 Z-0.125000 I1.030423 J0.404626
G03 X27.706455 Y48.114903 Z-0.125000 I-0.191343 J0.731695
G03 X28.140672 Y49.390903 Z-0.125000 I-3.377198 J1.861125
G02 X28.369492 Y50.855016 Z-0.125000 I271.010653 J-41.605136
G02 X28.545579 Y51.936603 Z-0.125000 I148.062649 J-23.550129
G03 X28.508513 Y52.936695 Z-0.125000 I-2.459147 J0.409590
G03 X28.169494 Y53.479107 Z-0.125000 I-0.989328 J-0.241198
G02 X27.777328 Y54.367448 Z-0.125000 I0.695156 J0.837616
G02 X28.258504 Y55.387081 Z-0.125000 I1.465818 J-0.068383
G02 X29.480219 Y55.866731 Z-0.125000 I1.245214 J-1.375945
G02 X30.586778 Y55.416571 Z-0.125000 I0.019468 J-1.537267
G02 X30.998676 Y54.433833 Z-0.125000 I-0.994531 J-0.994529
G02 X30.603118 Y53.467438 Z-0.125000 I-1.350624 J-0.011323
G01 X30.603124 Y53.467426 Z-0.125000
G00 Z5.000000

(End cutting path id: path51)


(Start cutting path id: path51)
(Change tool to Default tool)

G00 Z5.000000
G00 X29.164119 Y52.347604

G01 Z-0.125000 F100.0(Penetrate)
G03 X29.060771 Y52.111937 Z-0.125000 I0.250238 J-0.250231 F400.000000
G03 X29.136269 Y51.671445 Z-0.125000 I1.066479 J-0.043928
G03 X29.246057 Y51.648918 Z-0.125000 I0.062322 J0.024939
G03 X29.349405 Y51.884583 Z-0.125000 I-0.250228 J0.250228
G03 X29.273909 Y52.325077 Z-0.125000 I-1.066476 J0.043934
G03 X29.164119 Y52.347604 Z-0.125000 I-0.062324 J-0.024940
G01 X29.164119 Y52.347604 Z-0.125000
G00 Z5.000000

(End cutting path id: path51)


(Start cutting path id: path51)
(Change tool to Default tool)

G00 Z5.000000
G00 X28.811342 Y49.878159

G01 Z-0.125000 F100.0(Penetrate)
G03 X28.707994 Y49.642492 Z-0.125000 I0.250238 J-0.250232 F400.000000
G03 X28.783492 Y49.202001 Z-0.125000 I1.066473 J-0.043928
G03 X28.893280 Y49.179474 Z-0.125000 I0.062322 J0.024939
G03 X28.996628 Y49.415138 Z-0.125000 I-0.250227 J0.250227
G03 X28.921132 Y49.855632 Z-0.125000 I-1.066477 J0.043934
G03 X28.811342 Y49.878159 Z-0.125000 I-0.062323 J-0.024940
G01 X28.811342 Y49.878159 Z-0.125000
G00 Z5.000000

(End cutting path id: path51)


(Start cutting path id: path51)
(Change tool to Default tool)

G00 Z5.000000
G00 X28.142534 Y47.151480

G01 Z-0.125000 F100.0(Penetrate)
G03 X27.768356 Y46.996491 Z-0.125000 I0.000000 J-0.529167 F400.000000
G03 X27.613367 Y46.622313 Z-0.125000 I0.374178 J-0.374178
G03 X27.768356 Y46.248136 Z-0.125000 I0.529165 J0.000000
G03 X28.142534 Y46.093147 Z-0.125000 I0.374178 J0.374178
G03 X28.516711 Y46.248136 Z-0.125000 I0.000000 J0.529166
G03 X28.671700 Y46.622313 Z-0.125000 I-0.374177 J0.374177
G03 X28.516711 Y46.996491 Z-0.125000 I-0.529168 J0.000000
G03 X28.142534 Y47.151480 Z-0.125000 I-0.374177 J-0.374176
G01 X28.142534 Y47.151480 Z-0.125000
G00 Z5.000000

(End cutting path id: path51)


(Start cutting path id: path51)
(Change tool to Default tool)

G00 Z5.000000
G00 X35.514119 Y49.525382

G01 Z-0.125000 F100.0(Penetrate)
G03 X35.410772 Y49.289714 Z-0.125000 I0.250241 J-0.250232 F400.000000
G03 X35.486269 Y48.849223 Z-0.125000 I1.066476 J-0.043928
G03 X35.596057 Y48.826696 Z-0.125000 I0.062322 J0.024939
G03 X35.699405 Y49.062361 Z-0.125000 I-0.250228 J0.250228
G03 X35.623909 Y49.502855 Z-0.125000 I-1.066476 J0.043934
G03 X35.514119 Y49.525382 Z-0.125000 I-0.062324 J-0.024940
G01 X35.514119 Y49.525382 Z-0.125000
G00 Z5.000000

(End cutting path id: path51)


(Start cutting path id: path51)
(Change tool to Default tool)

G00 Z5.000000
G00 X29.377256 Y54.912591

G01 Z-0.125000 F100.0(Penetrate)
G03 X28.825561 Y54.605317 Z-0.125000 I0.000000 J-0.648907 F400.000000
G03 X28.882579 Y54.113750 Z-0.125000 I0.338791 J-0.209793
G03 X29.650508 Y53.957192 Z-0.125000 I0.502333 J0.502332
G03 X30.082812 Y54.597557 Z-0.125000 I-0.258128 J0.640365
G03 X29.958865 Y54.788642 Z-0.125000 I-0.209268 J-0.000000
G03 X29.377256 Y54.912591 Z-0.125000 I-0.581609 J-1.302572
G01 X29.377256 Y54.912591 Z-0.125000
G00 Z5.000000

(End cutting path id: path51)


(Start cutting path id: path51)
(Change tool to Default tool)

G00 Z5.000000
G00 X27.138874 Y58.087591

G01 Z-0.125000 F100.0(Penetrate)
G03 X27.036772 Y58.045299 Z-0.125000 I0.000000 J-0.144395 F400.000000
G03 X26.345124 Y57.293841 Z-0.125000 I8.719309 J-8.719348
G01 X25.673086 Y56.500091 Z-0.125000
G01 X26.466836 Y57.172129 Z-0.125000
G03 X27.202934 Y57.961097 Z-0.125000 I-2.973819 J3.512408
G03 X27.138874 Y58.087591 Z-0.125000 I-0.064060 J0.047026
G01 X27.138874 Y58.087591 Z-0.125000
G00 Z5.000000

(End cutting path id: path51)


(Start cutting path id: path51)
(Change tool to Default tool)

G00 Z5.000000
G00 X35.639062 Y23.058781

G01 Z-0.125000 F100.0(Penetrate)
G01 X35.639062 Y22.981642 Z-0.125000 F400.000000
G03 X36.432812 Y22.905898 Z-0.125000 I0.793750 J4.121109
G03 X37.226562 Y22.981644 Z-0.125000 I0.000000 J4.196756
G01 X37.226562 Y23.058781 Z-0.125000
G03 X36.432811 Y23.134530 Z-0.125000 I-0.793751 J-4.120850
G03 X35.639062 Y23.058781 Z-0.125000 I-0.000000 J-4.196580
G01 X35.639062 Y23.058781 Z-0.125000
G00 Z5.000000

(End cutting path id: path51)


(Start cutting path id: path51)
(Change tool to Default tool)

G00 Z5.000000
G00 X36.349955 Y22.240078

G01 Z-0.125000 F100.0(Penetrate)
G03 X33.835526 Y21.611827 Z-0.125000 I0.116551 J-5.812297 F400.000000
G03 X33.257812 Y20.670771 Z-0.125000 I0.477600 J-0.941056
G03 X33.689549 Y20.000148 Z-0.125000 I0.736712 J0.000000
G03 X35.960856 Y19.441526 Z-0.125000 I2.622857 J5.767520
G03 X37.692027 Y19.642446 Z-0.125000 I0.284032 J5.111245
G03 X38.202065 Y20.102038 Z-0.125000 I-0.224584 J0.762042
G03 X38.424301 Y20.883139 Z-0.125000 I-3.319115 J1.366507
G03 X38.445570 Y21.575092 Z-0.125000 I-2.573441 J0.425405
G03 X38.111850 Y21.985296 Z-0.125000 I-0.479518 J-0.049259
G03 X36.349955 Y22.240078 Z-0.125000 I-1.652367 J-5.207217
G01 X36.349955 Y22.240078 Z-0.125000
G00 Z5.000000

(End cutting path id: path51)


(Start cutting path id: path51)
(Change tool to Default tool)

G00 Z5.000000
G00 X34.955555 Y18.817468

G01 Z-0.125000 F100.0(Penetrate)
G03 X34.933028 Y18.707679 Z-0.125000 I0.024940 J-0.062323 F400.000000
G03 X35.168691 Y18.604331 Z-0.125000 I0.250227 J0.250226
G03 X35.609185 Y18.679827 Z-0.125000 I0.043934 J1.066474
G03 X35.631712 Y18.789617 Z-0.125000 I-0.024940 J0.062323
G03 X35.396049 Y18.892965 Z-0.125000 I-0.250227 J-0.250227
G03 X34.955555 Y18.817467 Z-0.125000 I-0.043928 J-1.066487
G01 X34.955555 Y18.817468 Z-0.125000
G00 Z5.000000

(End cutting path id: path51)


(Start cutting path id: path51)
(Change tool to Default tool)

G00 Z5.000000
G00 X37.083520 Y17.988897

G01 Z-0.125000 F100.0(Penetrate)
G03 X34.665535 Y18.412291 Z-0.125000 I-1.730098 J-2.764316 F400.000000
G03 X32.762794 Y17.056513 Z-0.125000 I0.623120 J-2.887578
G03 X33.018950 Y16.110866 Z-0.125000 I0.578482 J-0.350818
G03 X35.817034 Y15.401481 Z-0.125000 I2.798084 J5.163658
G01 X37.888626 Y15.401481 Z-0.125000
G01 X37.778080 Y16.512431 Z-0.125000
G03 X37.499992 Y17.519419 Z-0.125000 I-3.067555 J-0.305238
G03 X37.083520 Y17.988897 Z-0.125000 I-1.006697 J-0.473572
G01 X37.083520 Y17.988897 Z-0.125000
G00 Z5.000000

(End cutting path id: path51)


(Start cutting path id: path51)
(Change tool to Default tool)

G00 Z5.000000
G00 X36.719444 Y14.936912

G01 Z-0.125000 F100.0(Penetrate)
G03 X36.696917 Y14.827123 Z-0.125000 I0.024939 J-0.062323 F400.000000
G03 X36.932580 Y14.723776 Z-0.125000 I0.250226 J0.250226
G03 X37.373074 Y14.799272 Z-0.125000 I0.043934 J1.066474
G03 X37.395601 Y14.909062 Z-0.125000 I-0.024940 J0.062323
G03 X37.159938 Y15.012410 Z-0.125000 I-0.250227 J-0.250227
G03 X36.719444 Y14.936912 Z-0.125000 I-0.043928 J-1.066487
G01 X36.719444 Y14.936912 Z-0.125000
G00 Z5.000000

(End cutting path id: path51)


(Start cutting path id: path51)
(Change tool to Default tool)

G00 Z5.000000
G00 X38.532668 Y13.703983

G01 Z-0.125000 F100.0(Penetrate)
G03 X37.571348 Y14.119900 Z-0.125000 I-1.358917 J-1.821979 F400.000000
G03 X36.121190 Y14.132420 Z-0.125000 I-0.762170 J-4.289914
G03 X35.369226 Y12.934766 Z-0.125000 I0.148404 J-0.928070
G03 X36.862596 Y11.656236 Z-0.125000 I1.740022 J0.520988
G03 X38.497296 Y11.542782 Z-0.125000 I1.663711 J12.138105
G03 X39.085118 Y11.650936 Z-0.125000 I0.003861 J1.630517
G03 X39.445578 Y12.359216 Z-0.125000 I-0.212617 J0.554069
G03 X38.532668 Y13.703937 Z-0.125000 I-2.396933 J-0.644999
G01 X38.532668 Y13.703983 Z-0.125000
G00 Z5.000000

(End cutting path id: path51)


(Start cutting path id: path51)
(Change tool to Default tool)

G00 Z5.000000
G00 X42.871003 Y18.819659

G01 Z-0.125000 F100.0(Penetrate)
G01 X42.871002 Y18.737662 Z-0.125000 F400.000000
G03 X43.488364 Y18.658326 Z-0.125000 I0.617362 J2.362375
G03 X44.105725 Y18.737660 Z-0.125000 I-0.000000 J2.441744
G01 X44.105725 Y18.819659 Z-0.125000
G03 X43.488365 Y18.898991 Z-0.125000 I-0.617360 J-2.362486
G03 X42.871003 Y18.819659 Z-0.125000 I0.000000 J-2.441832
G01 X42.871003 Y18.819659 Z-0.125000
G00 Z5.000000

(End cutting path id: path51)


(Start cutting path id: path51)
(Change tool to Default tool)

G00 Z5.000000
G00 X42.968223 Y24.071064

G01 Z-0.125000 F100.0(Penetrate)
G03 X39.896834 Y24.659255 Z-0.125000 I-2.249485 J-3.433146 F400.000000
G03 X39.146288 Y23.289916 Z-0.125000 I0.204935 J-1.002686
G03 X40.261109 Y21.964772 Z-0.125000 I2.472998 J0.948979
G03 X42.312924 Y21.398703 Z-0.125000 I2.051815 J3.435546
G03 X43.617578 Y22.422089 Z-0.125000 I0.000000 J1.343305
G03 X42.968223 Y24.071064 Z-0.125000 I-1.490349 J0.365454
G01 X42.968223 Y24.071064 Z-0.125000
G00 Z5.000000

(End cutting path id: path51)


(Start cutting path id: path51)
(Change tool to Default tool)

G00 Z5.000000
G00 X46.751559 Y23.798410

G01 Z-0.125000 F100.0(Penetrate)
G03 X46.060833 Y24.396741 Z-0.125000 I-2.408501 J-2.082564 F400.000000
G03 X45.252253 Y24.759087 Z-0.125000 I-1.614928 J-2.520385
G03 X44.843222 Y24.721502 Z-0.125000 I-0.155244 J-0.555005
G03 X44.811281 Y24.542797 Z-0.125000 I0.049572 J-0.101067
G02 X45.396169 Y23.077628 Z-0.125000 I-1.535124 J-1.462141
G02 X44.806581 Y21.276885 Z-0.125000 I-3.058085 J0.004369
G02 X44.270709 Y20.789831 Z-0.125000 I-1.458804 J1.066703
G02 X42.983182 Y20.193786 Z-0.125000 I-3.542962 J5.964584
G03 X42.322133 Y19.728662 Z-0.125000 I0.472122 J-1.373309
G03 X42.401159 Y19.467578 Z-0.125000 I0.129062 J-0.103437
G03 X45.715044 Y19.917046 Z-0.125000 I1.182218 J3.724836
G03 X47.341036 Y22.682537 Z-0.125000 I-1.961638 J3.014113
G03 X47.263476 Y23.049275 Z-0.125000 I-0.682243 J0.047285
G03 X46.751526 Y23.798410 Z-0.125000 I-3.543097 J-1.871813
G01 X46.751559 Y23.798410 Z-0.125000
G00 Z5.000000

(End cutting path id: path51)


(Start cutting path id: path51)
(Change tool to Default tool)

G00 Z5.000000
G00 X47.861339 Y23.419825

G01 Z-0.125000 F100.0(Penetrate)
G03 X47.757991 Y23.184162 Z-0.125000 I0.250227 J-0.250227 F400.000000
G03 X47.833489 Y22.743668 Z-0.125000 I1.066487 J-0.043928
G03 X47.943278 Y22.721141 Z-0.125000 I0.062323 J0.024939
G03 X48.046625 Y22.956805 Z-0.125000 I-0.250228 J0.250227
G03 X47.971129 Y23.397298 Z-0.125000 I-1.066470 J0.043934
G03 X47.861339 Y23.419825 Z-0.125000 I-0.062323 J-0.024940
G01 X47.861339 Y23.419825 Z-0.125000
G00 Z5.000000

(End cutting path id: path51)


(Start cutting path id: path51)
(Change tool to Default tool)

G00 Z5.000000
G00 X49.931409 Y27.296294

G01 Z-0.125000 F100.0(Penetrate)
G01 X49.929876 Y27.220709 Z-0.125000 F400.000000
G03 X50.720309 Y27.144046 Z-0.125000 I0.801990 J4.155689
G03 X51.693764 Y27.215903 Z-0.125000 I0.017145 J6.397406
G01 X51.695298 Y27.291478 Z-0.125000
G03 X50.904865 Y27.368141 Z-0.125000 I-0.801949 J-4.155262
G03 X49.931409 Y27.296278 Z-0.125000 I-0.017398 J-6.393445
G01 X49.931409 Y27.296294 Z-0.125000
G00 Z5.000000

(End cutting path id: path51)


(Start cutting path id: path51)
(Change tool to Default tool)

G00 Z5.000000
G00 X54.005552 Y26.931357

G01 Z-0.125000 F100.0(Penetrate)
G03 X53.983025 Y26.821568 Z-0.125000 I0.024940 J-0.062323 F400.000000
G03 X54.218688 Y26.718220 Z-0.125000 I0.250227 J0.250226
G03 X54.659182 Y26.793716 Z-0.125000 I0.043934 J1.066474
G03 X54.681709 Y26.903506 Z-0.125000 I-0.024940 J0.062323
G03 X54.446046 Y27.006854 Z-0.125000 I-0.250227 J-0.250227
G03 X54.005552 Y26.931356 Z-0.125000 I-0.043928 J-1.066487
G01 X54.005552 Y26.931357 Z-0.125000
G00 Z5.000000

(End cutting path id: path51)


(Start cutting path id: path51)
(Change tool to Default tool)

G00 Z5.000000
G00 X56.474996 Y32.223023

G01 Z-0.125000 F100.0(Penetrate)
G03 X56.452470 Y32.113235 Z-0.125000 I0.024939 J-0.062322 F400.000000
G03 X56.688134 Y32.009887 Z-0.125000 I0.250228 J0.250228
G03 X57.128628 Y32.085383 Z-0.125000 I0.043934 J1.066479
G03 X57.151155 Y32.195172 Z-0.125000 I-0.024940 J0.062323
G03 X56.915488 Y32.298520 Z-0.125000 I-0.250231 J-0.250238
G03 X56.474996 Y32.223022 Z-0.125000 I-0.043928 J-1.066479
G01 X56.474996 Y32.223023 Z-0.125000
G00 Z5.000000

(End cutting path id: path51)


(Start cutting path id: path51)
(Change tool to Default tool)

G00 Z5.000000
G00 X61.061109 Y32.223023

G01 Z-0.125000 F100.0(Penetrate)
G03 X61.038583 Y32.113235 Z-0.125000 I0.024939 J-0.062322 F400.000000
G03 X61.274247 Y32.009887 Z-0.125000 I0.250228 J0.250228
G03 X61.714741 Y32.085383 Z-0.125000 I0.043934 J1.066479
G03 X61.737268 Y32.195172 Z-0.125000 I-0.024940 J0.062323
G03 X61.501601 Y32.298520 Z-0.125000 I-0.250231 J-0.250238
G03 X61.061109 Y32.223022 Z-0.125000 I-0.043928 J-1.066479
G01 X61.061109 Y32.223023 Z-0.125000
G00 Z5.000000

(End cutting path id: path51)


(Start cutting path id: path51)
(Change tool to Default tool)

G00 Z5.000000
G00 X63.282912 Y30.931424

G01 Z-0.125000 F100.0(Penetrate)
G03 X59.703546 Y31.724146 Z-0.125000 I-4.480804 J-11.754812 F400.000000
G03 X56.011975 Y31.453782 Z-0.125000 I-0.918912 J-12.790762
G02 X55.506317 Y31.464763 Z-0.125000 I-0.230359 J1.040223
G02 X55.482809 Y31.595322 Z-0.125000 I0.018939 J0.070806
G03 X55.424793 Y31.804536 Z-0.125000 I-0.066855 J0.094112
G03 X54.795652 Y31.648092 Z-0.125000 I-0.078816 J-1.026307
G03 X54.750697 Y31.413864 Z-0.125000 I0.087438 J-0.138210
G03 X55.148428 Y31.161672 Z-0.125000 I0.516205 J0.374378
G02 X56.008199 Y30.980703 Z-0.125000 I-3.968340 J-20.986205
G02 X61.772484 Y29.624469 Z-0.125000 I-219.209507 J-944.614838
G01 X67.532995 Y28.250548 Z-0.125000
G01 X66.358595 Y29.228610 Z-0.125000
G03 X65.111271 Y30.082014 Z-0.125000 I-5.130223 J-6.160031
G03 X63.282912 Y30.931424 Z-0.125000 I-6.909345 J-12.479911
G01 X63.282912 Y30.931424 Z-0.125000
G00 Z5.000000

(End cutting path id: path51)


(Start cutting path id: path51)
(Change tool to Default tool)

G00 Z5.000000
G00 X62.874096 Y22.780915

G01 Z-0.125000 F100.0(Penetrate)
G03 X59.591363 Y27.415415 Z-0.125000 I-13.665644 J-6.199849 F400.000000
G03 X55.868878 Y29.494244 Z-0.125000 I-5.851661 J-6.106084
G03 X54.592383 Y29.785240 Z-0.125000 I-5.429619 J-20.872515
G03 X50.399920 Y30.567471 Z-0.125000 I-44.068568 J-224.564833
G02 X43.093040 Y32.459782 Z-0.125000 I8.410506 J47.529300
G02 X39.166836 Y34.436147 Z-0.125000 I5.330347 J15.477191
G03 X37.408342 Y35.314480 Z-0.125000 I-4.046406 J-5.901743
G03 X37.138364 Y35.120648 Z-0.125000 I-0.065408 J-0.193832
G03 X37.628797 Y31.699201 Z-0.125000 I12.179867 J0.000000
G03 X39.270726 Y27.835395 Z-0.125000 I17.245209 J5.047599
G03 X40.544103 Y26.357726 Z-0.125000 I4.430117 J2.530142
G03 X41.620231 Y25.984814 Z-0.125000 I1.076128 J1.366257
G03 X42.874455 Y26.151250 Z-0.125000 I0.000000 J4.808978
G03 X44.523511 Y26.769162 Z-0.125000 I-2.429803 J8.993976
G02 X49.172331 Y27.985657 Z-0.125000 I5.368333 J-11.024065
G02 X54.779208 Y27.372003 Z-0.125000 I0.991293 J-16.864156
G02 X55.693917 Y26.938249 Z-0.125000 I-0.836665 J-2.945730
G02 X55.659197 Y26.758466 Z-0.125000 I-0.057296 J-0.082179
G01 X54.953642 Y26.595266 Z-0.125000
G01 X55.659197 Y26.296890 Z-0.125000
G02 X55.641603 Y26.200668 Z-0.125000 I-0.019517 J-0.046151
G02 X54.600864 Y26.256250 Z-0.125000 I-0.218278 J5.684212
G03 X47.993541 Y26.634703 Z-0.125000 I-5.451489 J-37.309231
G03 X46.546673 Y26.009236 Z-0.125000 I0.065567 J-2.137898
G03 X46.457858 Y25.751492 Z-0.125000 I0.219972 J-0.219973
G03 X46.592813 Y25.632039 Z-0.125000 I0.134955 J0.016508
G02 X47.777487 Y24.975997 Z-0.125000 I-0.000000 J-1.397657
G02 X48.414756 Y22.721622 Z-0.125000 I-3.545486 J-2.219501
G02 X47.015624 Y19.603302 Z-0.125000 I-4.253595 J0.035467
G02 X43.447749 Y18.226030 Z-0.125000 I-3.574126 J3.948914
G02 X41.549261 Y18.462228 Z-0.125000 I-0.008787 J7.677207
G02 X40.517918 Y18.970137 Z-0.125000 I0.682220 J2.686352
G03 X39.624473 Y19.312444 Z-0.125000 I-0.998773 J-1.269735
G03 X39.091336 Y19.063347 Z-0.125000 I-0.039843 J-0.609803
G03 X38.826011 Y18.395240 Z-0.125000 I1.157593 J-0.846452
G03 X38.934362 Y17.810941 Z-0.125000 I0.972394 J-0.121878
G02 X39.162784 Y17.188624 Z-0.125000 I-2.100008 J-1.123888
G02 X39.255035 Y16.322288 Z-0.125000 I-4.021769 J-0.866336
G03 X39.417782 Y15.482825 Z-0.125000 I2.246390 J-0.000000
G03 X40.136979 Y14.133200 Z-0.125000 I6.664673 J2.685079
G02 X40.864716 Y12.786198 Z-0.125000 I-6.288823 J-4.267714
G02 X41.018924 Y12.014464 Z-0.125000 I-1.853972 J-0.771734
G03 X41.463694 Y11.347905 Z-0.125000 I0.721858 J-0.000000
G03 X45.597099 Y10.111323 Z-0.125000 I8.032371 J19.322585
G03 X52.703303 Y9.824677 Z-0.125000 I4.520357 J23.835762
G03 X58.179439 Y11.460112 Z-0.125000 I-1.669833 J15.577253
G03 X62.974535 Y16.657802 Z-0.125000 I-4.677550 J9.125932
G03 X62.874100 Y22.780919 Z-0.125000 I-7.103717 J2.945863
G01 X62.874096 Y22.780915 Z-0.125000
G00 Z5.000000

(End cutting path id: path51)


(Start cutting path id: path51)
(Change tool to Default tool)

G00 Z5.000000
G00 X62.063874 Y13.637592

G01 Z-0.125000 F100.0(Penetrate)
G03 X61.961772 Y13.595300 Z-0.125000 I-0.000000 J-0.144395 F400.000000
G03 X61.270124 Y12.843842 Z-0.125000 I8.719309 J-8.719348
G01 X60.598086 Y12.050092 Z-0.125000
G01 X61.391836 Y12.722129 Z-0.125000
G03 X62.127934 Y13.511098 Z-0.125000 I-2.973829 J3.512415
G03 X62.063874 Y13.637592 Z-0.125000 I-0.064060 J0.047026
G01 X62.063874 Y13.637592 Z-0.125000
G00 Z5.000000

(End cutting path id: path51)


(Start cutting path id: path51)
(Change tool to Default tool)

G00 Z5.000000
G00 X46.597218 Y9.292468

G01 Z-0.125000 F100.0(Penetrate)
G03 X46.574691 Y9.182679 Z-0.125000 I0.024939 J-0.062323 F400.000000
G03 X46.810355 Y9.079332 Z-0.125000 I0.250227 J0.250228
G03 X47.250849 Y9.154828 Z-0.125000 I0.043934 J1.066479
G03 X47.273376 Y9.264617 Z-0.125000 I-0.024940 J0.062323
G03 X47.037713 Y9.367964 Z-0.125000 I-0.250227 J-0.250227
G03 X46.597218 Y9.292467 Z-0.125000 I-0.043929 J-1.066493
G01 X46.597218 Y9.292468 Z-0.125000
G00 Z5.000000

(End cutting path id: path51)


(Start cutting path id: path51)
(Change tool to Default tool)

G00 Z5.000000
G00 X95.566280 Y32.334814

G01 Z-0.125000 F100.0(Penetrate)
G03 X95.455438 Y32.288902 Z-0.125000 I0.000000 J-0.156755 F400.000000
G03 X94.948919 Y31.717452 Z-0.125000 I4.489944 J-4.489980
G03 X94.956487 Y31.591826 Z-0.125000 I0.074649 J-0.058544
G03 X95.082114 Y31.584259 Z-0.125000 I0.067082 J0.067083
G03 X95.641177 Y32.197372 Z-0.125000 I-1.545583 J1.970772
G03 X95.566280 Y32.334814 Z-0.125000 I-0.074897 J0.048314
G01 X95.566280 Y32.334814 Z-0.125000
G00 Z5.000000

(End cutting path id: path51)


(Start cutting path id: path51)
(Change tool to Default tool)

G00 Z5.000000
G00 X98.616605 Y33.637619

G01 Z-0.125000 F100.0(Penetrate)
G01 X98.610945 Y33.550367 Z-0.125000 F400.000000
G03 X99.050864 Y33.461921 Z-0.125000 I0.454897 J1.124320
G03 X99.669280 Y33.537292 Z-0.125000 I0.028913 J2.337487
G01 X99.674939 Y33.624547 Z-0.125000
G03 X99.235023 Y33.712990 Z-0.125000 I-0.454903 J-1.124392
G03 X98.616605 Y33.637617 Z-0.125000 I-0.028886 J-2.337654
G01 X98.616605 Y33.637619 Z-0.125000
G00 Z5.000000

(End cutting path id: path51)


(Start cutting path id: path51)
(Change tool to Default tool)

G00 Z5.000000
G00 X100.173430 Y32.758327

G01 Z-0.125000 F100.0(Penetrate)
G01 X97.415432 Y33.157063 Z-0.125000 F400.000000
G01 X96.116483 Y31.823403 Z-0.125000
G01 X94.817534 Y30.489743 Z-0.125000
G01 X99.756423 Y30.683755 Z-0.125000
G03 X104.508698 Y31.371305 Z-0.125000 I-0.904162 J23.016883
G03 X104.518920 Y31.890185 Z-0.125000 I-0.066076 J0.260843
G03 X102.915441 Y32.286564 Z-0.125000 I-5.187653 J-17.544220
G03 X100.173430 Y32.758327 Z-0.125000 I-10.169710 J-50.904522
G01 X100.173430 Y32.758327 Z-0.125000
G00 Z5.000000

(End cutting path id: path51)


(Start cutting path id: path51)
(Change tool to Default tool)

G00 Z5.000000
G00 X100.902950 Y33.274007

G01 Z-0.125000 F100.0(Penetrate)
G01 X100.902949 Y33.181687 Z-0.125000 F400.000000
G03 X101.343920 Y33.096071 Z-0.125000 I0.440971 J1.092824
G03 X101.784890 Y33.181685 Z-0.125000 I0.000000 J1.178458
G01 X101.784890 Y33.274007 Z-0.125000
G03 X101.343920 Y33.359627 Z-0.125000 I-0.440970 J-1.092760
G03 X100.902950 Y33.274007 Z-0.125000 I-0.000000 J-1.178380
G01 X100.902950 Y33.274007 Z-0.125000
G00 Z5.000000

(End cutting path id: path51)


(Start cutting path id: path51)
(Change tool to Default tool)

G00 Z5.000000
G00 X103.041660 Y32.928579

G01 Z-0.125000 F100.0(Penetrate)
G03 X103.019134 Y32.818791 Z-0.125000 I0.024940 J-0.062322 F400.000000
G03 X103.254800 Y32.715442 Z-0.125000 I0.250230 J0.250232
G03 X103.695293 Y32.790936 Z-0.125000 I0.043935 J1.066488
G03 X103.717820 Y32.900728 Z-0.125000 I-0.024940 J0.062324
G03 X103.482151 Y33.004075 Z-0.125000 I-0.250234 J-0.250245
G03 X103.041660 Y32.928578 Z-0.125000 I-0.043928 J-1.066476
G01 X103.041660 Y32.928579 Z-0.125000
G00 Z5.000000

(End cutting path id: path51)


(Start cutting path id: path51)
(Change tool to Default tool)

G00 Z5.000000
G00 X92.846748 Y81.885679

G01 Z-0.125000 F100.0(Penetrate)
G03 X90.720049 Y82.867701 Z-0.125000 I-2.638800 J-2.920836 F400.000000
G03 X89.853531 Y82.278423 Z-0.125000 I-0.102482 J-0.781039
G03 X90.040015 Y81.091048 Z-0.125000 I1.490877 J-0.374181
G03 X91.966049 Y78.889862 Z-0.125000 I7.724372 J4.815581
G03 X93.940429 Y77.823672 Z-0.125000 I3.679748 J4.453006
G03 X94.583837 Y78.080996 Z-0.125000 I0.162644 J0.526374
G03 X94.639450 Y79.438233 Z-0.125000 I-1.310626 J0.733461
G03 X92.846748 Y81.885679 Z-0.125000 I-6.814738 J-3.111369
G01 X92.846748 Y81.885679 Z-0.125000
G00 Z5.000000

(End cutting path id: path51)


(Footer)
M5
G00 X0.0000 Y0.0000
M2
(Using default footer. To add your own footer create file "footer" in the output dir.)
(end)
%