%
(Header)
(Generated by gcodetools from Inkscape.)
(Using default header. To add your own header create file "header" in the output dir.)
M3
(Header end.)
G21 (All units in mm)

(Start cutting path id: path83)
(Change tool to Default tool)

G00 Z5.000000
G00 X12.559611 Y6.485609

G01 Z-1.000000 F100.0(Penetrate)
G03 X12.206021 Y6.791919 Z-1.000000 I-0.463576 J-0.177892 F400.000000
G03 X11.071212 Y6.823698 Z-1.000000 I-0.647701 J-2.851436
G02 X9.930797 Y6.845647 Z-1.000000 I-0.512084 J3.030955
G02 X9.594195 Y7.132124 Z-1.000000 I0.094354 J0.451850
G03 X9.269639 Y7.476481 Z-1.000000 I-0.581862 J-0.223280
G03 X8.438218 Y7.656122 Z-1.000000 I-0.831421 J-1.834182
G02 X7.712673 Y7.885478 Z-1.000000 I-0.000000 J1.262271
G02 X7.483317 Y8.326867 Z-1.000000 I0.310042 J0.441389
G02 X7.930310 Y10.080099 Z-1.000000 I3.661830 J0.000000
G02 X10.007183 Y12.954787 Z-1.000000 I12.351376 J-6.735903
G01 X11.580356 Y14.636637 Z-1.000000
G01 X13.575213 Y14.409267 Z-1.000000
G02 X15.545983 Y14.103573 Z-1.000000 I-2.795992 J-24.530875
G02 X16.073701 Y13.917642 Z-1.000000 I-0.375186 J-1.906734
G03 X16.575291 Y13.804679 Z-1.000000 I0.461672 J0.879874
G03 X17.125072 Y13.959912 Z-1.000000 I-0.049280 J1.225716
G02 X17.694475 Y14.093247 Z-1.000000 I0.516381 J-0.922711
G02 X19.210350 Y13.855217 Z-1.000000 I-0.365047 J-7.270644
G03 X20.640293 Y13.749081 Z-1.000000 I0.995051 J3.720380
G03 X21.215201 Y14.083075 Z-1.000000 I-0.093508 J0.822751
G03 X21.891460 Y15.637900 Z-1.000000 I-3.120342 J2.281649
G03 X22.659860 Y21.629329 Z-1.000000 I-48.187215 J9.224988
G02 X23.268951 Y26.132797 Z-1.000000 I33.135523 J-2.188633
G02 X24.511361 Y30.628406 Z-1.000000 I34.261870 J-7.049156
G03 X25.674924 Y34.983157 Z-1.000000 I-28.296803 J9.893557
G03 X25.468029 Y35.716829 Z-1.000000 I-0.842555 J0.158408
G03 X24.415697 Y36.132562 Z-1.000000 I-0.946782 J-0.856823
G03 X23.664454 Y35.567234 Z-1.000000 I0.072879 J-0.878659
G02 X21.580557 Y34.574917 Z-1.000000 I-1.560782 J0.593409
G02 X15.239999 Y38.346379 Z-1.000000 I5.344405 J16.200565
G03 X13.188307 Y40.121222 Z-1.000000 I-22.462041 J-23.892494
G03 X9.863881 Y42.621402 Z-1.000000 I-47.986251 J-60.345823
G02 X3.417488 Y47.883647 Z-1.000000 I36.126688 J50.835802
G02 X2.862315 Y49.161994 Z-1.000000 I1.194183 J1.278347
G02 X3.014028 Y49.813556 Z-1.000000 I1.474988 J0.000000
G02 X3.515075 Y50.487700 Z-1.000000 I2.086007 J-1.027121
G02 X6.772358 Y52.668793 Z-1.000000 I8.386690 J-9.002042
G02 X16.923680 Y56.637874 Z-1.000000 I39.655705 J-86.457391
G03 X18.326378 Y57.461324 Z-1.000000 I-1.179981 J3.616458
G03 X19.023802 Y58.579843 Z-1.000000 I-1.696148 J1.834280
G02 X21.336076 Y63.860556 Z-1.000000 I22.663972 J-6.777310
G02 X24.410423 Y67.671456 Z-1.000000 I14.682085 J-8.698877
G03 X24.966586 Y68.556188 Z-1.000000 I-1.374289 J1.481084
G03 X25.226144 Y70.312028 Z-1.000000 I-5.568872 J1.720328
G02 X25.868300 Y73.784063 Z-1.000000 I9.397912 J0.057250
G02 X26.990585 Y74.836169 Z-1.000000 I1.661928 J-0.648160
G02 X27.675415 Y74.703892 Z-1.000000 I0.220811 J-0.695714
G02 X29.684291 Y72.617762 Z-1.000000 I-8.000115 J-9.714157
G01 X30.265577 Y71.855037 Z-1.000000
G01 X31.169613 Y72.995901 Z-1.000000
G02 X33.828340 Y75.748720 Z-1.000000 I15.341645 J-12.156927
G02 X36.199543 Y77.274590 Z-1.000000 I6.884770 J-8.093577
G02 X38.072339 Y77.868927 Z-1.000000 I3.184635 J-6.787184
G02 X40.992522 Y78.126396 Z-1.000000 I2.920183 J-16.431422
G02 X43.899766 Y77.824256 Z-1.000000 I0.000000 J-14.138064
G02 X46.187373 Y77.034839 Z-1.000000 I-1.992863 J-9.484275
G02 X48.259603 Y75.757881 Z-1.000000 I-5.678968 J-11.535626
G02 X49.761065 Y74.334643 Z-1.000000 I-5.599370 J-7.410737
G03 X51.176200 Y72.808534 Z-1.000000 I16.881090 J14.234371
G03 X51.581967 Y72.547769 Z-1.000000 I0.830656 J0.846474
G03 X51.968251 Y72.613727 Z-1.000000 I0.137563 J0.358482
G03 X52.913750 Y73.680125 Z-1.000000 I-3.289773 J3.869161
G02 X54.918129 Y73.968949 Z-1.000000 I1.130834 J-0.748351
G02 X56.471730 Y70.683469 Z-1.000000 I-2.813453 J-3.340459
G03 X56.819103 Y68.642051 Z-1.000000 I6.665162 J0.083896
G03 X57.654195 Y67.168420 Z-1.000000 I4.227015 J1.421974
G02 X60.099383 Y63.757357 Z-1.000000 I-18.869146 J-16.108102
G02 X62.257284 Y59.441277 Z-1.000000 I-28.176125 J-16.784637
G03 X63.289361 Y57.827253 Z-1.000000 I4.978081 J2.046210
G03 X65.068368 Y56.410722 Z-1.000000 I5.559934 J5.157284
G02 X70.724913 Y52.677027 Z-1.000000 I-27.502368 J-47.817748
G02 X76.055685 Y48.146335 Z-1.000000 I-35.329410 J-46.969682
G02 X77.652691 Y45.457838 Z-1.000000 I-4.043656 J-4.220560
G02 X77.210935 Y43.893003 Z-1.000000 I-1.525100 J-0.414233
G02 X74.253427 Y41.681287 Z-1.000000 I-11.206992 J11.902748
G02 X68.824919 Y38.991622 Z-1.000000 I-22.200579 J37.984105
G03 X66.490146 Y37.854367 Z-1.000000 I7.968668 J-19.324843
G03 X65.410877 Y37.057538 Z-1.000000 I2.749495 J-4.853397
G02 X64.391284 Y36.157793 Z-1.000000 I-13.940688 J14.770045
G02 X62.827539 Y34.927352 Z-1.000000 I-27.666772 J33.552305
G02 X61.142288 Y34.008025 Z-1.000000 I-4.003608 J5.334846
G02 X59.602264 Y33.731774 Z-1.000000 I-1.540024 J4.154483
G02 X58.154058 Y34.017722 Z-1.000000 I0.000000 J3.810247
G02 X57.594138 Y34.556953 Z-1.000000 I0.401605 J0.977331
G03 X57.042747 Y35.045933 Z-1.000000 I-0.826446 J-0.376555
G03 X56.815140 Y34.804506 Z-1.000000 I-0.055753 J-0.175441
G02 X57.032690 Y34.225294 Z-1.000000 I-39.475901 J-15.157442
G02 X58.542606 Y30.100987 Z-1.000000 I-2001.252598 J-735.000826
G01 X60.048280 Y25.975093 Z-1.000000
G01 X59.508091 Y22.509341 Z-1.000000
G03 X60.176751 Y15.431172 Z-1.000000 I14.263692 J-2.223207
G03 X62.478425 Y14.191710 Z-1.000000 I1.838031 J0.656385
G02 X63.766335 Y14.467695 Z-1.000000 I5.442152 J-22.253214
G02 X64.420662 Y14.549848 Z-1.000000 I1.041416 J-5.647785
G02 X70.099289 Y14.110892 Z-1.000000 I1.331999 J-19.719098
G02 X72.550909 Y12.716917 Z-1.000000 I-1.065718 J-4.727158
G02 X74.108852 Y10.521917 Z-1.000000 I-6.938050 J-6.574802
G02 X74.487845 Y8.959627 Z-1.000000 I-3.030549 J-1.562290
G02 X74.208798 Y8.246680 Z-1.000000 I-1.050289 J0.000000
G02 X73.662666 Y8.066979 Z-1.000000 I-0.434922 J0.402048
G03 X72.957220 Y8.079921 Z-1.000000 I-0.390299 J-2.041687
G03 X72.837487 Y7.940423 Z-1.000000 I0.021397 J-0.139498
G02 X72.712571 Y7.781039 Z-1.000000 I-0.164140 J0.000000
G02 X71.682236 Y7.656122 Z-1.000000 I-1.030335 J4.186732
G03 X70.685041 Y7.498067 Z-1.000000 I0.000000 J-3.224758
G03 X70.526986 Y7.280471 Z-1.000000 I0.070755 J-0.217596
G02 X70.172588 Y6.962919 Z-1.000000 I-0.319468 J-0.000000
G02 X60.831843 Y8.346912 Z-1.000000 I13.754465 J125.043537
G02 X51.363335 Y10.431236 Z-1.000000 I27.782270 J148.755707
G02 X51.052764 Y10.830545 Z-1.000000 I0.101414 J0.399309
G02 X51.122478 Y11.300055 Z-1.000000 I1.615892 J-0.000000
G02 X52.523107 Y15.672645 Z-1.000000 I144.676118 J-43.932076
G03 X53.886995 Y20.061194 Z-1.000000 I-91.281688 J30.775033
G03 X54.387836 Y22.219911 Z-1.000000 I-21.541860 J6.135360
G01 X54.782226 Y24.406015 Z-1.000000
G01 X53.595906 Y26.345806 Z-1.000000
G03 X52.330636 Y28.227176 Z-1.000000 I-22.412981 J-13.707156
G03 X50.962331 Y29.918566 Z-1.000000 I-19.471524 J-14.352966
G01 X49.515076 Y31.551536 Z-1.000000
G01 X47.725863 Y31.158869 Z-1.000000
G02 X43.015265 Y30.548312 Z-1.000000 I-5.849619 J26.654276
G02 X38.183194 Y30.760212 Z-1.000000 I-1.180989 J28.269418
G02 X35.068569 Y31.238747 Z-1.000000 I8.823017 J67.801437
G02 X34.322119 Y31.444857 Z-1.000000 I0.720895 J4.065522
G03 X33.677763 Y31.361348 Z-1.000000 I-0.244310 J-0.642587
G03 X31.385527 Y29.343591 Z-1.000000 I8.837091 J-12.350120
G03 X29.242514 Y26.914079 Z-1.000000 I46.637448 J-43.297668
G03 X28.345292 Y25.714749 Z-1.000000 I10.427195 J-8.735879
G01 X27.513031 Y24.464193 Z-1.000000
G01 X27.731134 Y16.720299 Z-1.000000
G02 X27.829309 Y9.093011 Z-1.000000 I-249.411999 J-7.024589
G02 X27.712424 Y8.976408 Z-1.000000 I-0.116885 J0.000282
G03 X27.478376 Y8.951480 Z-1.000000 I0.000000 J-1.111201
G03 X21.687877 Y7.678362 Z-1.000000 I148.504813 J-689.246612
G02 X13.108044 Y6.158921 Z-1.000000 I-21.031795 J93.776711
G02 X12.559607 Y6.485609 Z-1.000000 I-0.066835 J0.511495
G01 X12.559611 Y6.485609 Z-1.000000
G00 Z5.000000

(End cutting path id: path83)


(Start cutting path id: path83)
(Change tool to Default tool)

G00 Z5.000000
G00 X13.650082 Y7.718010

G01 Z-1.000000 F100.0(Penetrate)
G03 X13.547360 Y7.739087 Z-1.000000 I-0.058311 J-0.023334 F400.000000
G03 X13.450664 Y7.518591 Z-1.000000 I0.234122 J-0.234122
G03 X13.521302 Y7.106449 Z-1.000000 I0.997875 J-0.041097
G03 X13.624024 Y7.085372 Z-1.000000 I0.058311 J0.023334
G03 X13.720721 Y7.305869 Z-1.000000 I-0.234123 J0.234123
G03 X13.650084 Y7.718010 Z-1.000000 I-0.997858 J0.041102
G01 X13.650082 Y7.718010 Z-1.000000
G00 Z5.000000

(End cutting path id: path83)


(Start cutting path id: path83)
(Change tool to Default tool)

G00 Z5.000000
G00 X13.237793 Y9.375554

G01 Z-1.000000 F100.0(Penetrate)
G03 X13.121995 Y10.067422 Z-1.000000 I-0.409801 J0.287036 F400.000000
G03 X12.423909 Y9.966623 Z-1.000000 I-0.297225 J-0.409268
G03 X11.847850 Y9.120418 Z-1.000000 I6.976361 J-5.368374
G03 X11.781587 Y8.893890 Z-1.000000 I0.401483 J-0.240397
G03 X12.185589 Y8.592779 Z-1.000000 I0.307419 J-0.009116
G03 X13.237793 Y9.375554 Z-1.000000 I-0.654267 J1.978037
G01 X13.237793 Y9.375554 Z-1.000000
G00 Z5.000000

(End cutting path id: path83)


(Start cutting path id: path83)
(Change tool to Default tool)

G00 Z5.000000
G00 X10.496387 Y10.379219

G01 Z-1.000000 F100.0(Penetrate)
G03 X10.496708 Y10.638196 Z-1.000000 I-0.243580 J0.129791 F400.000000
G03 X10.342965 Y10.668877 Z-1.000000 I-0.089381 J-0.047342
G03 X9.876440 Y10.176919 Z-1.000000 I1.770175 J-2.145844
G03 X9.793818 Y9.926216 Z-1.000000 I0.339049 J-0.250703
G03 X9.984113 Y9.822492 Z-1.000000 I0.123416 J0.000000
G03 X10.496387 Y10.379219 Z-1.000000 I-0.814965 J1.263940
G01 X10.496387 Y10.379219 Z-1.000000
G00 Z5.000000

(End cutting path id: path83)


(Start cutting path id: path83)
(Change tool to Default tool)

G00 Z5.000000
G00 X11.156207 Y12.854753

G01 Z-1.000000 F100.0(Penetrate)
G03 X11.149127 Y12.972294 Z-1.000000 I-0.069846 J0.054777 F400.000000
G03 X11.031587 Y12.979375 Z-1.000000 I-0.062764 J-0.062763
G03 X10.496921 Y12.505463 Z-1.000000 I3.666458 J-4.675049
G03 X10.453961 Y12.401749 Z-1.000000 I0.103714 J-0.103714
G03 X10.582556 Y12.331674 Z-1.000000 I0.083391 J0.000000
G03 X11.156207 Y12.854753 Z-1.000000 I-1.270311 J1.969221
G01 X11.156207 Y12.854753 Z-1.000000
G00 Z5.000000

(End cutting path id: path83)


(Start cutting path id: path83)
(Change tool to Default tool)

G00 Z5.000000
G00 X12.146421 Y12.524677

G01 Z-1.000000 F100.0(Penetrate)
G03 X12.139341 Y12.642218 Z-1.000000 I-0.069846 J0.054777 F400.000000
G03 X12.021801 Y12.649299 Z-1.000000 I-0.062764 J-0.062763
G03 X11.487135 Y12.175387 Z-1.000000 I3.666298 J-4.674864
G03 X11.444176 Y12.071674 Z-1.000000 I0.103713 J-0.103713
G03 X11.572771 Y12.001599 Z-1.000000 I0.083391 J0.000000
G03 X12.146421 Y12.524677 Z-1.000000 I-1.270306 J1.969215
G01 X12.146421 Y12.524677 Z-1.000000
G00 Z5.000000

(End cutting path id: path83)


(Start cutting path id: path83)
(Change tool to Default tool)

G00 Z5.000000
G00 X15.074963 Y12.112088

G01 Z-1.000000 F100.0(Penetrate)
G03 X15.249957 Y12.496411 Z-1.000000 I-0.619335 J0.514004 F400.000000
G03 X15.155793 Y12.607195 Z-1.000000 I-0.094164 J0.015373
G03 X14.866879 Y12.519553 Z-1.000000 I-0.000000 J-0.520030
G03 X14.414819 Y12.112088 Z-1.000000 I1.173952 J-1.756933
G03 X14.239825 Y11.727764 Z-1.000000 I0.619336 J-0.514004
G03 X14.333989 Y11.616980 Z-1.000000 I0.094164 J-0.015373
G03 X14.622904 Y11.704622 Z-1.000000 I0.000000 J0.520030
G03 X15.074963 Y12.112088 Z-1.000000 I-1.173967 J1.756945
G01 X15.074963 Y12.112088 Z-1.000000
G00 Z5.000000

(End cutting path id: path83)


(Start cutting path id: path83)
(Change tool to Default tool)

G00 Z5.000000
G00 X16.953495 Y8.856886

G01 Z-1.000000 F100.0(Penetrate)
G03 X16.867802 Y9.858017 Z-1.000000 I-1.074358 J0.412272 F400.000000
G03 X16.095928 Y10.296694 Z-1.000000 I-0.771874 J-0.459736
G03 X15.218383 Y9.823203 Z-1.000000 I0.000000 J-1.049944
G03 X14.744892 Y8.239986 Z-1.000000 I2.410161 J-1.583217
G03 X15.579604 Y7.606472 Z-1.000000 I0.657762 J0.000000
G03 X16.953495 Y8.856886 Z-1.000000 I-0.556122 J1.991026
G01 X16.953495 Y8.856886 Z-1.000000
G00 Z5.000000

(End cutting path id: path83)


(Start cutting path id: path83)
(Change tool to Default tool)

G00 Z5.000000
G00 X22.996681 Y9.749050

G01 Z-1.000000 F100.0(Penetrate)
G03 X25.820667 Y10.695141 Z-1.000000 I-3.423569 J14.906709 F400.000000
G03 X26.072711 Y11.125613 Z-1.000000 I-0.175264 J0.391641
G02 X26.029048 Y11.783037 Z-1.000000 I13.495031 J1.226440
G02 X25.780975 Y18.066846 Z-1.000000 I1233.673758 J51.849907
G02 X26.506288 Y24.574574 Z-1.000000 I22.201364 J0.819852
G02 X28.747933 Y29.269365 Z-1.000000 I13.556846 J-3.590495
G03 X30.865269 Y32.250940 Z-1.000000 I-101.542088 J74.351705
G03 X30.918398 Y32.421792 Z-1.000000 I-0.248149 J0.170852
G03 X30.832798 Y32.570034 Z-1.000000 I-0.171163 J-0.000000
G03 X29.399574 Y33.344639 Z-1.000000 I-14.555489 J-25.218294
G03 X27.933080 Y34.032863 Z-1.000000 I-12.709217 J-25.174722
G03 X27.803280 Y33.994428 Z-1.000000 I-0.041989 J-0.096591
G03 X27.749425 Y33.891213 Z-1.000000 I0.467174 J-0.309419
G03 X26.131773 Y29.770915 Z-1.000000 I753.335853 J-298.141499
G03 X24.900238 Y25.565888 Z-1.000000 I23.635900 J-9.205151
G03 X24.305661 Y20.688993 Z-1.000000 I31.264239 J-6.286336
G02 X22.219470 Y13.539549 Z-1.000000 I-15.669473 J0.693221
G02 X19.325903 Y12.064185 Z-1.000000 I-2.583457 J1.491627
G03 X17.791472 Y11.609598 Z-1.000000 I-0.217647 J-2.082329
G03 X17.694086 Y10.744103 Z-1.000000 I0.390010 J-0.482110
G02 X18.274520 Y9.842579 Z-1.000000 I-4.466367 J-3.513227
G02 X18.375679 Y9.427002 Z-1.000000 I-0.803053 J-0.415577
G03 X18.713473 Y9.111930 Z-1.000000 I0.315836 J0.000000
G03 X22.996681 Y9.749050 Z-1.000000 I-1.929710 J27.689062
G01 X22.996681 Y9.749050 Z-1.000000
G00 Z5.000000

(End cutting path id: path83)


(Start cutting path id: path83)
(Change tool to Default tool)

G00 Z5.000000
G00 X27.217558 Y10.671890

G01 Z-1.000000 F100.0(Penetrate)
G03 X27.086505 Y10.702828 Z-1.000000 I-0.075087 J-0.025028 F400.000000
G03 X26.868821 Y10.323153 Z-1.000000 I0.591195 J-0.591200
G03 X26.882087 Y9.921133 Z-1.000000 I0.683283 J-0.178682
G03 X27.013140 Y9.890195 Z-1.000000 I0.075087 J0.025029
G03 X27.230824 Y10.269868 Z-1.000000 I-0.591199 J0.591202
G03 X27.217558 Y10.671890 Z-1.000000 I-0.683280 J0.178683
G01 X27.217558 Y10.671890 Z-1.000000
G00 Z5.000000

(End cutting path id: path83)


(Start cutting path id: path83)
(Change tool to Default tool)

G00 Z5.000000
G00 X26.860915 Y16.646727

G01 Z-1.000000 F100.0(Penetrate)
G01 X26.786362 Y16.649191 Z-1.000000 F400.000000
G03 X26.710706 Y16.072950 Z-1.000000 I2.245893 J-0.587955
G03 X26.779693 Y15.328904 Z-1.000000 I3.836074 J-0.019546
G01 X26.854253 Y15.326441 Z-1.000000
G03 X26.929912 Y15.902687 Z-1.000000 I-2.245746 J0.587948
G03 X26.860953 Y16.646727 Z-1.000000 I-3.839587 J0.019356
G01 X26.860915 Y16.646727 Z-1.000000
G00 Z5.000000

(End cutting path id: path83)


(Start cutting path id: path83)
(Change tool to Default tool)

G00 Z5.000000
G00 X23.552229 Y20.260733

G01 Z-1.000000 F100.0(Penetrate)
G03 X23.449506 Y20.281810 Z-1.000000 I-0.058311 J-0.023334 F400.000000
G03 X23.352810 Y20.061314 Z-1.000000 I0.234122 J-0.234123
G03 X23.423448 Y19.649172 Z-1.000000 I0.997873 J-0.041097
G03 X23.526171 Y19.628095 Z-1.000000 I0.058312 J0.023334
G03 X23.622866 Y19.848594 Z-1.000000 I-0.234135 J0.234127
G03 X23.552231 Y20.260733 Z-1.000000 I-0.997850 J0.041104
G01 X23.552229 Y20.260733 Z-1.000000
G00 Z5.000000

(End cutting path id: path83)


(Start cutting path id: path83)
(Change tool to Default tool)

G00 Z5.000000
G00 X30.890892 Y33.852101

G01 Z-1.000000 F100.0(Penetrate)
G03 X30.741895 Y33.954983 Z-1.000000 I-0.521913 J-0.596517 F400.000000
G03 X29.928184 Y34.365415 Z-1.000000 I-9.448983 J-17.721466
G03 X29.749001 Y34.353436 Z-1.000000 I-0.078915 J-0.165700
G03 X29.743716 Y34.245091 Z-1.000000 I0.036584 J-0.056086
G03 X30.786528 Y33.671676 Z-1.000000 I2.164962 J2.702259
G03 X30.890892 Y33.852101 Z-1.000000 I0.034423 J0.100485
G01 X30.890892 Y33.852101 Z-1.000000
G00 Z5.000000

(End cutting path id: path83)


(Start cutting path id: path83)
(Change tool to Default tool)

G00 Z5.000000
G00 X33.901536 Y32.436603

G01 Z-1.000000 F100.0(Penetrate)
G03 X33.975272 Y32.587308 Z-1.000000 I-0.002931 J0.094825 F400.000000
G03 X33.558971 Y32.906599 Z-1.000000 I-0.749683 J-0.546420
G03 X32.291834 Y33.134492 Z-1.000000 I-1.227184 J-3.186684
G03 X32.125762 Y32.889829 Z-1.000000 I0.002108 J-0.180125
G02 X32.108757 Y32.409881 Z-1.000000 I-0.573221 J-0.219966
G02 X31.238651 Y30.991918 Z-1.000000 I-6.674591 J3.119792
G01 X30.155110 Y29.605898 Z-1.000000
G01 X31.621980 Y31.008702 Z-1.000000
G02 X33.171419 Y32.214562 Z-1.000000 I6.680680 J-6.985782
G02 X33.901536 Y32.436618 Z-1.000000 I0.775222 J-1.237584
G01 X33.901536 Y32.436603 Z-1.000000
G00 Z5.000000

(End cutting path id: path83)


(Start cutting path id: path83)
(Change tool to Default tool)

G00 Z5.000000
G00 X35.780078 Y32.280839

G01 Z-1.000000 F100.0(Penetrate)
G03 X35.559582 Y32.377531 Z-1.000000 I-0.234118 J-0.234124 F400.000000
G03 X35.147440 Y32.306879 Z-1.000000 I-0.041083 J-0.997760
G03 X35.126363 Y32.204158 Z-1.000000 I0.023333 J-0.058310
G03 X35.346859 Y32.107463 Z-1.000000 I0.234121 J0.234123
G03 X35.759000 Y32.178103 Z-1.000000 I0.041073 J0.997987
G03 X35.780078 Y32.280823 Z-1.000000 I-0.023332 J0.058310
G01 X35.780078 Y32.280839 Z-1.000000
G00 Z5.000000

(End cutting path id: path83)


(Start cutting path id: path83)
(Change tool to Default tool)

G00 Z5.000000
G00 X37.602347 Y31.969948

G01 Z-1.000000 F100.0(Penetrate)
G03 X37.189758 Y32.050055 Z-1.000000 I-0.412589 J-1.022456 F400.000000
G03 X36.777168 Y31.969948 Z-1.000000 I0.000000 J-1.102572
G01 X36.777167 Y31.883570 Z-1.000000
G03 X37.189758 Y31.803463 Z-1.000000 I0.412591 J1.022473
G03 X37.602347 Y31.883568 Z-1.000000 I0.000000 J1.102594
G01 X37.602347 Y31.969948 Z-1.000000
G01 X37.602347 Y31.969948 Z-1.000000
G00 Z5.000000

(End cutting path id: path83)


(Start cutting path id: path83)
(Change tool to Default tool)

G00 Z5.000000
G00 X43.389664 Y31.663441

G01 Z-1.000000 F100.0(Penetrate)
G03 X41.832602 Y31.725317 Z-1.000000 I-1.566470 J-19.797084 F400.000000
G03 X40.088948 Y31.665041 Z-1.000000 I-0.011801 J-24.909017
G01 X40.088662 Y31.603737 Z-1.000000
G03 X41.645724 Y31.541868 Z-1.000000 I1.566448 J19.798510
G03 X43.389379 Y31.602155 Z-1.000000 I0.013554 J24.853656
G01 X43.389664 Y31.663480 Z-1.000000
G01 X43.389664 Y31.663441 Z-1.000000
G00 Z5.000000

(End cutting path id: path83)


(Start cutting path id: path83)
(Change tool to Default tool)

G00 Z5.000000
G00 X47.002512 Y31.950768

G01 Z-1.000000 F100.0(Penetrate)
G03 X46.782014 Y32.047461 Z-1.000000 I-0.234119 J-0.234126 F400.000000
G03 X46.369873 Y31.976808 Z-1.000000 I-0.041083 J-0.997751
G03 X46.348797 Y31.874087 Z-1.000000 I0.023334 J-0.058310
G03 X46.569293 Y31.777392 Z-1.000000 I0.234122 J0.234125
G03 X46.981434 Y31.848032 Z-1.000000 I0.041073 J0.997986
G03 X47.002512 Y31.950752 Z-1.000000 I-0.023332 J0.058310
G01 X47.002512 Y31.950768 Z-1.000000
G00 Z5.000000

(End cutting path id: path83)


(Start cutting path id: path83)
(Change tool to Default tool)

G00 Z5.000000
G00 X47.917084 Y33.237267

G01 Z-1.000000 F100.0(Penetrate)
G03 X52.333315 Y34.964150 Z-1.000000 I-4.876015 J18.979991 F400.000000
G03 X56.035068 Y37.609484 Z-1.000000 I-8.554779 J15.883838
G03 X61.473763 Y47.969363 Z-1.000000 I-11.902392 J12.856012
G03 X59.396606 Y60.962676 Z-1.000000 I-21.930672 J3.156773
G03 X53.354595 Y70.220560 Z-1.000000 I-41.993884 J-20.806089
G03 X51.388988 Y70.538553 Z-1.000000 I-1.166309 J-0.975301
G02 X51.099040 Y70.556793 Z-1.000000 I-0.132102 J0.213745
G02 X48.954337 Y72.504246 Z-1.000000 I15.694997 J19.439378
G03 X45.023948 Y75.259248 Z-1.000000 I-9.371939 J-9.189236
G03 X40.985581 Y76.134650 Z-1.000000 I-4.033043 J-8.852556
G03 X37.037019 Y75.218715 Z-1.000000 I0.004934 J-8.990291
G03 X32.972187 Y72.210997 Z-1.000000 I6.152572 J-12.565602
G02 X30.847416 Y70.255315 Z-1.000000 I-14.118857 J13.207500
G02 X30.227114 Y70.039643 Z-1.000000 I-0.620302 J0.784199
G03 X27.884088 Y69.044259 Z-1.000000 I0.000000 J-3.255306
G03 X22.904730 Y62.447998 Z-1.000000 I24.695396 J-23.819487
G03 X20.879001 Y57.931112 Z-1.000000 I20.563105 J-11.934816
G03 X19.869756 Y53.205995 Z-1.000000 I21.519080 J-7.066634
G03 X21.741915 Y43.496953 Z-1.000000 I16.966473 J-1.763438
G03 X28.953548 Y35.949455 Z-1.000000 I16.823730 J8.855964
G03 X33.167760 Y34.021525 Z-1.000000 I11.619980 J19.829973
G03 X38.345008 Y32.752867 Z-1.000000 I9.797897 J28.785900
G03 X43.129267 Y32.508696 Z-1.000000 I3.590162 J23.352051
G03 X47.917084 Y33.237267 Z-1.000000 I-1.220385 J24.115680
G01 X47.917084 Y33.237267 Z-1.000000
G00 Z5.000000

(End cutting path id: path83)


(Start cutting path id: path83)
(Change tool to Default tool)

G00 Z5.000000
G00 X51.268957 Y31.364749

G01 Z-1.000000 F100.0(Penetrate)
G02 X50.836678 Y32.012287 Z-1.000000 I1.971455 J1.784148 F400.000000
G02 X50.722692 Y32.519999 Z-1.000000 I1.073723 J0.507712
G03 X50.459513 Y32.838450 Z-1.000000 I-0.324255 J0.000000
G03 X49.567442 Y32.741563 Z-1.000000 I-0.288131 J-1.502327
G03 X49.362354 Y32.540997 Z-1.000000 I0.157247 J-0.365931
G03 X49.427389 Y32.434692 Z-1.000000 I0.068385 J-0.031210
G02 X49.889602 Y32.285494 Z-1.000000 I-0.040958 J-0.917452
G02 X50.722692 Y31.586313 Z-1.000000 I-2.522823 J-3.851913
G03 X51.196666 Y31.261378 Z-1.000000 I0.978686 J0.919429
G03 X51.268957 Y31.364749 Z-1.000000 I0.024318 J0.059957
G01 X51.268957 Y31.364749 Z-1.000000
G00 Z5.000000

(End cutting path id: path83)


(Start cutting path id: path83)
(Change tool to Default tool)

G00 Z5.000000
G00 X55.673765 Y35.371773

G01 Z-1.000000 F100.0(Penetrate)
G03 X55.557533 Y35.522383 Z-1.000000 I-0.155694 J0.000000 F400.000000
G03 X55.178658 Y35.501494 Z-1.000000 I-0.156980 J-0.599140
G03 X54.734958 Y35.276169 Z-1.000000 I0.863010 J-2.248920
G03 X54.683551 Y35.181780 Z-1.000000 I0.060950 J-0.094389
G03 X54.740058 Y35.108561 Z-1.000000 I0.075690 J0.000000
G03 X55.178658 Y35.052059 Z-1.000000 I0.438600 J1.674073
G03 X55.561036 Y35.164788 Z-1.000000 I-0.000000 J0.704877
G03 X55.673765 Y35.371773 Z-1.000000 I-0.133660 J0.206985
G01 X55.673765 Y35.371773 Z-1.000000
G00 Z5.000000

(End cutting path id: path83)


(Start cutting path id: path83)
(Change tool to Default tool)

G00 Z5.000000
G00 X56.837750 Y36.638671

G01 Z-1.000000 F100.0(Penetrate)
G03 X56.653248 Y36.678148 Z-1.000000 I-0.122735 J-0.122735 F400.000000
G03 X56.245888 Y36.413305 Z-1.000000 I0.409625 J-1.075757
G03 X56.246160 Y36.268008 Z-1.000000 I0.073057 J-0.072512
G03 X56.430662 Y36.228531 Z-1.000000 I0.122736 J0.122736
G03 X56.838021 Y36.493374 Z-1.000000 I-0.409610 J1.075732
G03 X56.837750 Y36.638671 Z-1.000000 I-0.073056 J0.072512
G01 X56.837750 Y36.638671 Z-1.000000
G00 Z5.000000

(End cutting path id: path83)


(Start cutting path id: path83)
(Change tool to Default tool)

G00 Z5.000000
G00 X58.170067 Y38.105222

G01 Z-1.000000 F100.0(Penetrate)
G01 X59.139517 Y39.177954 Z-1.000000 F400.000000
G01 X58.066784 Y38.208504 Z-1.000000
G03 X57.030185 Y37.223006 Z-1.000000 I18.979654 J-21.001718
G03 X56.994052 Y37.135772 Z-1.000000 I0.087234 J-0.087234
G03 X57.102161 Y37.084785 Z-1.000000 I0.066078 J0.000000
G03 X58.170067 Y38.105222 Z-1.000000 I-6.417659 J7.785203
G01 X58.170067 Y38.105222 Z-1.000000
G00 Z5.000000

(End cutting path id: path83)


(Start cutting path id: path83)
(Change tool to Default tool)

G00 Z5.000000
G00 X60.300141 Y35.382133

G01 Z-1.000000 F100.0(Penetrate)
G03 X60.553356 Y35.463044 Z-1.000000 I-0.000000 J0.436680 F400.000000
G03 X62.997331 Y37.301833 Z-1.000000 I-33.520103 J47.095874
G02 X65.508979 Y39.069723 Z-1.000000 I16.438574 J-20.686239
G02 X68.640742 Y40.802096 Z-1.000000 I18.909683 J-30.487738
G03 X75.294245 Y44.632458 Z-1.000000 I-25.221137 J51.504093
G03 X75.808131 Y45.594207 Z-1.000000 I-0.643025 J0.961749
G03 X75.539023 Y46.172410 Z-1.000000 I-0.755715 J0.000000
G03 X70.182314 Y50.487920 Z-1.000000 I-103.373854 J-122.832459
G03 X64.664983 Y54.560002 Z-1.000000 I-100.039842 J-129.771813
G03 X63.804540 Y54.847660 Z-1.000000 I-0.908270 J-1.286110
G03 X63.672817 Y54.734179 Z-1.000000 I-0.003925 J-0.128634
G03 X63.717510 Y54.113693 Z-1.000000 I1.636216 J-0.193998
G02 X63.855416 Y53.362873 Z-1.000000 I-4.602476 J-1.233429
G02 X63.921045 Y52.114486 Z-1.000000 I-12.712372 J-1.294223
G03 X64.347735 Y51.131452 Z-1.000000 I1.357018 J0.004898
G03 X66.483605 Y49.701363 Z-1.000000 I5.352191 J5.683591
G02 X72.129923 Y46.734211 Z-1.000000 I-22.201066 J-49.103226
G02 X72.507411 Y46.065440 Z-1.000000 I-0.403665 J-0.668771
G02 X72.163926 Y45.309705 Z-1.000000 I-1.003125 J0.000000
G02 X67.995508 Y42.127238 Z-1.000000 I-26.327545 J30.162859
G02 X65.381509 Y41.200095 Z-1.000000 I-3.155749 J4.748816
G02 X63.299930 Y41.679063 Z-1.000000 I-0.321305 J3.366339
G03 X62.245736 Y42.077018 Z-1.000000 I-1.581475 J-2.594101
G03 X61.902179 Y41.925383 Z-1.000000 I-0.058565 J-0.332325
G03 X61.666699 Y41.475900 Z-1.000000 I2.600807 J-1.648967
G03 X61.620103 Y41.258384 Z-1.000000 I0.545061 J-0.230510
G02 X61.553080 Y41.049929 Z-1.000000 I-0.382097 J0.007851
G02 X59.974079 Y38.860289 Z-1.000000 I-48.094314 J33.017795
G03 X58.700869 Y36.651583 Z-1.000000 I8.153868 J-6.171625
G03 X58.712585 Y35.859414 Z-1.000000 I0.910391 J-0.382707
G03 X59.187153 Y35.258924 Z-1.000000 I1.457458 J0.664061
G03 X59.555373 Y35.204344 Z-1.000000 I0.232492 J0.299116
G02 X60.024688 Y35.349710 Z-1.000000 I1.333855 J-3.476084
G02 X60.300137 Y35.382133 Z-1.000000 I0.275449 J-1.153821
G01 X60.300141 Y35.382133 Z-1.000000
G00 Z5.000000

(End cutting path id: path83)


(Start cutting path id: path83)
(Change tool to Default tool)

G00 Z5.000000
G00 X62.417042 Y43.671446

G01 Z-1.000000 F100.0(Penetrate)
G03 X61.956386 Y43.876350 Z-1.000000 I-0.380502 J-0.235164 F400.000000
G03 X61.510028 Y43.506242 Z-1.000000 I0.106018 J-0.582073
G03 X61.586248 Y43.273935 Z-1.000000 I0.180739 J-0.069357
G03 X61.966108 Y43.213699 Z-1.000000 I0.258651 J0.403250
G03 X62.393311 Y43.460765 Z-1.000000 I-0.235268 J0.899676
G03 X62.417042 Y43.671446 Z-1.000000 I-0.122269 J0.120450
G01 X62.417042 Y43.671446 Z-1.000000
G00 Z5.000000

(End cutting path id: path83)


(Start cutting path id: path83)
(Change tool to Default tool)

G00 Z5.000000
G00 X67.638860 Y44.158222

G01 Z-1.000000 F100.0(Penetrate)
G03 X69.452430 Y45.708515 Z-1.000000 I-21.006804 J26.410177 F400.000000
G03 X69.536771 Y45.900426 Z-1.000000 I-0.176166 J0.191911
G03 X69.435702 Y46.066640 Z-1.000000 I-0.187208 J0.000000
G03 X66.813681 Y47.311650 Z-1.000000 I-19.177848 J-37.005471
G01 X64.090590 Y48.490276 Z-1.000000
G01 X63.567886 Y46.474687 Z-1.000000
G01 X63.045178 Y44.459099 Z-1.000000
G01 X64.050523 Y43.551402 Z-1.000000
G03 X65.091880 Y42.738340 Z-1.000000 I6.197252 J6.863933
G03 X65.398410 Y42.646158 Z-1.000000 I0.302640 J0.450623
G03 X65.707942 Y42.742010 Z-1.000000 I-0.003866 J0.560190
G03 X67.638860 Y44.158222 Z-1.000000 I-17.128617 J25.378267
G01 X67.638860 Y44.158222 Z-1.000000
G00 Z5.000000

(End cutting path id: path83)


(Start cutting path id: path83)
(Change tool to Default tool)

G00 Z5.000000
G00 X70.878317 Y46.353343

G01 Z-1.000000 F100.0(Penetrate)
G03 X70.714709 Y46.409753 Z-1.000000 I-0.145568 J-0.156731 F400.000000
G01 X70.675934 Y46.336213 Z-1.000000
G02 X70.721909 Y45.920429 Z-1.000000 I-0.460915 J-0.261399
G02 X70.324018 Y45.180963 Z-1.000000 I-2.041844 J0.621892
G01 X70.354642 Y45.122401 Z-1.000000
G03 X70.526402 Y45.198093 Z-1.000000 I-0.024381 J0.288049
G03 X70.990400 Y45.937550 Z-1.000000 I-1.132053 J1.225651
G03 X70.878317 Y46.353343 Z-1.000000 I-0.388381 J0.118310
G01 X70.878317 Y46.353343 Z-1.000000
G00 Z5.000000

(End cutting path id: path83)


(Start cutting path id: path83)
(Change tool to Default tool)

G00 Z5.000000
G00 X77.102358 Y45.589366

G01 Z-1.000000 F100.0(Penetrate)
G03 X77.012220 Y45.686051 Z-1.000000 I-0.102427 J-0.005131 F400.000000
G03 X76.895311 Y45.614356 Z-1.000000 I-0.013228 J-0.109596
G02 X76.660082 Y45.150828 Z-1.000000 I-2.053420 J0.750608
G02 X76.013673 Y44.294070 Z-1.000000 I-7.752519 J5.176912
G01 X75.313024 Y43.468891 Z-1.000000
G01 X76.220720 Y44.269087 Z-1.000000
G03 X76.976474 Y45.133368 Z-1.000000 I-2.934026 J3.328173
G03 X77.102358 Y45.589373 Z-1.000000 I-0.626438 J0.418311
G01 X77.102358 Y45.589366 Z-1.000000
G00 Z5.000000

(End cutting path id: path83)


(Start cutting path id: path83)
(Change tool to Default tool)

G00 Z5.000000
G00 X63.656434 Y49.868694

G01 Z-1.000000 F100.0(Penetrate)
G02 X63.422770 Y50.132343 Z-1.000000 I0.325520 J0.523869 F400.000000
G02 X63.178603 Y50.895494 Z-1.000000 I2.892736 J1.346153
G01 X63.085112 Y50.908397 Z-1.000000
G03 X62.980289 Y50.493262 Z-1.000000 I0.917974 J-0.452592
G03 X63.163799 Y49.585533 Z-1.000000 I1.978397 J-0.072454
G03 X63.458124 Y49.466466 Z-1.000000 I0.210962 J0.098174
G03 X63.706602 Y49.693154 Z-1.000000 I-0.165266 J0.430678
G03 X63.656434 Y49.868694 Z-1.000000 I-0.121900 J0.060100
G01 X63.656434 Y49.868694 Z-1.000000
G00 Z5.000000

(End cutting path id: path83)


(Start cutting path id: path83)
(Change tool to Default tool)

G00 Z5.000000
G00 X62.347139 Y56.896868

G01 Z-1.000000 F100.0(Penetrate)
G03 X62.219497 Y56.859019 Z-1.000000 I-0.053553 J-0.053553 F400.000000
G03 X62.217269 Y56.284182 Z-1.000000 I1.381235 J-0.292775
G03 X62.409666 Y55.926296 Z-1.000000 I0.691208 J0.140930
G03 X62.537310 Y55.964145 Z-1.000000 I0.053554 J0.053554
G03 X62.539531 Y56.538985 Z-1.000000 I-1.381126 J0.292761
G03 X62.347139 Y56.896868 Z-1.000000 I-0.691258 J-0.140955
G01 X62.347139 Y56.896868 Z-1.000000
G00 Z5.000000

(End cutting path id: path83)


(Start cutting path id: path83)
(Change tool to Default tool)

G00 Z5.000000
G00 X56.333909 Y67.523691

G01 Z-1.000000 F100.0(Penetrate)
G03 X56.290949 Y67.627406 Z-1.000000 I-0.146675 J-0.000000 F400.000000
G03 X55.756283 Y68.101316 Z-1.000000 I-4.200829 J-4.200818
G03 X55.638743 Y68.094236 Z-1.000000 I-0.054776 J-0.069845
G03 X55.631662 Y67.976696 Z-1.000000 I0.062764 J-0.062764
G03 X56.205314 Y67.453616 Z-1.000000 I1.843935 J1.446112
G03 X56.333909 Y67.523691 Z-1.000000 I0.045204 J0.070075
G01 X56.333909 Y67.523691 Z-1.000000
G00 Z5.000000

(End cutting path id: path83)


(Start cutting path id: path83)
(Change tool to Default tool)

G00 Z5.000000
G00 X54.797218 Y72.359437

G01 Z-1.000000 F100.0(Penetrate)
G01 X54.584335 Y73.423852 Z-1.000000 F400.000000
G01 X53.981139 Y72.639444 Z-1.000000
G03 X53.595365 Y71.545326 Z-1.000000 I1.477135 J-1.135891
G03 X53.940889 Y70.844453 Z-1.000000 I0.845159 J-0.018951
G03 X54.576890 Y70.981343 Z-1.000000 I0.257182 J0.351013
G03 X54.797217 Y72.359437 Z-1.000000 I-1.743289 J0.985373
G01 X54.797218 Y72.359437 Z-1.000000
G00 Z5.000000

(End cutting path id: path83)


(Start cutting path id: path83)
(Change tool to Default tool)

G00 Z5.000000
G00 X43.371724 Y77.170564

G01 Z-1.000000 F100.0(Penetrate)
G03 X43.151229 Y77.267260 Z-1.000000 I-0.234122 J-0.234120 F400.000000
G03 X42.739086 Y77.196623 Z-1.000000 I-0.041102 J-0.997853
G03 X42.718009 Y77.093901 Z-1.000000 I0.023334 J-0.058311
G03 X42.938505 Y76.997204 Z-1.000000 I0.234122 J0.234122
G03 X43.350647 Y77.067842 Z-1.000000 I0.041102 J0.997856
G03 X43.371724 Y77.170564 Z-1.000000 I-0.023334 J0.058311
G01 X43.371724 Y77.170564 Z-1.000000
G00 Z5.000000

(End cutting path id: path83)


(Start cutting path id: path83)
(Change tool to Default tool)

G00 Z5.000000
G00 X33.558971 Y74.165537

G01 Z-1.000000 F100.0(Penetrate)
G03 X34.198705 Y74.932104 Z-1.000000 I-6.198193 J5.822894 F400.000000
G01 X34.169150 Y74.990716 Z-1.000000
G03 X34.027234 Y74.937274 Z-1.000000 I-0.000000 J-0.215149
G03 X33.228899 Y74.165537 Z-1.000000 I7.608613 J-8.669646
G03 X32.589165 Y73.398970 Z-1.000000 I6.198130 J-5.822835
G01 X32.618720 Y73.340359 Z-1.000000
G03 X32.760636 Y73.393801 Z-1.000000 I0.000000 J0.215149
G03 X33.558971 Y74.165537 Z-1.000000 I-7.608799 J8.669839
G01 X33.558971 Y74.165537 Z-1.000000
G00 Z5.000000

(End cutting path id: path83)


(Start cutting path id: path83)
(Change tool to Default tool)

G00 Z5.000000
G00 X28.095982 Y72.052575

G01 Z-1.000000 F100.0(Penetrate)
G03 X27.397323 Y72.434131 Z-1.000000 I-0.632004 J-0.326822 F400.000000
G03 X26.873594 Y71.937555 Z-1.000000 I0.054787 J-0.582254
G03 X27.157849 Y70.707329 Z-1.000000 I1.708921 J-0.253091
G03 X27.804939 Y70.579662 Z-1.000000 I0.388743 J0.266627
G03 X28.218088 Y71.192832 Z-1.000000 I-0.522962 J0.798142
G03 X28.095982 Y72.052575 Z-1.000000 I-1.291263 J0.255149
G01 X28.095982 Y72.052575 Z-1.000000
G00 Z5.000000

(End cutting path id: path83)


(Start cutting path id: path83)
(Change tool to Default tool)

G00 Z5.000000
G00 X29.493517 Y61.849743

G01 Z-1.000000 F100.0(Penetrate)
G03 X29.390795 Y61.870820 Z-1.000000 I-0.058311 J-0.023334 F400.000000
G03 X29.294099 Y61.650324 Z-1.000000 I0.234122 J-0.234122
G03 X29.364736 Y61.238182 Z-1.000000 I0.997877 J-0.041097
G03 X29.467459 Y61.217105 Z-1.000000 I0.058311 J0.023334
G03 X29.564155 Y61.437604 Z-1.000000 I-0.234132 J0.234126
G03 X29.493519 Y61.849743 Z-1.000000 I-0.997855 J0.041102
G01 X29.493517 Y61.849743 Z-1.000000
G00 Z5.000000

(End cutting path id: path83)


(Start cutting path id: path83)
(Change tool to Default tool)

G00 Z5.000000
G00 X29.493517 Y60.529457

G01 Z-1.000000 F100.0(Penetrate)
G03 X29.390795 Y60.550534 Z-1.000000 I-0.058311 J-0.023334 F400.000000
G03 X29.294099 Y60.330038 Z-1.000000 I0.234122 J-0.234122
G03 X29.364737 Y59.917896 Z-1.000000 I0.997876 J-0.041097
G03 X29.467459 Y59.896819 Z-1.000000 I0.058311 J0.023334
G03 X29.564155 Y60.117318 Z-1.000000 I-0.234132 J0.234126
G03 X29.493519 Y60.529457 Z-1.000000 I-0.997855 J0.041102
G01 X29.493517 Y60.529457 Z-1.000000
G00 Z5.000000

(End cutting path id: path83)


(Start cutting path id: path83)
(Change tool to Default tool)

G00 Z5.000000
G00 X39.830330 Y58.060103

G01 Z-1.000000 F100.0(Penetrate)
G02 X37.851032 Y59.991467 Z-1.000000 I1.157330 J3.165946 F400.000000
G02 X37.991314 Y62.732384 Z-1.000000 I3.089260 J1.215937
G02 X40.645122 Y64.571785 Z-1.000000 I3.061781 J-1.583306
G02 X43.606257 Y63.401664 Z-1.000000 I0.396681 J-3.327969
G02 X43.779290 Y59.292468 Z-1.000000 I-2.574937 J-2.166668
G02 X39.830330 Y58.060103 Z-1.000000 I-2.780066 J1.965215
G01 X39.830330 Y58.060103 Z-1.000000
G00 Z5.000000

(End cutting path id: path83)


(Start cutting path id: path83)
(Change tool to Default tool)

G00 Z5.000000
G00 X39.056375 Y55.660248

G01 Z-1.000000 F100.0(Penetrate)
G02 X36.270222 Y57.804291 Z-1.000000 I1.976017 J5.450109 F400.000000
G02 X35.214758 Y61.193838 Z-1.000000 I4.855991 J3.371200
G02 X36.039783 Y64.266693 Z-1.000000 I6.207208 J-0.019379
G02 X38.149368 Y66.301576 Z-1.000000 I4.567395 J-2.624112
G02 X43.740252 Y66.333245 Z-1.000000 I2.825875 J-5.356695
G02 X46.696103 Y61.915863 Z-1.000000 I-2.498875 J-4.869731
G02 X46.473332 Y59.271450 Z-1.000000 I-7.965515 J-0.660559
G02 X45.567364 Y57.510510 Z-1.000000 I-4.311648 J1.104735
G02 X42.516601 Y55.537448 Z-1.000000 I-4.746413 J3.993851
G02 X39.056375 Y55.660248 Z-1.000000 I-1.539974 J5.419097
G01 X39.056375 Y55.660248 Z-1.000000
G00 Z5.000000

(End cutting path id: path83)


(Start cutting path id: path83)
(Change tool to Default tool)

G00 Z5.000000
G00 X43.362575 Y57.483563

G01 Z-1.000000 F100.0(Penetrate)
G03 X45.393443 Y60.728173 Z-1.000000 I-2.226410 J3.651442 F400.000000
G03 X44.015364 Y64.314622 Z-1.000000 I-4.289188 J0.409881
G03 X40.468582 Y65.445693 Z-1.000000 I-2.996450 J-3.269698
G03 X37.276633 Y63.471919 Z-1.000000 I0.559281 J-4.472322
G03 X37.829348 Y58.122056 Z-1.000000 I3.513870 J-2.340452
G03 X43.362575 Y57.483563 Z-1.000000 I3.175899 J3.227655
G01 X43.362575 Y57.483563 Z-1.000000
G00 Z5.000000

(End cutting path id: path83)


(Start cutting path id: path83)
(Change tool to Default tool)

G00 Z5.000000
G00 X42.697184 Y59.534889

G01 Z-1.000000 F100.0(Penetrate)
G03 X43.261189 Y62.206972 Z-1.000000 I-1.635344 J1.740742 F400.000000
G03 X40.904502 Y63.768284 Z-1.000000 I-2.356687 J-0.997967
G01 X40.087268 Y63.768284 Z-1.000000
G01 X40.825909 Y63.170171 Z-1.000000
G02 X41.311901 Y62.496275 Z-1.000000 I-0.996916 J-1.231133
G02 X41.329248 Y61.830695 Z-1.000000 I-0.952261 J-0.357834
G02 X40.244536 Y61.142038 Z-1.000000 I-0.952989 J0.302465
G02 X39.168045 Y62.117926 Z-1.000000 I0.168454 J1.267496
G03 X38.938434 Y62.412922 Z-1.000000 I-0.435304 J-0.101963
G03 X38.742401 Y62.338483 Z-1.000000 I-0.064721 J-0.124903
G03 X38.629246 Y60.899168 Z-1.000000 I2.368788 J-0.910333
G03 X39.320221 Y59.627388 Z-1.000000 I2.494381 J0.531632
G03 X41.018548 Y58.896517 Z-1.000000 I1.766738 J1.766732
G03 X42.697184 Y59.534888 Z-1.000000 I0.064545 J2.356496
G01 X42.697184 Y59.534889 Z-1.000000
G00 Z5.000000

(End cutting path id: path83)


(Start cutting path id: path83)
(Change tool to Default tool)

G00 Z5.000000
G00 X45.111475 Y64.553049

G01 Z-1.000000 F100.0(Penetrate)
G03 X45.068515 Y64.656763 Z-1.000000 I-0.146674 J0.000000 F400.000000
G03 X44.533850 Y65.130674 Z-1.000000 I-4.201002 J-4.201002
G03 X44.416309 Y65.123593 Z-1.000000 I-0.054776 J-0.069846
G03 X44.409228 Y65.006052 Z-1.000000 I0.062765 J-0.062765
G03 X44.982880 Y64.482973 Z-1.000000 I1.843932 J1.446113
G03 X45.111475 Y64.553049 Z-1.000000 I0.045204 J0.070076
G01 X45.111475 Y64.553049 Z-1.000000
G00 Z5.000000

(End cutting path id: path83)


(Start cutting path id: path83)
(Change tool to Default tool)

G00 Z5.000000
G00 X45.783580 Y51.588644

G01 Z-1.000000 F100.0(Penetrate)
G03 X49.975561 Y55.544402 Z-1.000000 I-5.142881 J9.649028 F400.000000
G03 X51.491462 Y60.947466 Z-1.000000 I-8.848826 J5.396841
G03 X49.888693 Y66.503542 Z-1.000000 I-10.454147 J-0.006508
G03 X45.531194 Y70.431456 Z-1.000000 I-9.109518 J-5.724810
G03 X39.085348 Y71.389675 Z-1.000000 I-4.719168 J-9.585991
G03 X33.345565 Y68.435985 Z-1.000000 I1.694243 J-10.346137
G03 X31.265633 Y65.438861 Z-1.000000 I7.390264 J-7.348939
G03 X30.336797 Y61.888457 Z-1.000000 I9.583493 J-4.403878
G03 X30.650411 Y58.197745 Z-1.000000 I11.185946 J-0.908168
G03 X32.107056 Y54.971458 Z-1.000000 I9.930136 J2.541408
G03 X38.305246 Y50.659528 Z-1.000000 I8.735431 J5.945995
G03 X45.783580 Y51.588644 Z-1.000000 I2.527381 J10.218063
G01 X45.783580 Y51.588644 Z-1.000000
G00 Z5.000000

(End cutting path id: path83)


(Start cutting path id: path83)
(Change tool to Default tool)

G00 Z5.000000
G00 X36.861465 Y49.446807

G01 Z-1.000000 F100.0(Penetrate)
G02 X29.011243 Y58.576791 Z-1.000000 I4.182397 J11.536060 F400.000000
G02 X32.751849 Y69.998716 Z-1.000000 I11.988625 J2.397278
G02 X36.526169 Y72.243023 Z-1.000000 I7.311205 J-7.999631
G02 X41.315652 Y72.955506 Z-1.000000 I4.300730 J-12.456276
G02 X44.222864 Y72.593449 Z-1.000000 I-0.626692 J-16.885215
G02 X46.180719 Y71.914985 Z-1.000000 I-1.767784 J-8.265468
G02 X49.537049 Y69.514144 Z-1.000000 I-5.554806 J-11.311975
G02 X51.937890 Y66.157814 Z-1.000000 I-8.911147 J-8.911145
G02 X52.580882 Y64.196666 Z-1.000000 I-6.654645 J-3.267806
G02 X52.868091 Y60.962676 Z-1.000000 I-18.059635 J-3.233617
G02 X52.587392 Y57.727337 Z-1.000000 I-18.789998 J0.000379
G02 X51.973716 Y55.846567 Z-1.000000 I-6.869186 J1.200843
G02 X49.516538 Y52.408165 Z-1.000000 I-11.698832 J5.763126
G02 X46.152515 Y49.999980 Z-1.000000 I-8.856517 J8.818063
G02 X41.493499 Y48.774333 Z-1.000000 I-5.387616 J11.011875
G02 X36.861465 Y49.446807 Z-1.000000 I-0.687767 J11.551704
G01 X36.861465 Y49.446807 Z-1.000000
G00 Z5.000000

(End cutting path id: path83)


(Start cutting path id: path83)
(Change tool to Default tool)

G00 Z5.000000
G00 X35.279611 Y41.813249

G01 Z-1.000000 F100.0(Penetrate)
G02 X29.450246 Y44.996164 Z-1.000000 I6.620377 J19.054487 F400.000000
G02 X24.785708 Y50.044721 Z-1.000000 I13.334061 J16.998948
G03 X23.455093 Y51.618480 Z-1.000000 I-7.433161 J-4.935348
G03 X23.023270 Y51.697076 Z-1.000000 I-0.276801 J-0.295242
G02 X21.617218 Y51.407283 Z-1.000000 I-1.457106 J3.513836
G02 X21.346323 Y51.674566 Z-1.000000 I-0.003588 J0.267283
G02 X22.594121 Y53.364165 Z-1.000000 I1.767812 J0.000000
G02 X26.406743 Y53.232029 Z-1.000000 I1.715431 J-5.573683
G02 X26.766371 Y52.571683 Z-1.000000 I-0.208821 J-0.541826
G02 X26.180257 Y52.145753 Z-1.000000 I-0.527787 J0.110043
G03 X25.810084 Y51.795943 Z-1.000000 I-0.036182 J-0.332477
G03 X26.267747 Y50.459857 Z-1.000000 I2.568172 J0.133274
G03 X35.714845 Y43.345093 Z-1.000000 I15.561942 J10.834010
G03 X47.013916 Y43.391985 Z-1.000000 I5.581640 J16.383672
G03 X50.929712 Y45.251009 Z-1.000000 I-6.729187 J19.227746
G03 X53.842839 Y47.577309 Z-1.000000 I-7.873813 J12.847185
G03 X54.578254 Y48.675059 Z-1.000000 I-2.603836 J2.539600
G03 X54.420464 Y48.915063 Z-1.000000 I-0.157790 J0.068132
G02 X53.895924 Y49.117652 Z-1.000000 I-0.000000 J0.780359
G02 X53.693333 Y49.575206 Z-1.000000 I0.415400 J0.457554
G02 X54.698807 Y50.532244 Z-1.000000 I0.958205 J0.000000
G02 X57.628865 Y49.380830 Z-1.000000 I-0.243127 J-4.922532
G02 X58.507649 Y48.462648 Z-1.000000 I-3.802383 J-4.518857
G02 X58.644407 Y48.060544 Z-1.000000 I-0.522767 J-0.402104
G02 X58.167665 Y47.557475 Z-1.000000 I-0.503796 J0.000000
G02 X57.074791 Y47.976134 Z-1.000000 I-0.077139 J1.434394
G03 X56.694806 Y48.014401 Z-1.000000 I-0.213412 J-0.213412
G03 X54.904468 Y46.539709 Z-1.000000 I6.144328 J-9.283588
G02 X53.022274 Y44.840060 Z-1.000000 I-15.350623 J15.107308
G02 X51.176432 Y43.552209 Z-1.000000 I-10.608297 J13.237861
G02 X47.171540 Y41.859656 Z-1.000000 I-7.882369 J13.066701
G02 X41.810757 Y41.091707 Z-1.000000 I-6.015554 J22.897644
G02 X37.728513 Y41.259929 Z-1.000000 I-0.821324 J29.685039
G02 X35.279608 Y41.813247 Z-1.000000 I1.231325 J11.145562
G01 X35.279611 Y41.813249 Z-1.000000
G00 Z5.000000

(End cutting path id: path83)


(Start cutting path id: path83)
(Change tool to Default tool)

G00 Z5.000000
G00 X36.606620 Y38.508404

G01 Z-1.000000 F100.0(Penetrate)
G02 X34.640505 Y39.910497 Z-1.000000 I2.788800 J5.990216 F400.000000
G02 X34.646124 Y40.540169 Z-1.000000 I0.323317 J0.311976
G02 X34.851571 Y40.596908 Z-1.000000 I0.152741 J-0.152741
G02 X36.801353 Y39.997908 Z-1.000000 I-4.826983 J-19.184968
G03 X38.815664 Y39.521811 Z-1.000000 I3.023055 J8.290989
G03 X41.862264 Y39.415596 Z-1.000000 I2.188172 J19.017613
G03 X44.923455 Y39.650552 Z-1.000000 I-2.168607 J48.313662
G03 X45.524065 Y39.813900 Z-1.000000 I-0.214971 J1.976273
G02 X45.910752 Y39.778491 Z-1.000000 I0.161992 J-0.360077
G02 X46.101690 Y39.414143 Z-1.000000 I-0.252155 J-0.364348
G02 X44.105753 Y37.218752 Z-1.000000 I-2.205356 J0.000000
G02 X36.606620 Y38.508404 Z-1.000000 I-1.377340 J14.438970
G01 X36.606620 Y38.508404 Z-1.000000
G00 Z5.000000

(End cutting path id: path83)


(Start cutting path id: path83)
(Change tool to Default tool)

G00 Z5.000000
G00 X27.438551 Y35.359323

G01 Z-1.000000 F100.0(Penetrate)
G03 X27.476507 Y35.630722 Z-1.000000 I-0.289336 J0.178818 F400.000000
G03 X27.292995 Y35.873912 Z-1.000000 I-0.404538 J-0.114432
G03 X27.084109 Y35.854220 Z-1.000000 I-0.091425 J-0.147932
G03 X26.957539 Y35.566648 Z-1.000000 I0.263402 J-0.287572
G03 X27.153095 Y35.269413 Z-1.000000 I0.323669 J0.000000
G03 X27.438551 Y35.359323 Z-1.000000 I0.090647 J0.210309
G01 X27.438551 Y35.359323 Z-1.000000
G00 Z5.000000

(End cutting path id: path83)


(Start cutting path id: path83)
(Change tool to Default tool)

G00 Z5.000000
G00 X25.307182 Y37.178044

G01 Z-1.000000 F100.0(Penetrate)
G03 X24.989093 Y37.578012 Z-1.000000 I-0.410506 J0.000000 F400.000000
G03 X24.485330 Y37.367944 Z-1.000000 I-0.105423 J-0.456256
G03 X24.505022 Y37.159059 Z-1.000000 I0.147930 J-0.091425
G03 X24.792594 Y37.032489 Z-1.000000 I0.287572 J0.263403
G03 X25.244499 Y37.095172 Z-1.000000 I-0.000000 J1.660325
G03 X25.307182 Y37.178044 Z-1.000000 I-0.023441 J0.082872
G01 X25.307182 Y37.178044 Z-1.000000
G00 Z5.000000

(End cutting path id: path83)


(Start cutting path id: path83)
(Change tool to Default tool)

G00 Z5.000000
G00 X22.396595 Y36.867453

G01 Z-1.000000 F100.0(Penetrate)
G02 X22.835810 Y37.594326 Z-1.000000 I3.338248 J-1.521012 F400.000000
G02 X23.036432 Y37.692632 Z-1.000000 I0.200622 J-0.155560
G03 X23.093279 Y37.795569 Z-1.000000 I-0.000000 J0.067165
G03 X21.735619 Y39.759850 Z-1.000000 I-23.440177 J-14.749911
G02 X20.268910 Y41.882365 Z-1.000000 I23.804239 J18.017322
G02 X19.711454 Y42.978048 Z-1.000000 I5.737518 J3.608758
G03 X19.235954 Y44.119980 Z-1.000000 I-38.998755 J-15.569118
G03 X19.159112 Y44.251335 Z-1.000000 I-0.583028 J-0.252912
G03 X19.053119 Y44.269750 Z-1.000000 I-0.062892 J-0.047746
G03 X17.765776 Y43.343639 Z-1.000000 I9.365827 J-14.376782
G02 X16.422086 Y42.437767 Z-1.000000 I-6.567534 J8.292210
G02 X15.952151 Y42.313634 Z-1.000000 I-0.469935 J0.827455
G02 X15.343793 Y42.537767 Z-1.000000 I-0.000000 J0.937692
G02 X12.428033 Y45.190595 Z-1.000000 I39.678579 J46.540056
G02 X9.688810 Y48.026858 Z-1.000000 I42.449849 J43.738352
G02 X9.463747 Y48.610894 Z-1.000000 I0.645249 J0.584036
G02 X9.882410 Y49.264836 Z-1.000000 I0.720052 J0.000000
G02 X14.339042 Y50.857816 Z-1.000000 I11.196896 J-24.294630
G01 X17.880571 Y51.779911 Z-1.000000
G01 X17.980411 Y53.485179 Z-1.000000
G01 X18.080251 Y55.190444 Z-1.000000
G01 X16.330056 Y54.509315 Z-1.000000
G03 X9.950388 Y51.834021 Z-1.000000 I48.377380 J-124.307938
G03 X6.225210 Y49.960276 Z-1.000000 I19.894612 J-44.192196
G01 X4.802062 Y49.165959 Z-1.000000
G01 X5.565067 Y48.351299 Z-1.000000
G03 X6.377844 Y47.591505 Z-1.000000 I6.118939 J5.731006
G03 X10.260848 Y44.512551 Z-1.000000 I105.260249 J128.760342
G02 X14.159012 Y41.446023 Z-1.000000 I-136.980669 J-178.140491
G02 X16.532208 Y39.466100 Z-1.000000 I-54.703375 J-67.981374
G03 X20.600135 Y36.351373 Z-1.000000 I28.155381 J32.557985
G03 X21.600958 Y36.043509 Z-1.000000 I1.006104 J1.490006
G03 X21.930502 Y36.182837 Z-1.000000 I0.001305 J0.456304
G03 X22.396600 Y36.867453 Z-1.000000 I-1.758604 J1.698259
G01 X22.396595 Y36.867453 Z-1.000000
G00 Z5.000000

(End cutting path id: path83)


(Start cutting path id: path83)
(Change tool to Default tool)

G00 Z5.000000
G00 X15.405035 Y39.467612

G01 Z-1.000000 F100.0(Penetrate)
G03 X15.362075 Y39.571326 Z-1.000000 I-0.146673 J-0.000000 F400.000000
G03 X14.827409 Y40.045237 Z-1.000000 I-4.201173 J-4.201199
G03 X14.709869 Y40.038156 Z-1.000000 I-0.054776 J-0.069844
G03 X14.702789 Y39.920615 Z-1.000000 I0.062765 J-0.062765
G03 X15.276440 Y39.397536 Z-1.000000 I1.843928 J1.446107
G03 X15.405035 Y39.467612 Z-1.000000 I0.045204 J0.070076
G01 X15.405035 Y39.467612 Z-1.000000
G00 Z5.000000

(End cutting path id: path83)


(Start cutting path id: path83)
(Change tool to Default tool)

G00 Z5.000000
G00 X17.092594 Y45.201760

G01 Z-1.000000 F100.0(Penetrate)
G03 X17.977149 Y46.292590 Z-1.000000 I-1.460488 J2.088369 F400.000000
G03 X18.180743 Y47.759814 Z-1.000000 I-2.608804 J1.109739
G03 X17.949143 Y49.400526 Z-1.000000 I-59.567339 J-7.571712
G03 X17.914165 Y49.476787 Z-1.000000 I-0.152115 J-0.023617
G03 X17.285787 Y49.695414 Z-1.000000 I-0.500785 J-0.427001
G03 X12.485663 Y48.403949 Z-1.000000 I7.121875 J-36.036926
G03 X12.394964 Y48.156513 Z-1.000000 I0.055081 J-0.160531
G03 X13.756090 Y46.272862 Z-1.000000 I11.336389 J6.758074
G03 X15.496964 Y44.352328 Z-1.000000 I43.581059 J37.754909
G03 X15.632510 Y44.294063 Z-1.000000 I0.135546 J0.128533
G03 X15.781293 Y44.336541 Z-1.000000 I-0.000000 J0.281803
G03 X17.092594 Y45.201760 Z-1.000000 I-15.339879 J24.674966
G01 X17.092594 Y45.201760 Z-1.000000
G00 Z5.000000

(End cutting path id: path83)


(Start cutting path id: path83)
(Change tool to Default tool)

G00 Z5.000000
G00 X19.760610 Y45.861903

G01 Z-1.000000 F100.0(Penetrate)
G03 X19.559433 Y46.360756 Z-1.000000 I-1.369794 J-0.262417 F400.000000
G03 X19.445174 Y46.346121 Z-1.000000 I-0.053595 J-0.034913
G03 X19.407378 Y45.262036 Z-1.000000 I1.812647 J-0.605897
G03 X19.804870 Y44.954206 Z-1.000000 I0.397492 J0.102719
G03 X19.861967 Y45.014154 Z-1.000000 I0.000000 J0.057165
G03 X19.760610 Y45.861903 Z-1.000000 I-6.071519 J-0.295978
G01 X19.760610 Y45.861903 Z-1.000000
G00 Z5.000000

(End cutting path id: path83)


(Start cutting path id: path83)
(Change tool to Default tool)

G00 Z5.000000
G00 X17.467982 Y50.453951

G01 Z-1.000000 F100.0(Penetrate)
G03 X17.055392 Y50.534050 Z-1.000000 I-0.412590 J-1.022569 F400.000000
G03 X16.642803 Y50.453951 Z-1.000000 I-0.000000 J-1.102669
G01 X16.642804 Y50.367570 Z-1.000000
G03 X17.055393 Y50.287466 Z-1.000000 I0.412589 J1.022506
G03 X17.467982 Y50.367571 Z-1.000000 I0.000000 J1.102592
G01 X17.467982 Y50.453951 Z-1.000000
G01 X17.467982 Y50.453951 Z-1.000000
G00 Z5.000000

(End cutting path id: path83)


(Start cutting path id: path83)
(Change tool to Default tool)

G00 Z5.000000
G00 X18.980336 Y51.473119

G01 Z-1.000000 F100.0(Penetrate)
G03 X18.874537 Y52.389439 Z-1.000000 I-5.126702 J-0.127665 F400.000000
G01 X18.790711 Y52.385100 Z-1.000000
G02 X18.527306 Y51.144176 Z-1.000000 I-5.877003 J0.599065
G02 X18.268572 Y50.792132 Z-1.000000 I-0.665806 J0.218234
G03 X18.150827 Y50.546997 Z-1.000000 I0.163862 J-0.229553
G03 X18.293162 Y50.347753 Z-1.000000 I0.228305 J0.012633
G02 X18.590237 Y50.102546 Z-1.000000 I-0.241489 J-0.595132
G02 X18.705752 Y49.712739 Z-1.000000 I-0.599947 J-0.389807
G03 X18.774138 Y49.313516 Z-1.000000 I1.199484 J0.000000
G03 X18.870787 Y49.245136 Z-1.000000 I0.096649 J0.034112
G03 X18.954306 Y49.324649 Z-1.000000 I0.000000 J0.083620
G03 X18.980337 Y51.473119 Z-1.000000 I-28.995181 J1.425705
G01 X18.980336 Y51.473119 Z-1.000000
G00 Z5.000000

(End cutting path id: path83)


(Start cutting path id: path83)
(Change tool to Default tool)

G00 Z5.000000
G00 X19.494522 Y56.341674

G01 Z-1.000000 F100.0(Penetrate)
G03 X19.493247 Y56.815802 Z-1.000000 I-1.047226 J0.234248 F400.000000
G03 X19.380974 Y56.836782 Z-1.000000 I-0.060698 J-0.013921
G03 X19.132688 Y56.314699 Z-1.000000 I1.591314 J-1.076857
G03 X19.040876 Y55.709036 Z-1.000000 I2.065499 J-0.622900
G03 X19.189503 Y55.660605 Z-1.000000 I0.081992 J-0.000651
G03 X19.494522 Y56.341674 Z-1.000000 I-1.518761 J1.089019
G01 X19.494522 Y56.341674 Z-1.000000
G00 Z5.000000

(End cutting path id: path83)


(Start cutting path id: path83)
(Change tool to Default tool)

G00 Z5.000000
G00 X11.004081 Y48.405437

G01 Z-1.000000 F100.0(Penetrate)
G03 X10.894172 Y48.688893 Z-1.000000 I-0.420471 J0.000000 F400.000000
G03 X10.723637 Y48.712701 Z-1.000000 I-0.099624 J-0.090928
G03 X10.582106 Y48.506585 Z-1.000000 I0.162829 J-0.263458
G03 X10.633097 Y48.232114 Z-1.000000 I0.379421 J-0.071483
G03 X10.852134 Y48.166731 Z-1.000000 I0.146260 J0.090394
G03 X11.004085 Y48.405437 Z-1.000000 I-0.111521 J0.238706
G01 X11.004081 Y48.405437 Z-1.000000
G00 Z5.000000

(End cutting path id: path83)


(Start cutting path id: path83)
(Change tool to Default tool)

G00 Z5.000000
G00 X27.947754 Y47.389329

G01 Z-1.000000 F100.0(Penetrate)
G03 X27.904794 Y47.493043 Z-1.000000 I-0.146673 J-0.000000 F400.000000
G03 X27.370129 Y47.966954 Z-1.000000 I-4.201117 J-4.201130
G03 X27.252589 Y47.959873 Z-1.000000 I-0.054776 J-0.069844
G03 X27.245509 Y47.842332 Z-1.000000 I0.062765 J-0.062764
G03 X27.819159 Y47.319253 Z-1.000000 I1.843924 J1.446101
G03 X27.947754 Y47.389329 Z-1.000000 I0.045204 J0.070076
G01 X27.947754 Y47.389329 Z-1.000000
G00 Z5.000000

(End cutting path id: path83)


(Start cutting path id: path83)
(Change tool to Default tool)

G00 Z5.000000
G00 X59.199956 Y25.541878

G01 Z-1.000000 F100.0(Penetrate)
G03 X59.097235 Y25.562955 Z-1.000000 I-0.058310 J-0.023333 F400.000000
G03 X59.000540 Y25.342458 Z-1.000000 I0.234124 J-0.234122
G03 X59.071180 Y24.930317 Z-1.000000 I0.997986 J-0.041073
G03 X59.173900 Y24.909239 Z-1.000000 I0.058310 J0.023332
G03 X59.270593 Y25.129737 Z-1.000000 I-0.234126 J0.234119
G03 X59.199940 Y25.541878 Z-1.000000 I-0.997751 J0.041083
G01 X59.199956 Y25.541878 Z-1.000000
G00 Z5.000000

(End cutting path id: path83)


(Start cutting path id: path83)
(Change tool to Default tool)

G00 Z5.000000
G00 X64.424679 Y12.480038

G01 Z-1.000000 F100.0(Penetrate)
G03 X63.830890 Y12.699497 Z-1.000000 I-0.682327 J-0.933137 F400.000000
G03 X63.044732 Y12.586041 Z-1.000000 I-0.139390 J-1.814592
G02 X62.214488 Y12.373663 Z-1.000000 I-1.351744 J3.555325
G02 X60.812901 Y12.277124 Z-1.000000 I-1.401587 J10.126096
G02 X58.150474 Y14.083622 Z-1.000000 I0.000000 J2.865199
G02 X57.495886 Y20.618771 Z-1.000000 I11.094349 J4.411614
G03 X57.703423 Y25.777741 Z-1.000000 I-18.387174 J3.323346
G03 X56.536209 Y30.340203 Z-1.000000 I-15.470047 J-1.527165
G01 X54.958771 Y34.045170 Z-1.000000
G01 X53.339169 Y33.224457 Z-1.000000
G01 X51.719568 Y32.403744 Z-1.000000
G01 X52.819148 Y30.839776 Z-1.000000
G02 X55.993889 Y25.733060 Z-1.000000 I-43.495385 J-30.580388
G02 X56.333909 Y24.400410 Z-1.000000 I-2.441538 J-1.332650
G02 X55.976358 Y21.169150 Z-1.000000 I-14.779557 J-0.000000
G02 X54.101509 Y14.436613 Z-1.000000 I-66.647730 J14.932467
G01 X53.185082 Y11.696716 Z-1.000000
G01 X58.472799 Y10.719532 Z-1.000000
G01 X63.760519 Y9.742349 Z-1.000000
G01 X64.376317 Y10.903735 Z-1.000000
G03 X64.664173 Y11.989737 Z-1.000000 I-2.191657 J1.162072
G03 X64.424677 Y12.480038 Z-1.000000 I-0.584890 J0.017944
G01 X64.424679 Y12.480038 Z-1.000000
G00 Z5.000000

(End cutting path id: path83)


(Start cutting path id: path83)
(Change tool to Default tool)

G00 Z5.000000
G00 X67.378222 Y12.822613

G01 Z-1.000000 F100.0(Penetrate)
G03 X66.805522 Y12.916210 Z-1.000000 I-0.378622 J-0.517796 F400.000000
G03 X66.724119 Y12.614978 Z-1.000000 I0.056116 J-0.176779
G03 X67.341609 Y12.153873 Z-1.000000 I1.483338 J1.342407
G03 X67.650458 Y12.170253 Z-1.000000 I0.139453 J0.290473
G03 X67.720511 Y12.388237 Z-1.000000 I-0.092737 J0.150051
G03 X67.378222 Y12.822613 Z-1.000000 I-0.949705 J-0.396319
G01 X67.378222 Y12.822613 Z-1.000000
G00 Z5.000000

(End cutting path id: path83)


(Start cutting path id: path83)
(Change tool to Default tool)

G00 Z5.000000
G00 X67.201287 Y9.884105

G01 Z-1.000000 F100.0(Penetrate)
G02 X66.410203 Y10.798796 Z-1.000000 I47.863735 J42.195057 F400.000000
G02 X66.291587 Y10.956319 Z-1.000000 I1.293429 J1.097389
G03 X65.715015 Y10.975796 Z-1.000000 I-0.295254 J-0.196528
G03 X65.245841 Y9.594378 Z-1.000000 I1.799111 J-1.381418
G03 X65.352936 Y9.442932 Z-1.000000 I0.160629 J-0.000000
G03 X66.318573 Y9.215182 Z-1.000000 I1.531561 J4.332678
G02 X67.390458 Y9.076346 Z-1.000000 I-12.467286 J-100.460747
G02 X67.696394 Y9.029233 Z-1.000000 I-1.110086 J-8.225463
G03 X67.755454 Y9.113983 Z-1.000000 I0.009725 J0.056176
G03 X67.201287 Y9.884105 Z-1.000000 I-4.162240 J-2.410633
G01 X67.201287 Y9.884105 Z-1.000000
G00 Z5.000000

(End cutting path id: path83)


(Start cutting path id: path83)
(Change tool to Default tool)

G00 Z5.000000
G00 X69.953592 Y10.362289

G01 Z-1.000000 F100.0(Penetrate)
G03 X68.897786 Y11.218666 Z-1.000000 I-4.633445 J-4.633437 F400.000000
G03 X68.675136 Y11.195443 Z-1.000000 I-0.097010 J-0.148859
G03 X68.652028 Y10.606749 Z-1.000000 I0.306845 J-0.306845
G03 X70.020418 Y9.620552 Z-1.000000 I2.704590 J2.310285
G03 X70.228488 Y9.774752 Z-1.000000 I0.056985 J0.140587
G03 X69.953588 Y10.362289 Z-1.000000 I-0.947834 J-0.085398
G01 X69.953592 Y10.362289 Z-1.000000
G00 Z5.000000

(End cutting path id: path83)


(Start cutting path id: path83)
(Change tool to Default tool)

G00 Z5.000000
G00 X71.847272 Y11.081459

G01 Z-1.000000 F100.0(Penetrate)
G03 X71.804312 Y11.185173 Z-1.000000 I-0.146674 J-0.000000 F400.000000
G03 X71.269647 Y11.659084 Z-1.000000 I-4.201002 J-4.201002
G03 X71.152106 Y11.652004 Z-1.000000 I-0.054777 J-0.069846
G03 X71.145025 Y11.534463 Z-1.000000 I0.062764 J-0.062765
G03 X71.718677 Y11.011383 Z-1.000000 I1.843934 J1.446112
G03 X71.847272 Y11.081459 Z-1.000000 I0.045204 J0.070076
G01 X71.847272 Y11.081459 Z-1.000000
G00 Z5.000000

(End cutting path id: path83)


(Start cutting path id: path83)
(Change tool to Default tool)

G00 Z5.000000
G00 X72.177344 Y9.101030

G01 Z-1.000000 F100.0(Penetrate)
G03 X72.134384 Y9.204744 Z-1.000000 I-0.146674 J0.000000 F400.000000
G03 X71.599718 Y9.678655 Z-1.000000 I-4.201058 J-4.201072
G03 X71.482177 Y9.671574 Z-1.000000 I-0.054776 J-0.069845
G03 X71.475097 Y9.554033 Z-1.000000 I0.062765 J-0.062765
G03 X72.048749 Y9.030954 Z-1.000000 I1.843924 J1.446104
G03 X72.177344 Y9.101030 Z-1.000000 I0.045204 J0.070076
G01 X72.177344 Y9.101030 Z-1.000000
G00 Z5.000000

(End cutting path id: path83)


(Start cutting path id: path83)
(Change tool to Default tool)

G00 Z5.000000
G00 X71.757879 Y8.515684

G01 Z-1.000000 F100.0(Penetrate)
G03 X71.537381 Y8.612377 Z-1.000000 I-0.234119 J-0.234126 F400.000000
G03 X71.125241 Y8.541724 Z-1.000000 I-0.041083 J-0.997745
G03 X71.104164 Y8.439003 Z-1.000000 I0.023333 J-0.058310
G03 X71.324660 Y8.342308 Z-1.000000 I0.234121 J0.234122
G03 X71.736801 Y8.412948 Z-1.000000 I0.041073 J0.997986
G03 X71.757879 Y8.515668 Z-1.000000 I-0.023332 J0.058310
G01 X71.757879 Y8.515684 Z-1.000000
G00 Z5.000000

(End cutting path id: path83)


(Start cutting path id: path83)
(Change tool to Default tool)

G00 Z5.000000
G00 X73.738308 Y9.175830

G01 Z-1.000000 F100.0(Penetrate)
G03 X73.517811 Y9.272523 Z-1.000000 I-0.234119 J-0.234125 F400.000000
G03 X73.105670 Y9.201870 Z-1.000000 I-0.041083 J-0.997749
G03 X73.084593 Y9.099149 Z-1.000000 I0.023333 J-0.058310
G03 X73.305089 Y9.002454 Z-1.000000 I0.234121 J0.234122
G03 X73.717230 Y9.073094 Z-1.000000 I0.041073 J0.997987
G03 X73.738308 Y9.175814 Z-1.000000 I-0.023332 J0.058310
G01 X73.738308 Y9.175830 Z-1.000000
G00 Z5.000000

(End cutting path id: path83)


(Footer)
M5
G00 X0.0000 Y0.0000
M2
(Using default footer. To add your own footer create file "footer" in the output dir.)
(end)
%