%
(Header)
(Generated by gcodetools from Inkscape.)
(Using default header. To add your own header create file "header" in the output dir.)
M3
(Header end.)
G21 (All units in mm)

(Start cutting path id: path5-5)
(Change tool to Default tool)

G00 Z5.000000
G00 X84.297739 Y45.840681

G01 Z-1.000000 F100.0(Penetrate)
G02 X90.006827 Y53.909710 Z-1.000000 I75.912832 J-47.656480 F400.000000
G02 X96.671655 Y61.429506 Z-1.000000 I72.549323 J-57.587354
G01 X141.342830 Y66.423984 Z-1.000000
G02 X135.518173 Y58.488388 Z-1.000000 I-22.317957 J10.275761
G03 X129.102928 Y51.096578 Z-1.000000 I27.423888 J-30.280550
G01 X84.297739 Y45.840681 Z-1.000000
G00 Z5.000000

(End cutting path id: path5-5)


(Start cutting path id: path3-4)
(Change tool to Default tool)

G00 Z5.000000
G00 X74.038259 Y45.964511

G01 Z-1.000000 F100.0(Penetrate)
G02 X65.211931 Y80.723044 Z-1.000000 I26002.743110 J6621.444735 F400.000000
G03 X56.899418 Y113.245495 Z-1.000000 I-7304.634029 J-1849.690084
G02 X57.446523 Y117.758707 Z-1.000000 I6.049964 J1.556373
G02 X59.788154 Y121.363241 Z-1.000000 I22.820198 J-12.261927
G02 X63.807748 Y126.521015 Z-1.000000 I912.331666 J-706.859800
G03 X69.288224 Y133.539861 Z-1.000000 I-1841.323703 J1443.396917
G01 X87.945885 Y61.759719 Z-1.000000
G01 X74.038259 Y45.964511 Z-1.000000
G00 Z5.000000

(End cutting path id: path3-4)


(Start cutting path id: path1-8)
(Change tool to Default tool)

G00 Z5.000000
G00 X126.377987 Y102.816254

G01 Z-1.000000 F100.0(Penetrate)
G03 X121.404918 Y115.492757 Z-1.000000 I-11.002960 J2.997206 F400.000000
G03 X108.509516 Y118.377562 Z-1.000000 I-10.563866 J-16.957318
G03 X98.362948 Y113.305958 Z-1.000000 I1.959391 J-16.605812
G03 X95.495314 Y105.003918 Z-1.000000 I7.649985 J-7.288685
G03 X99.468034 Y98.351189 Z-1.000000 I9.010502 J0.868146
G03 X109.730529 Y94.973686 Z-1.000000 I11.180169 J16.690810
G03 X119.187800 Y96.860916 Z-1.000000 I1.030446 J19.475951
G03 X126.377987 Y102.830013 Z-1.000000 I-8.287533 J17.297987
G01 X126.377987 Y102.816254 Z-1.000000
G00 Z5.000000

(End cutting path id: path1-8)


(Start cutting path id: path1-8)
(Change tool to Default tool)

G00 Z5.000000
G00 X123.638155 Y142.207964

G01 Z-1.000000 F100.0(Penetrate)
G01 X143.204129 Y72.794351 Z-1.000000 F400.000000
G01 X93.693577 Y67.497178 Z-1.000000
G01 X75.408175 Y135.259723 Z-1.000000
G01 X123.638155 Y142.207964 Z-1.000000
G00 Z5.000000

(End cutting path id: path1-8)


(Start cutting path id: path1)
(Change tool to Default tool)

G00 Z5.000000
G00 X-172.493409 Y110.768834

G01 Z-1.000000 F100.0(Penetrate)
G01 X-169.016791 Y97.420629 Z-1.000000 F400.000000
G01 X-177.814170 Y96.401985 Z-1.000000
G01 X-181.063248 Y109.432690 Z-1.000000
G01 X-172.493409 Y110.768834 Z-1.000000
G00 Z5.000000

(End cutting path id: path1)


(Start cutting path id: path12)
(Change tool to Default tool)

G00 Z5.000000
G00 X-172.821492 Y104.577595

G01 Z-1.000000 F100.0(Penetrate)
G02 X-172.860946 Y103.349783 Z-1.000000 I-1.192524 J-0.576220 F400.000000
G02 X-172.937908 Y103.217639 Z-1.000000 I-5.108454 J2.886751
G02 X-174.101588 Y102.392392 Z-1.000000 I-1.517342 J0.906527
G02 X-175.538758 Y102.521786 Z-1.000000 I-0.502760 J2.461854
G02 X-175.884472 Y102.671460 Z-1.000000 I3.423427 J8.381494
G02 X-176.567985 Y103.532493 Z-1.000000 I0.504838 J1.102568
G02 X-176.260239 Y104.608385 Z-1.000000 I1.189396 J0.241747
G02 X-176.015007 Y104.855407 Z-1.000000 I5.258890 J-4.975540
G02 X-174.979465 Y105.378096 Z-1.000000 I1.484530 J-1.653983
G02 X-173.821615 Y105.307844 Z-1.000000 I0.448988 J-2.176671
G02 X-173.245483 Y105.046903 Z-1.000000 I-0.338164 J-1.513128
G02 X-172.821492 Y104.577595 Z-1.000000 I-0.914296 J-1.252188
G01 X-172.821492 Y104.577595 Z-1.000000
G00 Z5.000000

(End cutting path id: path12)


(Start cutting path id: path1)
(Change tool to Default tool)

G00 Z5.000000
G00 X-172.006577 Y103.193827

G01 Z-1.000000 F100.0(Penetrate)
G03 X-172.942592 Y105.650562 Z-1.000000 I-2.223294 J0.559605 F400.000000
G03 X-175.181571 Y106.186259 Z-1.000000 I-1.828222 J-2.694347
G03 X-176.961135 Y105.241612 Z-1.000000 I0.361271 J-2.829106
G03 X-177.494025 Y103.614513 Z-1.000000 I1.629735 J-1.434567
G03 X-176.757864 Y102.316941 Z-1.000000 I1.793002 J0.159625
G03 X-174.964613 Y101.685704 Z-1.000000 I1.958101 J2.699877
G03 X-173.305940 Y102.040173 Z-1.000000 I0.183257 J3.200449
G03 X-172.006577 Y103.196473 Z-1.000000 I-1.624691 J3.133920
G01 X-172.006577 Y103.193827 Z-1.000000
G00 Z5.000000

(End cutting path id: path1)


(Start cutting path id: path5)
(Change tool to Default tool)

G00 Z5.000000
G00 X-179.483688 Y92.237451

G01 Z-1.000000 F100.0(Penetrate)
G02 X-178.464752 Y93.795286 Z-1.000000 I15.029563 J-8.718273 F400.000000
G02 X-177.285005 Y95.235174 Z-1.000000 I14.010626 J-10.276108
G01 X-169.347519 Y96.195610 Z-1.000000
G02 X-170.386720 Y94.666623 Z-1.000000 I-4.396256 J1.870337
G03 X-171.522390 Y93.248157 Z-1.000000 I5.490989 J-5.560128
G01 X-179.483688 Y92.237451 Z-1.000000
G00 Z5.000000

(End cutting path id: path5)


(Start cutting path id: path3)
(Change tool to Default tool)

G00 Z5.000000
G00 X-181.306664 Y92.261263

G01 Z-1.000000 F100.0(Penetrate)
G02 X-182.875029 Y98.945492 Z-1.000000 I5363.298908 J1261.953081 F400.000000
G03 X-184.352013 Y105.199365 Z-1.000000 I-1506.355804 J-352.456269
G02 X-184.252424 Y106.071815 Z-1.000000 I1.255947 J0.298545
G02 X-183.838722 Y106.760404 Z-1.000000 I4.484251 J-2.225555
G02 X-183.124464 Y107.752281 Z-1.000000 I179.373846 J-128.415370
G03 X-182.150683 Y109.101962 Z-1.000000 I-362.101151 J262.278191
G01 X-178.835460 Y95.298674 Z-1.000000
G01 X-181.306664 Y92.261263 Z-1.000000
G00 Z5.000000

(End cutting path id: path3)


(Start cutting path id: path7)
(Change tool to Default tool)

G00 Z5.000000
G00 X-185.071678 Y90.983328

G01 Z-1.000000 F100.0(Penetrate)
G02 X-185.337068 Y90.163221 Z-1.000000 I-1.830899 J0.139492 F400.000000
G02 X-185.947447 Y89.554581 Z-1.000000 I-1.565509 J0.959599
G02 X-187.986547 Y90.661524 Z-1.000000 I0.857111 J4.010467
G02 X-189.098629 Y92.697825 Z-1.000000 I2.896210 J2.903524
G02 X-188.759065 Y93.932142 Z-1.000000 I1.466774 J0.260352
G02 X-187.685757 Y94.814488 Z-1.000000 I3.104550 J-2.682483
G03 X-187.011728 Y92.555314 Z-1.000000 I4.865454 J0.221482
G03 X-185.071678 Y90.983328 Z-1.000000 I3.087564 J1.827346
G01 X-185.071678 Y90.983328 Z-1.000000
G00 Z5.000000

(End cutting path id: path7)


(Start cutting path id: path9)
(Change tool to Default tool)

G00 Z5.000000
G00 X-186.212030 Y92.213638

G01 Z-1.000000 F100.0(Penetrate)
G02 X-186.191954 Y92.666708 Z-1.000000 I5.122365 J0.000000 F400.000000
G02 X-185.973906 Y93.070887 Z-1.000000 I0.578907 J-0.051405
G03 X-184.616983 Y94.526753 Z-1.000000 I-3.979221 J5.069071
G02 X-183.113765 Y95.880757 Z-1.000000 I3.489952 J-2.363113
G03 X-182.864255 Y95.017482 Z-1.000000 I3.270385 J0.477534
G02 X-182.806849 Y94.129218 Z-1.000000 I-1.176063 J-0.521993
G01 X-185.161636 Y91.695056 Z-1.000000
G02 X-185.774440 Y91.776899 Z-1.000000 I-0.185285 J0.947786
G02 X-186.212030 Y92.213638 Z-1.000000 I0.427518 J0.865943
G01 X-186.212030 Y92.213638 Z-1.000000
G00 Z5.000000

(End cutting path id: path9)


(Start cutting path id: path6)
(Change tool to Default tool)

G00 Z5.000000
G00 X-186.212030 Y92.213638

G01 Z-1.000000 F100.0(Penetrate)
G02 X-186.942524 Y93.282454 Z-1.000000 I3.210192 J2.978080 F400.000000
G02 X-187.328570 Y94.518155 Z-1.000000 I3.940686 J1.909264
G01 X-183.785806 Y98.505419 Z-1.000000
G01 X-183.116411 Y95.880757 Z-1.000000
G03 X-184.619628 Y94.526753 Z-1.000000 I1.986735 J-3.717116
G02 X-185.976552 Y93.070887 Z-1.000000 I-5.336144 J3.613204
G03 X-186.194445 Y92.667538 Z-1.000000 I0.367051 J-0.458814
G03 X-186.212030 Y92.213638 Z-1.000000 I4.053078 J-0.384315
G01 X-186.212030 Y92.213638 Z-1.000000
G00 Z5.000000

(End cutting path id: path6)


(Start cutting path id: path11)
(Change tool to Default tool)

G00 Z5.000000
G00 X-189.566941 Y92.110451

G01 Z-1.000000 F100.0(Penetrate)
G03 X-188.628527 Y90.556393 Z-1.000000 I4.879013 J1.885821 F400.000000
G03 X-187.273008 Y89.287352 Z-1.000000 I6.958933 J6.074683
G02 X-187.708315 Y89.265763 Z-1.000000 I-0.317593 J2.004345
G02 X-188.138193 Y89.337623 Z-1.000000 I0.117715 J2.025934
G02 X-189.196589 Y90.047174 Z-1.000000 I0.656452 J2.123337
G02 X-189.691295 Y91.221453 Z-1.000000 I1.714847 J1.413785
G02 X-189.678558 Y91.672867 Z-1.000000 I2.035622 J0.168452
G02 X-189.566941 Y92.110451 Z-1.000000 I2.022885 J-0.282963
G01 X-189.566941 Y92.110451 Z-1.000000
G00 Z5.000000

(End cutting path id: path11)


(Start cutting path id: path10)
(Change tool to Default tool)

G00 Z5.000000
G00 X-192.101645 Y89.710684

G01 Z-1.000000 F100.0(Penetrate)
G03 X-191.187523 Y88.073247 Z-1.000000 I4.789005 J1.599647 F400.000000
G03 X-189.823586 Y86.757940 Z-1.000000 I6.771010 J5.656513
G02 X-191.475591 Y86.722760 Z-1.000000 I-0.876275 J2.343189
G02 X-192.559373 Y87.551688 Z-1.000000 I0.638580 J1.957871
G02 X-192.777442 Y88.609178 Z-1.000000 I1.299165 J0.819135
G02 X-192.101645 Y89.710684 Z-1.000000 I1.660876 J-0.260920
G01 X-192.101645 Y89.710684 Z-1.000000
G00 Z5.000000

(End cutting path id: path10)


(Start cutting path id: path8)
(Change tool to Default tool)

G00 Z5.000000
G00 X-187.585215 Y88.488312

G01 Z-1.000000 F100.0(Penetrate)
G02 X-187.681699 Y87.997402 Z-1.000000 I-1.612763 J0.062036 F400.000000
G02 X-187.923881 Y87.559626 Z-1.000000 I-1.516280 J0.552945
G02 X-188.417592 Y87.150189 Z-1.000000 I-1.284143 J1.046073
G02 X-189.029838 Y86.959023 Z-1.000000 I-0.790432 J1.455510
G02 X-189.933701 Y87.506485 Z-1.000000 I2.211066 J4.670354
G02 X-190.707293 Y88.226375 Z-1.000000 I3.114929 J4.122892
G02 X-191.369856 Y89.176367 Z-1.000000 I2.586052 J2.509661
G02 X-191.696833 Y90.287475 Z-1.000000 I3.248615 J1.559669
G02 X-191.291878 Y91.445671 Z-1.000000 I1.511126 J0.121538
G02 X-190.321002 Y92.168659 Z-1.000000 I2.497795 J-2.340831
G03 X-189.252764 Y89.562723 Z-1.000000 I5.705719 J0.817000
G03 X-187.585215 Y88.488312 Z-1.000000 I2.249845 J1.660616
G01 X-187.585215 Y88.488312 Z-1.000000
G00 Z5.000000

(End cutting path id: path8)


(Start cutting path id: path4)
(Change tool to Default tool)

G00 Z5.000000
G00 X-182.970890 Y86.591253

G01 Z-1.000000 F100.0(Penetrate)
G02 X-179.430152 Y90.411339 Z-1.000000 I6.229501 J-2.223011 F400.000000
G02 X-174.972551 Y91.618327 Z-1.000000 I6.111425 J-13.735661
G03 X-173.454576 Y91.870053 Z-1.000000 I-1.768867 J15.369492
G02 X-171.797556 Y91.864389 Z-1.000000 I0.815695 J-3.751772
G02 X-174.260435 Y87.767269 Z-1.000000 I-8.300697 J2.200942
G02 X-178.475628 Y85.628171 Z-1.000000 I-5.856920 J6.318669
G03 X-180.750632 Y85.142087 Z-1.000000 I4.330183 J-25.833304
G03 X-182.973536 Y84.456069 Z-1.000000 I6.605187 J-25.347220
G02 X-180.666697 Y86.566192 Z-1.000000 I5.103719 J-3.263505
G03 X-178.301003 Y88.424812 Z-1.000000 I-3.754780 J7.214035
G03 X-180.745565 Y87.559357 Z-1.000000 I0.342033 J-4.851288
G02 X-182.970890 Y86.591253 Z-1.000000 I-3.503087 J5.010675
G01 X-182.970890 Y86.591253 Z-1.000000
G00 Z5.000000

(End cutting path id: path4)


(Start cutting path id: path2)
(Change tool to Default tool)

G00 Z5.000000
G00 X-190.381856 Y96.013048

G01 Z-1.000000 F100.0(Penetrate)
G02 X-189.079428 Y97.974625 Z-1.000000 I4.574547 J-1.624188 F400.000000
G03 X-188.072048 Y100.185520 Z-1.000000 I-2.085174 J2.285046
G02 X-190.711360 Y98.042662 Z-1.000000 I-48.756203 J57.355181
G02 X-193.387517 Y96.481360 Z-1.000000 I-7.252217 J9.356500
G02 X-193.437013 Y96.588333 Z-1.000000 I0.452515 J0.274310
G02 X-193.461601 Y96.703609 Z-1.000000 I0.502011 J0.167337
G03 X-190.955395 Y100.637656 Z-1.000000 I-17.476737 J13.898970
G03 X-189.056296 Y104.905678 Z-1.000000 I-47.597268 J23.735400
G02 X-186.880962 Y108.004791 Z-1.000000 I7.514116 J-2.961306
G02 X-183.500056 Y109.945981 Z-1.000000 I6.454767 J-7.327251
G02 X-183.586631 Y108.680871 Z-1.000000 I-1.364562 J-0.542137
G02 X-184.201201 Y107.911339 Z-1.000000 I-2.705582 J1.530581
G03 X-185.622905 Y105.391053 Z-1.000000 I3.085747 J-3.401822
G03 X-185.362719 Y102.527078 Z-1.000000 I5.040855 J-0.985855
G02 X-185.279947 Y100.356962 Z-1.000000 I-3.065957 J-1.203578
G02 X-186.558634 Y98.592731 Z-1.000000 I-3.220266 J0.988497
G02 X-188.296685 Y97.399664 Z-1.000000 I-29.233791 J40.725062
G03 X-190.381856 Y96.013048 Z-1.000000 I108.981012 J-166.145014
G01 X-190.381856 Y96.013048 Z-1.000000
G00 Z5.000000

(End cutting path id: path2)


(Footer)
M5
G00 X0.0000 Y0.0000
M2
(Using default footer. To add your own footer create file "footer" in the output dir.)
(end)
%