%
(Header)
(Generated by gcodetools from Inkscape.)
(Using default header. To add your own header create file "header" in the output dir.)
M3
(Header end.)
G21 (All units in mm)

(Start cutting path id: path5)
(Change tool to Default tool)

G00 Z5.000000
G00 X85.746670 Y60.208447

G01 Z-0.125000 F100.0(Penetrate)
G02 X89.637622 Y65.731757 Z-0.125000 I52.027715 J-32.519294 F400.000000
G02 X94.177834 Y70.876722 Z-0.125000 I49.652929 J-39.240833
G01 X124.615251 Y74.294713 Z-0.125000
G02 X120.645600 Y68.863355 Z-0.125000 I-15.291512 J7.009863
G03 X116.275399 Y63.805341 Z-0.125000 I18.807457 J-20.666897
G01 X85.746670 Y60.208447 Z-0.125000
G00 Z5.000000

(End cutting path id: path5)


(Start cutting path id: path3)
(Change tool to Default tool)

G00 Z5.000000
G00 X78.756210 Y60.293191

G01 Z-0.125000 F100.0(Penetrate)
G02 X72.742241 Y84.080370 Z-0.125000 I17863.626901 J4529.007352 F400.000000
G03 X67.078388 Y106.337202 Z-0.125000 I-5018.154127 J-1265.156163
G02 X67.451695 Y109.426775 Z-0.125000 I4.157863 J1.064953
G02 X69.046674 Y111.892615 Z-0.125000 I15.633281 J-8.363318
G02 X71.785495 Y115.422366 Z-0.125000 I625.030104 J-482.148709
G03 X75.519698 Y120.225734 Z-0.125000 I-1261.489427 J984.552139
G01 X88.232392 Y71.102705 Z-0.125000
G01 X78.756210 Y60.293191 Z-0.125000
G00 Z5.000000

(End cutting path id: path3)


(Start cutting path id: path1)
(Change tool to Default tool)

G00 Z5.000000
G00 X114.418716 Y99.199910

G01 Z-0.125000 F100.0(Penetrate)
G03 X111.019081 Y107.878758 Z-0.125000 I-7.550271 J2.047713 F400.000000
G03 X102.243750 Y109.849353 Z-0.125000 I-7.187548 J-11.482961
G03 X95.335225 Y106.384575 Z-0.125000 I1.337659 J-11.287144
G03 X93.376316 Y100.697046 Z-0.125000 I5.265148 J-4.994542
G03 X96.089593 Y96.140691 Z-0.125000 I6.177464 J0.592589
G03 X103.075706 Y93.832816 Z-0.125000 I7.611720 J11.313571
G03 X109.515079 Y95.122746 Z-0.125000 I0.702131 J13.212691
G03 X114.418716 Y99.209326 Z-0.125000 I-5.676757 J11.797067
G01 X114.418716 Y99.199910 Z-0.125000
G00 Z5.000000

(End cutting path id: path1)


(Start cutting path id: path1)
(Change tool to Default tool)

G00 Z5.000000
G00 X112.551888 Y126.157784

G01 Z-0.125000 F100.0(Penetrate)
G01 X125.883477 Y78.654300 Z-0.125000 F400.000000
G01 X92.148673 Y75.029158 Z-0.125000
G01 X79.689624 Y121.402728 Z-0.125000
G01 X112.551888 Y126.157784 Z-0.125000
G00 Z5.000000

(End cutting path id: path1)


(Footer)
M5
G00 X0.0000 Y0.0000
M2
(Using default footer. To add your own footer create file "footer" in the output dir.)
(end)
%