%
(Header)
(Generated by gcodetools from Inkscape.)
(Using default header. To add your own header create file "header" in the output dir.)
M3
(Header end.)
G21 (All units in mm)

(Start cutting path id: path8)
(Change tool to Default tool)

G00 Z5.000000
G00 X55.816450 Y46.336768

G01 Z-1.000000 F100.0(Penetrate)
G02 X55.450572 Y44.602442 Z-1.000000 I-5.343212 J0.221461 F400.000000
G02 X54.517786 Y43.031767 Z-1.000000 I-5.286820 J2.077398
G02 X52.648737 Y41.585301 Z-1.000000 I-4.659221 J4.089630
G02 X50.276837 Y40.894344 Z-1.000000 I-3.048788 J6.049228
G02 X46.787954 Y42.858473 Z-1.000000 I8.166489 J18.586851
G02 X43.844392 Y45.404588 Z-1.000000 I11.013456 J15.707230
G02 X41.287522 Y48.820404 Z-1.000000 I8.968259 J9.377956
G02 X40.049858 Y52.739621 Z-1.000000 I10.693720 J5.532038
G02 X41.547751 Y56.813743 Z-1.000000 I5.089809 J0.441099
G02 X45.325681 Y59.434368 Z-1.000000 I9.376453 J-9.483758
G03 X49.328037 Y50.288024 Z-1.000000 I19.233419 J2.967500
G03 X55.816450 Y46.336768 Z-1.000000 I8.624458 J6.859359
G01 X55.816450 Y46.336768 Z-1.000000
G00 Z5.000000

(End cutting path id: path8)


(Start cutting path id: path7)
(Change tool to Default tool)

G00 Z5.000000
G00 X65.454971 Y55.216018

G01 Z-1.000000 F100.0(Penetrate)
G02 X64.459432 Y52.335941 Z-1.000000 I-6.116386 J0.502115 F400.000000
G02 X62.096707 Y50.131400 Z-1.000000 I-5.758630 J3.803432
G02 X54.165257 Y54.173540 Z-1.000000 I3.183122 J16.048472
G02 X50.013046 Y61.317559 Z-1.000000 I9.576150 J10.344476
G02 X51.264093 Y65.659151 Z-1.000000 I4.904008 J0.937933
G02 X55.430909 Y68.850327 Z-1.000000 I11.540697 J-10.753084
G03 X57.950079 Y60.955017 Z-1.000000 I16.108145 J0.790101
G03 X65.454971 Y55.216018 Z-1.000000 I11.632015 J7.434616
G01 X65.454971 Y55.216018 Z-1.000000
G00 Z5.000000

(End cutting path id: path7)


(Start cutting path id: path4)
(Change tool to Default tool)

G00 Z5.000000
G00 X73.510746 Y39.585526

G01 Z-1.000000 F100.0(Penetrate)
G02 X86.755728 Y53.113573 Z-1.000000 I22.281811 J-8.567635 F400.000000
G02 X104.181535 Y57.475848 Z-1.000000 I23.868400 J-58.359924
G03 X110.006100 Y58.372198 Z-1.000000 I-6.763435 J63.321880
G02 X116.356509 Y58.351532 Z-1.000000 I3.124809 J-15.496337
G02 X107.149114 Y43.965901 Z-1.000000 I-28.615046 J8.175434
G02 X90.748480 Y36.158117 Z-1.000000 I-22.524066 J26.183844
G03 X82.011575 Y34.425176 Z-1.000000 I16.508152 J-106.119309
G03 X73.500600 Y31.986847 Z-1.000000 I24.941347 J-103.130549
G02 X82.311556 Y39.486886 Z-1.000000 I18.373322 J-12.659234
G03 X91.418104 Y46.110785 Z-1.000000 I-13.051496 J27.515019
G03 X82.039090 Y43.023671 Z-1.000000 I1.289577 J-19.708708
G02 X73.510746 Y39.585526 Z-1.000000 I-13.329209 J20.766820
G01 X73.510746 Y39.585526 Z-1.000000
G00 Z5.000000

(End cutting path id: path4)


(Start cutting path id: path2)
(Change tool to Default tool)

G00 Z5.000000
G00 X45.092327 Y73.115756

G01 Z-1.000000 F100.0(Penetrate)
G02 X50.118981 Y80.106845 Z-1.000000 I15.761087 J-6.029711 F400.000000
G03 X53.949621 Y87.964724 Z-1.000000 I-6.702435 J8.130011
G02 X43.875550 Y80.375794 Z-1.000000 I-174.917584 J221.716739
G02 X33.566685 Y74.782381 Z-1.000000 I-27.205523 J37.844258
G02 X33.376227 Y75.165146 Z-1.000000 I1.534563 J1.002342
G02 X33.282602 Y75.573321 Z-1.000000 I1.655083 J0.594458
G03 X42.929612 Y89.648453 Z-1.000000 I-60.300269 J51.673008
G03 X50.175379 Y104.762795 Z-1.000000 I-159.908292 J85.953484
G02 X58.351886 Y115.664111 Z-1.000000 I26.173978 J-11.114690
G02 X71.481583 Y122.700197 Z-1.000000 I24.532010 J-30.009600
G02 X71.163482 Y118.227188 Z-1.000000 I-4.502759 J-1.927598
G02 X68.792943 Y115.459324 Z-1.000000 I-9.666654 J5.879956
G03 X63.365153 Y106.396615 Z-1.000000 I10.453454 J-12.417475
G03 X64.338932 Y96.297848 Z-1.000000 I16.564480 J-3.499093
G02 X64.647516 Y88.664636 Z-1.000000 I-9.992694 J-4.226813
G02 X59.753025 Y82.296316 Z-1.000000 I-11.566876 J3.824903
G02 X53.091925 Y78.052632 Z-1.000000 I-107.157098 J160.849527
G03 X45.092327 Y73.115756 Z-1.000000 I399.404664 J-656.135568
G01 X45.092327 Y73.115756 Z-1.000000
G00 Z5.000000

(End cutting path id: path2)


(Footer)
M5
G00 X0.0000 Y0.0000
M2
(Using default footer. To add your own footer create file "footer" in the output dir.)
(end)
%