%
(Header)
(Generated by gcodetools from Inkscape.)
(Using default header. To add your own header create file "header" in the output dir.)
M3
(Header end.)
G21 (All units in mm)

(Start cutting path id: path12)
(Change tool to Default tool)

G00 Z5.000000
G00 X112.430080 Y103.595216

G01 Z-1.000000 F100.0(Penetrate)
G02 X112.280118 Y99.226913 Z-1.000000 I-3.940214 J-2.051460 F400.000000
G02 X111.983664 Y98.755413 Z-1.000000 I-18.816356 J11.501753
G02 X107.594444 Y95.802350 Z-1.000000 I-5.623764 J3.620317
G02 X102.010331 Y96.279016 Z-1.000000 I-1.933576 J10.295400
G02 X100.642632 Y96.815893 Z-1.000000 I22.206252 J58.581143
G02 X98.063610 Y99.875912 Z-1.000000 I1.615914 J3.978738
G02 X99.222677 Y103.694043 Z-1.000000 I3.989841 J0.873801
G02 X100.184085 Y104.583892 Z-1.000000 I23.925599 J-24.885358
G02 X104.125129 Y106.448117 Z-1.000000 I5.580394 J-6.699296
G02 X108.594963 Y106.194021 Z-1.000000 I1.728774 J-9.030648
G02 X110.830387 Y105.248811 Z-1.000000 I-1.268534 J-6.116083
G02 X112.430080 Y103.595216 Z-1.000000 I-3.148747 J-4.646680
G01 X112.430080 Y103.595216 Z-1.000000
G00 Z5.000000

(End cutting path id: path12)


(Start cutting path id: path9)
(Change tool to Default tool)

G00 Z5.000000
G00 X61.082126 Y59.594439

G01 Z-1.000000 F100.0(Penetrate)
G02 X61.161825 Y61.184618 Z-1.000000 I15.903868 J-0.000000 F400.000000
G02 X61.995249 Y62.645210 Z-1.000000 I2.059222 J-0.206932
G03 X67.188368 Y67.804876 Z-1.000000 I-14.183581 J19.468769
G02 X72.962872 Y72.644958 Z-1.000000 I12.901099 J-9.527069
G03 X73.919781 Y69.576220 Z-1.000000 I10.897613 J1.714585
G02 X74.139786 Y66.411593 Z-1.000000 I-3.862261 J-1.858465
G01 X65.110014 Y57.748911 Z-1.000000
G02 X62.725601 Y58.048724 Z-1.000000 I-0.715312 J3.942646
G02 X61.082126 Y59.594439 Z-1.000000 I1.471112 J3.210720
G01 X61.082126 Y59.594439 Z-1.000000
G00 Z5.000000

(End cutting path id: path9)


(Start cutting path id: path6)
(Change tool to Default tool)

G00 Z5.000000
G00 X61.082126 Y59.594439

G01 Z-1.000000 F100.0(Penetrate)
G02 X58.263638 Y63.434458 Z-1.000000 I11.122291 J11.117878 F400.000000
G02 X56.800594 Y67.795739 Z-1.000000 I13.001740 J6.787628
G01 X70.385836 Y81.985590 Z-1.000000
G01 X72.952726 Y72.644958 Z-1.000000
G03 X67.178222 Y67.804876 Z-1.000000 I7.126596 J-14.367151
G02 X61.985104 Y62.645210 Z-1.000000 I-19.376700 J14.309103
G03 X61.152173 Y61.187811 Z-1.000000 I1.246778 J-1.679273
G03 X61.082126 Y59.594439 Z-1.000000 I12.726011 J-1.357682
G01 X61.082126 Y59.594439 Z-1.000000
G00 Z5.000000

(End cutting path id: path6)


(Start cutting path id: path11)
(Change tool to Default tool)

G00 Z5.000000
G00 X48.217237 Y59.227216

G01 Z-1.000000 F100.0(Penetrate)
G03 X51.769692 Y53.742816 Z-1.000000 I16.832593 J7.010382 F400.000000
G03 X57.013656 Y49.180388 Z-1.000000 I25.392910 J23.891234
G02 X55.342975 Y49.103369 Z-1.000000 I-1.219383 J8.292089
G02 X53.695975 Y49.359291 Z-1.000000 I0.448232 J8.312256
G02 X49.584688 Y51.947968 Z-1.000000 I2.403174 J8.375748
G02 X47.740384 Y56.063454 Z-1.000000 I5.613285 J4.986519
G02 X47.789013 Y57.666141 Z-1.000000 I6.711485 J0.598439
G02 X48.217237 Y59.227216 Z-1.000000 I6.790775 J-1.023529
G01 X48.217237 Y59.227216 Z-1.000000
G00 Z5.000000

(End cutting path id: path11)


(Start cutting path id: path10)
(Change tool to Default tool)

G00 Z5.000000
G00 X38.497549 Y50.686941

G01 Z-1.000000 F100.0(Penetrate)
G03 X41.954476 Y44.910330 Z-1.000000 I16.445969 J5.919166 F400.000000
G03 X47.233093 Y40.178731 Z-1.000000 I24.678653 J22.221503
G02 X40.830779 Y40.052343 Z-1.000000 I-3.395543 J9.783590
G02 X36.742324 Y43.003519 Z-1.000000 I2.254666 J7.431123
G02 X35.934400 Y46.729472 Z-1.000000 I4.217051 J2.864983
G02 X38.497549 Y50.686941 Z-1.000000 I5.896634 J-1.010318
G01 X38.497549 Y50.686941 Z-1.000000
G00 Z5.000000

(End cutting path id: path10)


(Footer)
M5
G00 X0.0000 Y0.0000
M2
(Using default footer. To add your own footer create file "footer" in the output dir.)
(end)
%