%
(Header)
(Generated by gcodetools from Inkscape.)
(Using default header. To add your own header create file "header" in the output dir.)
M3
(Header end.)
G21 (All units in mm)

(Start cutting path id: path5)
(Change tool to Default tool)

G00 Z5.000000
G00 X86.882926 Y59.679182

G01 Z-1.000000 F100.0(Penetrate)
G02 X90.773881 Y65.202496 Z-1.000000 I52.027747 J-32.519314 F400.000000
G02 X95.314095 Y70.347464 Z-1.000000 I49.652959 J-39.240858
G01 X125.751531 Y73.765457 Z-1.000000
G02 X121.781877 Y68.334096 Z-1.000000 I-15.291522 J7.009868
G03 X117.411673 Y63.276079 Z-1.000000 I18.807469 J-20.666909
G01 X86.882926 Y59.679182 Z-1.000000
G00 Z5.000000

(End cutting path id: path5)


(Start cutting path id: path3)
(Change tool to Default tool)

G00 Z5.000000
G00 X79.892461 Y59.763926

G01 Z-1.000000 F100.0(Penetrate)
G02 X73.878489 Y83.551120 Z-1.000000 I17863.638296 J4529.008434 F400.000000
G03 X68.214632 Y105.807966 Z-1.000000 I-5018.157244 J-1265.156797
G02 X68.587939 Y108.897541 Z-1.000000 I4.157866 J1.064954
G02 X70.182919 Y111.363382 Z-1.000000 I15.633290 J-8.363323
G02 X72.921742 Y114.893135 Z-1.000000 I625.030432 J-482.149077
G03 X76.655947 Y119.696506 Z-1.000000 I-1261.490032 J984.552961
G01 X89.368650 Y70.573447 Z-1.000000
G01 X79.892461 Y59.763926 Z-1.000000
G00 Z5.000000

(End cutting path id: path3)


(Start cutting path id: path1)
(Change tool to Default tool)

G00 Z5.000000
G00 X115.554990 Y98.670669

G01 Z-1.000000 F100.0(Penetrate)
G03 X112.155353 Y107.349523 Z-1.000000 I-7.550276 J2.047715 F400.000000
G03 X103.380016 Y109.320119 Z-1.000000 I-7.187552 J-11.482968
G03 X96.471487 Y105.855338 Z-1.000000 I1.337660 J-11.287151
G03 X94.512576 Y100.167807 Z-1.000000 I5.265151 J-4.994545
G03 X97.225855 Y95.611448 Z-1.000000 I6.177468 J0.592590
G03 X104.211972 Y93.303573 Z-1.000000 I7.611724 J11.313578
G03 X110.651349 Y94.593503 Z-1.000000 I0.702132 J13.212700
G03 X115.554990 Y98.680085 Z-1.000000 I-5.676761 J11.797074
G01 X115.554990 Y98.670669 Z-1.000000
G00 Z5.000000

(End cutting path id: path1)


(Start cutting path id: path1)
(Change tool to Default tool)

G00 Z5.000000
G00 X113.688160 Y125.628560

G01 Z-1.000000 F100.0(Penetrate)
G01 X127.019757 Y78.125046 Z-1.000000 F400.000000
G01 X93.284933 Y74.499902 Z-1.000000
G01 X80.825876 Y120.873501 Z-1.000000
G01 X113.688160 Y125.628560 Z-1.000000
G00 Z5.000000

(End cutting path id: path1)


(Footer)
M5
G00 X0.0000 Y0.0000
M2
(Using default footer. To add your own footer create file "footer" in the output dir.)
(end)
%